{
"type": "FeatureCollection",
"name": "task11_pour_points",
"crs": { "type": "name", "properties": { "name": "urn:ogc:def:crs:OGC:1.3:CRS84" } },
"features": [
{ "type": "Feature", "properties": { "block_id": -2909888, "name": "block_-2909888", "lon": -116.1891, "lat": 44.9902, "p_anomalous": 0.395, "elev_m": 1458.1488037109375, "nearest_gold_deg": 0.057350495202742061, "spatial_flag": "near_known_gold", "campaign_class": "watch", "walk_rank": 15 }, "geometry": { "type": "Point", "coordinates": [ -116.1891, 44.9902 ] } },
{ "type": "Feature", "properties": { "block_id": -2899888, "name": "block_-2899888", "lon": -115.6425, "lat": 45.0769, "p_anomalous": 0.43956193353474321, "elev_m": 1052.2420654296875, "nearest_gold_deg": 0.016768476376823591, "spatial_flag": "near_known_gold", "campaign_class": "confirm", "walk_rank": 4 }, "geometry": { "type": "Point", "coordinates": [ -115.6425, 45.0769 ] } },
{ "type": "Feature", "properties": { "block_id": -2899887, "name": "block_-2899887", "lon": -115.8064, "lat": 45.4689, "p_anomalous": 0.385, "elev_m": 634.536865234375, "nearest_gold_deg": 0.028208106990720506, "spatial_flag": "near_known_gold", "campaign_class": "watch", "walk_rank": 19 }, "geometry": { "type": "Point", "coordinates": [ -115.8064, 45.4689 ] } },
{ "type": "Feature", "properties": { "block_id": -2899886, "name": "block_-2899886", "lon": -115.9667, "lat": 45.9914, "p_anomalous": 0.445, "elev_m": 473.65118408203125, "nearest_gold_deg": 0.074404696760347999, "spatial_flag": "near_known_gold", "campaign_class": "expedition", "walk_rank": 1 }, "geometry": { "type": "Point", "coordinates": [ -115.9667, 45.9914 ] } },
{ "type": "Feature", "properties": { "block_id": -2899885, "name": "block_-2899885", "lon": -115.9411, "lat": 46.1425, "p_anomalous": 0.495, "elev_m": 385.35971069335938, "nearest_gold_deg": 0.22192574185974318, "spatial_flag": "far_from_known_gold", "campaign_class": "watch", "walk_rank": 11 }, "geometry": { "type": "Point", "coordinates": [ -115.9411, 46.1425 ] } },
{ "type": "Feature", "properties": { "block_id": -2889888, "name": "block_-2889888", "lon": -115.5678, "lat": 45.1508, "p_anomalous": 0.445, "elev_m": 1078.9443359375, "nearest_gold_deg": 0.065471412081924099, "spatial_flag": "near_known_gold", "campaign_class": "expedition", "walk_rank": 2 }, "geometry": { "type": "Point", "coordinates": [ -115.5678, 45.1508 ] } },
{ "type": "Feature", "properties": { "block_id": -2889887, "name": "block_-2889887", "lon": -115.4911, "lat": 45.395, "p_anomalous": 0.4, "elev_m": 671.8326416015625, "nearest_gold_deg": 0.010970223334104292, "spatial_flag": "near_known_gold", "campaign_class": "watch", "walk_rank": 22 }, "geometry": { "type": "Point", "coordinates": [ -115.4911, 45.395 ] } },
{ "type": "Feature", "properties": { "block_id": -2889886, "name": "block_-2889886", "lon": -115.245, "lat": 45.9119, "p_anomalous": 0.385, "elev_m": 885.9656982421875, "nearest_gold_deg": 0.12150875606308986, "spatial_flag": "near_known_gold", "campaign_class": "watch", "walk_rank": 13 }, "geometry": { "type": "Point", "coordinates": [ -115.245, 45.9119 ] } },
{ "type": "Feature", "properties": { "block_id": -2889885, "name": "block_-2889885", "lon": -115.5758, "lat": 46.1669, "p_anomalous": 0.41, "elev_m": 452.0, "nearest_gold_deg": 0.22509942914187853, "spatial_flag": "far_from_known_gold", "campaign_class": "watch", "walk_rank": 10 }, "geometry": { "type": "Point", "coordinates": [ -115.5758, 46.1669 ] } },
{ "type": "Feature", "properties": { "block_id": -2879889, "name": "block_-2879889", "lon": -114.8362, "lat": 44.8, "p_anomalous": 0.45644015554719281, "elev_m": 1230.1973876953125, "nearest_gold_deg": 0.028434415766819293, "spatial_flag": "near_known_gold", "campaign_class": "watch", "walk_rank": 18 }, "geometry": { "type": "Point", "coordinates": [ -114.8362, 44.8 ] } },
{ "type": "Feature", "properties": { "block_id": -2879888, "name": "block_-2879888", "lon": -114.8275, "lat": 45.1011, "p_anomalous": 0.525, "elev_m": 1172.944091796875, "nearest_gold_deg": 0.0024953757232071675, "spatial_flag": "near_known_gold", "campaign_class": "confirm", "walk_rank": 6 }, "geometry": { "type": "Point", "coordinates": [ -114.8275, 45.1011 ] } },
{ "type": "Feature", "properties": { "block_id": -2879887, "name": "block_-2879887", "lon": -115.1719, "lat": 45.5614, "p_anomalous": 0.365, "elev_m": 762.0, "nearest_gold_deg": 0.022676551766077465, "spatial_flag": "near_known_gold", "campaign_class": "confirm", "walk_rank": 3 }, "geometry": { "type": "Point", "coordinates": [ -115.1719, 45.5614 ] } },
{ "type": "Feature", "properties": { "block_id": -2879886, "name": "block_-2879886", "lon": -114.8369, "lat": 45.9786, "p_anomalous": 0.385, "elev_m": 830.4940185546875, "nearest_gold_deg": 0.12988641961343991, "spatial_flag": "near_known_gold", "campaign_class": "watch", "walk_rank": 12 }, "geometry": { "type": "Point", "coordinates": [ -114.8369, 45.9786 ] } },
{ "type": "Feature", "properties": { "block_id": -2879885, "name": "block_-2879885", "lon": -115.1197, "lat": 46.0892, "p_anomalous": 0.42, "elev_m": 575.06951904296875, "nearest_gold_deg": 0.33846240234330227, "spatial_flag": "far_from_known_gold", "campaign_class": "watch", "walk_rank": 7 }, "geometry": { "type": "Point", "coordinates": [ -115.1197, 46.0892 ] } },
{ "type": "Feature", "properties": { "block_id": -2869889, "name": "block_-2869889", "lon": -114.67, "lat": 44.8, "p_anomalous": 0.41782771535580521, "elev_m": 2727.084228515625, "nearest_gold_deg": 0.015820050568824354, "spatial_flag": "near_known_gold", "campaign_class": "watch", "walk_rank": 20 }, "geometry": { "type": "Point", "coordinates": [ -114.67, 44.8 ] } },
{ "type": "Feature", "properties": { "block_id": -2869888, "name": "block_-2869888", "lon": -114.7258, "lat": 45.0675, "p_anomalous": 0.395, "elev_m": 1052.8673095703125, "nearest_gold_deg": 0.0043048809507356695, "spatial_flag": "near_known_gold", "campaign_class": "watch", "walk_rank": 23 }, "geometry": { "type": "Point", "coordinates": [ -114.7258, 45.0675 ] } },
{ "type": "Feature", "properties": { "block_id": -2869887, "name": "block_-2869887", "lon": -114.7461, "lat": 45.3944, "p_anomalous": 0.35943248532289629, "elev_m": 879.560791015625, "nearest_gold_deg": 0.014100982235285917, "spatial_flag": "near_known_gold", "campaign_class": "watch", "walk_rank": 21 }, "geometry": { "type": "Point", "coordinates": [ -114.7461, 45.3944 ] } },
{ "type": "Feature", "properties": { "block_id": -2869886, "name": "block_-2869886", "lon": -114.7883, "lat": 45.9044, "p_anomalous": 0.405, "elev_m": 908.998291015625, "nearest_gold_deg": 0.04119934465498222, "spatial_flag": "near_known_gold", "campaign_class": "watch", "walk_rank": 17 }, "geometry": { "type": "Point", "coordinates": [ -114.7883, 45.9044 ] } },
{ "type": "Feature", "properties": { "block_id": -2869885, "name": "block_-2869885", "lon": -114.7589, "lat": 46.1972, "p_anomalous": 0.37, "elev_m": 900.7454833984375, "nearest_gold_deg": 0.30750984699681111, "spatial_flag": "far_from_known_gold", "campaign_class": "watch", "walk_rank": 8 }, "geometry": { "type": "Point", "coordinates": [ -114.7589, 46.1972 ] } },
{ "type": "Feature", "properties": { "block_id": -2859888, "name": "block_-2859888", "lon": -114.3144, "lat": 45.1756, "p_anomalous": 0.41595194721168099, "elev_m": 1323.021240234375, "nearest_gold_deg": 0.050245601797572002, "spatial_flag": "near_known_gold", "campaign_class": "watch", "walk_rank": 16 }, "geometry": { "type": "Point", "coordinates": [ -114.3144, 45.1756 ] } },
{ "type": "Feature", "properties": { "block_id": -2859887, "name": "block_-2859887", "lon": -114.3361, "lat": 45.3417, "p_anomalous": 0.385, "elev_m": 1001.4362182617188, "nearest_gold_deg": 0.0086546692599983564, "spatial_flag": "near_known_gold", "campaign_class": "confirm", "walk_rank": 5 }, "geometry": { "type": "Point", "coordinates": [ -114.3361, 45.3417 ] } },
{ "type": "Feature", "properties": { "block_id": -2859886, "name": "block_-2859886", "lon": -114.1672, "lat": 45.9998, "p_anomalous": 0.41, "elev_m": 1191.681640625, "nearest_gold_deg": 0.11632441704130986, "spatial_flag": "near_known_gold", "campaign_class": "watch", "walk_rank": 14 }, "geometry": { "type": "Point", "coordinates": [ -114.1672, 45.9998 ] } },
{ "type": "Feature", "properties": { "block_id": -2859885, "name": "block_-2859885", "lon": -114.1514, "lat": 46.1647, "p_anomalous": 0.455, "elev_m": 1137.2830810546875, "nearest_gold_deg": 0.27735104831242791, "spatial_flag": "far_from_known_gold", "campaign_class": "watch", "walk_rank": 9 }, "geometry": { "type": "Point", "coordinates": [ -114.1514, 46.1647 ] } }
]
}
