{
"type": "FeatureCollection",
"name": "task11_field_campaign_targets",
"crs": { "type": "name", "properties": { "name": "urn:ogc:def:crs:OGC:1.3:CRS84" } },
"features": [
{ "type": "Feature", "properties": { "walk_rank": "1", "block_id": -2859886, "campaign_class": "expedition", "spot_order": 1, "role": "high_p_sample", "lon": -114.1844, "lat": 45.61, "p_anomalous": 0.83, "elev_m": 1673.0 }, "geometry": { "type": "Point", "coordinates": [ -114.1844, 45.61 ] } },
{ "type": "Feature", "properties": { "walk_rank": "1", "block_id": -2859886, "campaign_class": "expedition", "spot_order": 2, "role": "high_p_sample", "lon": -114.21, "lat": 45.6106, "p_anomalous": 0.87, "elev_m": 1639.8 }, "geometry": { "type": "Point", "coordinates": [ -114.21, 45.6106 ] } },
{ "type": "Feature", "properties": { "walk_rank": "1", "block_id": -2859886, "campaign_class": "expedition", "spot_order": 3, "role": "high_p_sample", "lon": -114.2911, "lat": 45.6106, "p_anomalous": 0.86, "elev_m": 1538.8 }, "geometry": { "type": "Point", "coordinates": [ -114.2911, 45.6106 ] } },
{ "type": "Feature", "properties": { "walk_rank": "1", "block_id": -2859886, "campaign_class": "expedition", "spot_order": 4, "role": "pour_point", "lon": -114.1769, "lat": 45.9864, "p_anomalous": 0.155, "elev_m": 1227.4 }, "geometry": { "type": "Point", "coordinates": [ -114.1769, 45.9864 ] } },
{ "type": "Feature", "properties": { "walk_rank": "2", "block_id": -2899886, "campaign_class": "expedition", "spot_order": 1, "role": "high_p_sample", "lon": -115.6136, "lat": 45.83, "p_anomalous": 0.965, "elev_m": 1141.3 }, "geometry": { "type": "Point", "coordinates": [ -115.6136, 45.83 ] } },
{ "type": "Feature", "properties": { "walk_rank": "2", "block_id": -2899886, "campaign_class": "expedition", "spot_order": 2, "role": "high_p_sample", "lon": -115.6822, "lat": 45.8061, "p_anomalous": 0.975, "elev_m": 1114.2 }, "geometry": { "type": "Point", "coordinates": [ -115.6822, 45.8061 ] } },
{ "type": "Feature", "properties": { "walk_rank": "2", "block_id": -2899886, "campaign_class": "expedition", "spot_order": 3, "role": "high_p_sample", "lon": -115.6322, "lat": 45.8244, "p_anomalous": 0.96, "elev_m": 1105.6 }, "geometry": { "type": "Point", "coordinates": [ -115.6322, 45.8244 ] } },
{ "type": "Feature", "properties": { "walk_rank": "2", "block_id": -2899886, "campaign_class": "expedition", "spot_order": 4, "role": "pour_point", "lon": -115.9606, "lat": 45.99, "p_anomalous": 0.125, "elev_m": 512.9 }, "geometry": { "type": "Point", "coordinates": [ -115.9606, 45.99 ] } },
{ "type": "Feature", "properties": { "walk_rank": "3", "block_id": -2909888, "campaign_class": "expedition", "spot_order": 1, "role": "high_p_sample", "lon": -116.184, "lat": 44.9228, "p_anomalous": 0.735, "elev_m": 1548.1 }, "geometry": { "type": "Point", "coordinates": [ -116.184, 44.9228 ] } },
{ "type": "Feature", "properties": { "walk_rank": "3", "block_id": -2909888, "campaign_class": "expedition", "spot_order": 2, "role": "high_p_sample", "lon": -116.1957, "lat": 44.9408, "p_anomalous": 0.785, "elev_m": 1531.6 }, "geometry": { "type": "Point", "coordinates": [ -116.1957, 44.9408 ] } },
{ "type": "Feature", "properties": { "walk_rank": "3", "block_id": -2909888, "campaign_class": "expedition", "spot_order": 3, "role": "high_p_sample", "lon": -116.167, "lat": 44.9617, "p_anomalous": 0.685, "elev_m": 1525.4 }, "geometry": { "type": "Point", "coordinates": [ -116.167, 44.9617 ] } },
{ "type": "Feature", "properties": { "walk_rank": "3", "block_id": -2909888, "campaign_class": "expedition", "spot_order": 4, "role": "pour_point", "lon": -116.1891, "lat": 44.9902, "p_anomalous": 0.09, "elev_m": 1458.1 }, "geometry": { "type": "Point", "coordinates": [ -116.1891, 44.9902 ] } },
{ "type": "Feature", "properties": { "walk_rank": "4", "block_id": -2859888, "campaign_class": "expedition", "spot_order": 1, "role": "high_p_sample", "lon": -114.1203, "lat": 45.1458, "p_anomalous": 0.86, "elev_m": 2023.2 }, "geometry": { "type": "Point", "coordinates": [ -114.1203, 45.1458 ] } },
{ "type": "Feature", "properties": { "walk_rank": "4", "block_id": -2859888, "campaign_class": "expedition", "spot_order": 2, "role": "high_p_sample", "lon": -114.1433, "lat": 45.1836, "p_anomalous": 0.935, "elev_m": 1883.1 }, "geometry": { "type": "Point", "coordinates": [ -114.1433, 45.1836 ] } },
{ "type": "Feature", "properties": { "walk_rank": "4", "block_id": -2859888, "campaign_class": "expedition", "spot_order": 3, "role": "high_p_sample", "lon": -114.17, "lat": 45.1583, "p_anomalous": 0.875, "elev_m": 1823.1 }, "geometry": { "type": "Point", "coordinates": [ -114.17, 45.1583 ] } },
{ "type": "Feature", "properties": { "walk_rank": "4", "block_id": -2859888, "campaign_class": "expedition", "spot_order": 4, "role": "pour_point", "lon": -114.3122, "lat": 45.1758, "p_anomalous": 0.175, "elev_m": 1317.7 }, "geometry": { "type": "Point", "coordinates": [ -114.3122, 45.1758 ] } },
{ "type": "Feature", "properties": { "walk_rank": "5", "block_id": -2869887, "campaign_class": "expedition", "spot_order": 1, "role": "high_p_sample", "lon": -114.5681, "lat": 45.3006, "p_anomalous": 0.885, "elev_m": 998.7 }, "geometry": { "type": "Point", "coordinates": [ -114.5681, 45.3006 ] } },
{ "type": "Feature", "properties": { "walk_rank": "5", "block_id": -2869887, "campaign_class": "expedition", "spot_order": 2, "role": "high_p_sample", "lon": -114.6369, "lat": 45.3181, "p_anomalous": 0.87, "elev_m": 908.5 }, "geometry": { "type": "Point", "coordinates": [ -114.6369, 45.3181 ] } },
{ "type": "Feature", "properties": { "walk_rank": "5", "block_id": -2869887, "campaign_class": "expedition", "spot_order": 3, "role": "high_p_sample", "lon": -114.6847, "lat": 45.3661, "p_anomalous": 0.9, "elev_m": 889.0 }, "geometry": { "type": "Point", "coordinates": [ -114.6847, 45.3661 ] } },
{ "type": "Feature", "properties": { "walk_rank": "5", "block_id": -2869887, "campaign_class": "expedition", "spot_order": 4, "role": "pour_point", "lon": -114.7831, "lat": 45.3911, "p_anomalous": 0.2, "elev_m": 865.9 }, "geometry": { "type": "Point", "coordinates": [ -114.7831, 45.3911 ] } },
{ "type": "Feature", "properties": { "walk_rank": "6", "block_id": -2889888, "campaign_class": "confirm", "spot_order": 1, "role": "high_p_sample", "lon": -115.6131, "lat": 45.2258, "p_anomalous": 0.865, "elev_m": 1990.8 }, "geometry": { "type": "Point", "coordinates": [ -115.6131, 45.2258 ] } },
{ "type": "Feature", "properties": { "walk_rank": "6", "block_id": -2889888, "campaign_class": "confirm", "spot_order": 2, "role": "high_p_sample", "lon": -115.6075, "lat": 45.2158, "p_anomalous": 0.865, "elev_m": 1864.1 }, "geometry": { "type": "Point", "coordinates": [ -115.6075, 45.2158 ] } },
{ "type": "Feature", "properties": { "walk_rank": "6", "block_id": -2889888, "campaign_class": "confirm", "spot_order": 3, "role": "high_p_sample", "lon": -115.6014, "lat": 45.2031, "p_anomalous": 0.73, "elev_m": 1615.9 }, "geometry": { "type": "Point", "coordinates": [ -115.6014, 45.2031 ] } },
{ "type": "Feature", "properties": { "walk_rank": "6", "block_id": -2889888, "campaign_class": "confirm", "spot_order": 4, "role": "pour_point", "lon": -115.5719, "lat": 45.1878, "p_anomalous": 0.25, "elev_m": 948.4 }, "geometry": { "type": "Point", "coordinates": [ -115.5719, 45.1878 ] } },
{ "type": "Feature", "properties": { "walk_rank": "7", "block_id": -2879889, "campaign_class": "confirm", "spot_order": 1, "role": "high_p_sample", "lon": -114.8563, "lat": 44.8085, "p_anomalous": 0.17, "elev_m": 1570.0 }, "geometry": { "type": "Point", "coordinates": [ -114.8563, 44.8085 ] } },
{ "type": "Feature", "properties": { "walk_rank": "7", "block_id": -2879889, "campaign_class": "confirm", "spot_order": 2, "role": "pour_point", "lon": -114.8362, "lat": 44.8, "p_anomalous": 0.78, "elev_m": 1230.2 }, "geometry": { "type": "Point", "coordinates": [ -114.8362, 44.8 ] } },
{ "type": "Feature", "properties": { "walk_rank": "8", "block_id": -2899887, "campaign_class": "confirm", "spot_order": 1, "role": "high_p_sample", "lon": -115.6947, "lat": 45.3419, "p_anomalous": 0.94, "elev_m": 1755.9 }, "geometry": { "type": "Point", "coordinates": [ -115.6947, 45.3419 ] } },
{ "type": "Feature", "properties": { "walk_rank": "8", "block_id": -2899887, "campaign_class": "confirm", "spot_order": 2, "role": "high_p_sample", "lon": -115.7381, "lat": 45.4436, "p_anomalous": 0.95, "elev_m": 681.6 }, "geometry": { "type": "Point", "coordinates": [ -115.7381, 45.4436 ] } },
{ "type": "Feature", "properties": { "walk_rank": "8", "block_id": -2899887, "campaign_class": "confirm", "spot_order": 3, "role": "high_p_sample", "lon": -115.7608, "lat": 45.4472, "p_anomalous": 0.93, "elev_m": 674.7 }, "geometry": { "type": "Point", "coordinates": [ -115.7608, 45.4472 ] } },
{ "type": "Feature", "properties": { "walk_rank": "8", "block_id": -2899887, "campaign_class": "confirm", "spot_order": 4, "role": "pour_point", "lon": -115.8064, "lat": 45.4689, "p_anomalous": 0.75, "elev_m": 634.5 }, "geometry": { "type": "Point", "coordinates": [ -115.8064, 45.4689 ] } },
{ "type": "Feature", "properties": { "walk_rank": "9", "block_id": -2899888, "campaign_class": "confirm", "spot_order": 1, "role": "high_p_sample", "lon": -115.6586, "lat": 45.1608, "p_anomalous": 0.89, "elev_m": 2255.1 }, "geometry": { "type": "Point", "coordinates": [ -115.6586, 45.1608 ] } },
{ "type": "Feature", "properties": { "walk_rank": "9", "block_id": -2899888, "campaign_class": "confirm", "spot_order": 2, "role": "high_p_sample", "lon": -115.6664, "lat": 45.1589, "p_anomalous": 0.81, "elev_m": 2178.7 }, "geometry": { "type": "Point", "coordinates": [ -115.6664, 45.1589 ] } },
{ "type": "Feature", "properties": { "walk_rank": "9", "block_id": -2899888, "campaign_class": "confirm", "spot_order": 3, "role": "high_p_sample", "lon": -115.6258, "lat": 45.0419, "p_anomalous": 0.81, "elev_m": 1220.7 }, "geometry": { "type": "Point", "coordinates": [ -115.6258, 45.0419 ] } },
{ "type": "Feature", "properties": { "walk_rank": "9", "block_id": -2899888, "campaign_class": "confirm", "spot_order": 4, "role": "pour_point", "lon": -115.6269, "lat": 45.0878, "p_anomalous": 0.75, "elev_m": 1028.6 }, "geometry": { "type": "Point", "coordinates": [ -115.6269, 45.0878 ] } },
{ "type": "Feature", "properties": { "walk_rank": "10", "block_id": -2879887, "campaign_class": "confirm", "spot_order": 1, "role": "high_p_sample", "lon": -115.0058, "lat": 45.5033, "p_anomalous": 0.89, "elev_m": 894.7 }, "geometry": { "type": "Point", "coordinates": [ -115.0058, 45.5033 ] } },
{ "type": "Feature", "properties": { "walk_rank": "10", "block_id": -2879887, "campaign_class": "confirm", "spot_order": 2, "role": "high_p_sample", "lon": -114.9144, "lat": 45.4492, "p_anomalous": 0.91, "elev_m": 882.4 }, "geometry": { "type": "Point", "coordinates": [ -114.9144, 45.4492 ] } },
{ "type": "Feature", "properties": { "walk_rank": "10", "block_id": -2879887, "campaign_class": "confirm", "spot_order": 3, "role": "high_p_sample", "lon": -115.0878, "lat": 45.5219, "p_anomalous": 0.9, "elev_m": 832.0 }, "geometry": { "type": "Point", "coordinates": [ -115.0878, 45.5219 ] } },
{ "type": "Feature", "properties": { "walk_rank": "10", "block_id": -2879887, "campaign_class": "confirm", "spot_order": 4, "role": "pour_point", "lon": -115.1719, "lat": 45.5614, "p_anomalous": 0.805, "elev_m": 762.0 }, "geometry": { "type": "Point", "coordinates": [ -115.1719, 45.5614 ] } },
{ "type": "Feature", "properties": { "walk_rank": "11", "block_id": -2859887, "campaign_class": "confirm", "spot_order": 1, "role": "high_p_sample", "lon": -114.0378, "lat": 45.2847, "p_anomalous": 0.915, "elev_m": 2153.5 }, "geometry": { "type": "Point", "coordinates": [ -114.0378, 45.2847 ] } },
{ "type": "Feature", "properties": { "walk_rank": "11", "block_id": -2859887, "campaign_class": "confirm", "spot_order": 2, "role": "high_p_sample", "lon": -114.0364, "lat": 45.3189, "p_anomalous": 0.885, "elev_m": 1996.3 }, "geometry": { "type": "Point", "coordinates": [ -114.0364, 45.3189 ] } },
{ "type": "Feature", "properties": { "walk_rank": "11", "block_id": -2859887, "campaign_class": "confirm", "spot_order": 3, "role": "high_p_sample", "lon": -114.0628, "lat": 45.3822, "p_anomalous": 0.88, "elev_m": 1098.2 }, "geometry": { "type": "Point", "coordinates": [ -114.0628, 45.3822 ] } },
{ "type": "Feature", "properties": { "walk_rank": "11", "block_id": -2859887, "campaign_class": "confirm", "spot_order": 4, "role": "pour_point", "lon": -114.3886, "lat": 45.3211, "p_anomalous": 0.705, "elev_m": 1014.0 }, "geometry": { "type": "Point", "coordinates": [ -114.3886, 45.3211 ] } },
{ "type": "Feature", "properties": { "walk_rank": "12", "block_id": -2869886, "campaign_class": "confirm", "spot_order": 1, "role": "pour_point", "lon": -114.7642, "lat": 45.8878, "p_anomalous": 0.8, "elev_m": 925.8 }, "geometry": { "type": "Point", "coordinates": [ -114.7642, 45.8878 ] } },
{ "type": "Feature", "properties": { "walk_rank": "13", "block_id": -2869889, "campaign_class": "confirm", "spot_order": 1, "role": "pour_point", "lon": -114.67, "lat": 44.8, "p_anomalous": 0.72, "elev_m": 2727.1 }, "geometry": { "type": "Point", "coordinates": [ -114.67, 44.8 ] } },
{ "type": "Feature", "properties": { "walk_rank": "13", "block_id": -2869889, "campaign_class": "confirm", "spot_order": 2, "role": "high_p_sample", "lon": -114.6747, "lat": 44.8266, "p_anomalous": 0.795, "elev_m": 2490.0 }, "geometry": { "type": "Point", "coordinates": [ -114.6747, 44.8266 ] } },
{ "type": "Feature", "properties": { "walk_rank": "14", "block_id": -2889886, "campaign_class": "confirm", "spot_order": 1, "role": "high_p_sample", "lon": -115.5572, "lat": 45.7833, "p_anomalous": 0.955, "elev_m": 1258.2 }, "geometry": { "type": "Point", "coordinates": [ -115.5572, 45.7833 ] } },
{ "type": "Feature", "properties": { "walk_rank": "14", "block_id": -2889886, "campaign_class": "confirm", "spot_order": 2, "role": "high_p_sample", "lon": -115.5253, "lat": 45.8247, "p_anomalous": 0.965, "elev_m": 1196.8 }, "geometry": { "type": "Point", "coordinates": [ -115.5253, 45.8247 ] } },
{ "type": "Feature", "properties": { "walk_rank": "14", "block_id": -2889886, "campaign_class": "confirm", "spot_order": 3, "role": "high_p_sample", "lon": -115.5292, "lat": 45.8239, "p_anomalous": 0.965, "elev_m": 1194.7 }, "geometry": { "type": "Point", "coordinates": [ -115.5292, 45.8239 ] } },
{ "type": "Feature", "properties": { "walk_rank": "14", "block_id": -2889886, "campaign_class": "confirm", "spot_order": 4, "role": "pour_point", "lon": -115.5825, "lat": 45.8297, "p_anomalous": 0.78, "elev_m": 1145.2 }, "geometry": { "type": "Point", "coordinates": [ -115.5825, 45.8297 ] } },
{ "type": "Feature", "properties": { "walk_rank": "15", "block_id": -2889887, "campaign_class": "confirm", "spot_order": 1, "role": "high_p_sample", "lon": -115.4614, "lat": 45.5697, "p_anomalous": 0.905, "elev_m": 1752.6 }, "geometry": { "type": "Point", "coordinates": [ -115.4614, 45.5697 ] } },
{ "type": "Feature", "properties": { "walk_rank": "15", "block_id": -2889887, "campaign_class": "confirm", "spot_order": 2, "role": "high_p_sample", "lon": -115.3528, "lat": 45.4825, "p_anomalous": 0.895, "elev_m": 812.6 }, "geometry": { "type": "Point", "coordinates": [ -115.3528, 45.4825 ] } },
{ "type": "Feature", "properties": { "walk_rank": "15", "block_id": -2889887, "campaign_class": "confirm", "spot_order": 3, "role": "high_p_sample", "lon": -115.4647, "lat": 45.4183, "p_anomalous": 0.88, "elev_m": 682.7 }, "geometry": { "type": "Point", "coordinates": [ -115.4647, 45.4183 ] } },
{ "type": "Feature", "properties": { "walk_rank": "15", "block_id": -2889887, "campaign_class": "confirm", "spot_order": 4, "role": "pour_point", "lon": -115.4911, "lat": 45.395, "p_anomalous": 0.78, "elev_m": 671.8 }, "geometry": { "type": "Point", "coordinates": [ -115.4911, 45.395 ] } },
{ "type": "Feature", "properties": { "walk_rank": "16", "block_id": -2869888, "campaign_class": "confirm", "spot_order": 1, "role": "high_p_sample", "lon": -114.7638, "lat": 44.873, "p_anomalous": 0.815, "elev_m": 1235.6 }, "geometry": { "type": "Point", "coordinates": [ -114.7638, 44.873 ] } },
{ "type": "Feature", "properties": { "walk_rank": "16", "block_id": -2869888, "campaign_class": "confirm", "spot_order": 2, "role": "high_p_sample", "lon": -114.7275, "lat": 45.0003, "p_anomalous": 0.855, "elev_m": 1176.4 }, "geometry": { "type": "Point", "coordinates": [ -114.7275, 45.0003 ] } },
{ "type": "Feature", "properties": { "walk_rank": "16", "block_id": -2869888, "campaign_class": "confirm", "spot_order": 3, "role": "high_p_sample", "lon": -114.7219, "lat": 45.0336, "p_anomalous": 0.83, "elev_m": 1089.1 }, "geometry": { "type": "Point", "coordinates": [ -114.7219, 45.0336 ] } },
{ "type": "Feature", "properties": { "walk_rank": "16", "block_id": -2869888, "campaign_class": "confirm", "spot_order": 4, "role": "pour_point", "lon": -114.7258, "lat": 45.0675, "p_anomalous": 0.69, "elev_m": 1052.9 }, "geometry": { "type": "Point", "coordinates": [ -114.7258, 45.0675 ] } },
{ "type": "Feature", "properties": { "walk_rank": "17", "block_id": -2879888, "campaign_class": "confirm", "spot_order": 1, "role": "high_p_sample", "lon": -115.1422, "lat": 45.0931, "p_anomalous": 0.885, "elev_m": 1554.5 }, "geometry": { "type": "Point", "coordinates": [ -115.1422, 45.0931 ] } },
{ "type": "Feature", "properties": { "walk_rank": "17", "block_id": -2879888, "campaign_class": "confirm", "spot_order": 2, "role": "high_p_sample", "lon": -115.0308, "lat": 45.1403, "p_anomalous": 0.89, "elev_m": 1311.8 }, "geometry": { "type": "Point", "coordinates": [ -115.0308, 45.1403 ] } },
{ "type": "Feature", "properties": { "walk_rank": "17", "block_id": -2879888, "campaign_class": "confirm", "spot_order": 3, "role": "high_p_sample", "lon": -114.9319, "lat": 45.1342, "p_anomalous": 0.885, "elev_m": 1264.4 }, "geometry": { "type": "Point", "coordinates": [ -114.9319, 45.1342 ] } },
{ "type": "Feature", "properties": { "walk_rank": "17", "block_id": -2879888, "campaign_class": "confirm", "spot_order": 4, "role": "pour_point", "lon": -114.8275, "lat": 45.1011, "p_anomalous": 0.835, "elev_m": 1172.9 }, "geometry": { "type": "Point", "coordinates": [ -114.8275, 45.1011 ] } },
{ "type": "Feature", "properties": { "walk_rank": "<NA>", "block_id": -2859885, "campaign_class": "skip", "spot_order": 1, "role": "high_p_sample", "lon": -114.205, "lat": 46.1492, "p_anomalous": 0.15, "elev_m": 1174.3 }, "geometry": { "type": "Point", "coordinates": [ -114.205, 46.1492 ] } },
{ "type": "Feature", "properties": { "walk_rank": "<NA>", "block_id": -2859885, "campaign_class": "skip", "spot_order": 2, "role": "high_p_sample", "lon": -114.2042, "lat": 46.1508, "p_anomalous": 0.15, "elev_m": 1167.6 }, "geometry": { "type": "Point", "coordinates": [ -114.2042, 46.1508 ] } },
{ "type": "Feature", "properties": { "walk_rank": "<NA>", "block_id": -2859885, "campaign_class": "skip", "spot_order": 3, "role": "high_p_sample", "lon": -114.1983, "lat": 46.1597, "p_anomalous": 0.275, "elev_m": 1157.2 }, "geometry": { "type": "Point", "coordinates": [ -114.1983, 46.1597 ] } },
{ "type": "Feature", "properties": { "walk_rank": "<NA>", "block_id": -2859885, "campaign_class": "skip", "spot_order": 4, "role": "pour_point", "lon": -114.1836, "lat": 46.1839, "p_anomalous": 0.145, "elev_m": 1131.1 }, "geometry": { "type": "Point", "coordinates": [ -114.1836, 46.1839 ] } },
{ "type": "Feature", "properties": { "walk_rank": "<NA>", "block_id": -2879885, "campaign_class": "skip", "spot_order": 1, "role": "high_p_sample", "lon": -114.8442, "lat": 46.0019, "p_anomalous": 0.17, "elev_m": 789.9 }, "geometry": { "type": "Point", "coordinates": [ -114.8442, 46.0019 ] } },
{ "type": "Feature", "properties": { "walk_rank": "<NA>", "block_id": -2879885, "campaign_class": "skip", "spot_order": 2, "role": "high_p_sample", "lon": -114.9294, "lat": 46.1211, "p_anomalous": 0.175, "elev_m": 694.2 }, "geometry": { "type": "Point", "coordinates": [ -114.9294, 46.1211 ] } },
{ "type": "Feature", "properties": { "walk_rank": "<NA>", "block_id": -2879885, "campaign_class": "skip", "spot_order": 3, "role": "high_p_sample", "lon": -115.0092, "lat": 46.1094, "p_anomalous": 0.21, "elev_m": 636.6 }, "geometry": { "type": "Point", "coordinates": [ -115.0092, 46.1094 ] } },
{ "type": "Feature", "properties": { "walk_rank": "<NA>", "block_id": -2879885, "campaign_class": "skip", "spot_order": 4, "role": "pour_point", "lon": -115.1956, "lat": 46.0669, "p_anomalous": 0.115, "elev_m": 547.5 }, "geometry": { "type": "Point", "coordinates": [ -115.1956, 46.0669 ] } },
{ "type": "Feature", "properties": { "walk_rank": "<NA>", "block_id": -2899885, "campaign_class": "skip", "spot_order": 1, "role": "high_p_sample", "lon": -115.8028, "lat": 46.1925, "p_anomalous": 0.08, "elev_m": 1000.8 }, "geometry": { "type": "Point", "coordinates": [ -115.8028, 46.1925 ] } },
{ "type": "Feature", "properties": { "walk_rank": "<NA>", "block_id": -2899885, "campaign_class": "skip", "spot_order": 2, "role": "pour_point", "lon": -115.9411, "lat": 46.1425, "p_anomalous": 0.11, "elev_m": 385.4 }, "geometry": { "type": "Point", "coordinates": [ -115.9411, 46.1425 ] } },
{ "type": "Feature", "properties": { "walk_rank": "<NA>", "block_id": -2889885, "campaign_class": "skip", "spot_order": 1, "role": "high_p_sample", "lon": -115.6358, "lat": 46.0958, "p_anomalous": 0.03, "elev_m": 1053.3 }, "geometry": { "type": "Point", "coordinates": [ -115.6358, 46.0958 ] } },
{ "type": "Feature", "properties": { "walk_rank": "<NA>", "block_id": -2889885, "campaign_class": "skip", "spot_order": 2, "role": "pour_point", "lon": -115.5728, "lat": 46.1156, "p_anomalous": 0.09, "elev_m": 462.0 }, "geometry": { "type": "Point", "coordinates": [ -115.5728, 46.1156 ] } },
{ "type": "Feature", "properties": { "walk_rank": "<NA>", "block_id": -2869885, "campaign_class": "skip", "spot_order": 1, "role": "high_p_sample", "lon": -114.6506, "lat": 46.1494, "p_anomalous": 0.195, "elev_m": 1951.3 }, "geometry": { "type": "Point", "coordinates": [ -114.6506, 46.1494 ] } },
{ "type": "Feature", "properties": { "walk_rank": "<NA>", "block_id": -2869885, "campaign_class": "skip", "spot_order": 2, "role": "high_p_sample", "lon": -114.5469, "lat": 46.1075, "p_anomalous": 0.175, "elev_m": 1487.2 }, "geometry": { "type": "Point", "coordinates": [ -114.5469, 46.1075 ] } },
{ "type": "Feature", "properties": { "walk_rank": "<NA>", "block_id": -2869885, "campaign_class": "skip", "spot_order": 3, "role": "pour_point", "lon": -114.7453, "lat": 46.0369, "p_anomalous": 0.19, "elev_m": 866.9 }, "geometry": { "type": "Point", "coordinates": [ -114.7453, 46.0369 ] } },
{ "type": "Feature", "properties": { "walk_rank": "<NA>", "block_id": -2879886, "campaign_class": "skip", "spot_order": 1, "role": "high_p_sample", "lon": -115.0311, "lat": 45.7961, "p_anomalous": 0.18, "elev_m": 2107.6 }, "geometry": { "type": "Point", "coordinates": [ -115.0311, 45.7961 ] } },
{ "type": "Feature", "properties": { "walk_rank": "<NA>", "block_id": -2879886, "campaign_class": "skip", "spot_order": 2, "role": "high_p_sample", "lon": -114.8567, "lat": 45.7211, "p_anomalous": 0.18, "elev_m": 1408.8 }, "geometry": { "type": "Point", "coordinates": [ -114.8567, 45.7211 ] } },
{ "type": "Feature", "properties": { "walk_rank": "<NA>", "block_id": -2879886, "campaign_class": "skip", "spot_order": 3, "role": "high_p_sample", "lon": -115.1358, "lat": 45.8744, "p_anomalous": 0.275, "elev_m": 1115.8 }, "geometry": { "type": "Point", "coordinates": [ -115.1358, 45.8744 ] } },
{ "type": "Feature", "properties": { "walk_rank": "<NA>", "block_id": -2879886, "campaign_class": "skip", "spot_order": 4, "role": "pour_point", "lon": -114.84, "lat": 45.9833, "p_anomalous": 0.105, "elev_m": 788.0 }, "geometry": { "type": "Point", "coordinates": [ -114.84, 45.9833 ] } }
]
}
