{
"type": "FeatureCollection",
"name": "task11_spatial_cv_blocks_0p4deg",
"crs": { "type": "name", "properties": { "name": "urn:ogc:def:crs:OGC:1.3:CRS84" } },
"features": [
{ "type": "Feature", "properties": { "block_id": -2909889, "lon_min": -116.4, "lon_max": -116.0, "lat_min": 44.4, "lat_max": 44.8, "n_nure": 0, "mean_p": null, "max_p": null, "loco_auc": null, "campaign_class": "skip", "walk_rank": null, "spatial_flag": "no_nure" }, "geometry": { "type": "Polygon", "coordinates": [ [ [ -116.0, 44.4 ], [ -116.0, 44.8 ], [ -116.4, 44.8 ], [ -116.4, 44.4 ], [ -116.0, 44.4 ] ] ] } },
{ "type": "Feature", "properties": { "block_id": -2909888, "lon_min": -116.4, "lon_max": -116.0, "lat_min": 44.8, "lat_max": 45.2, "n_nure": 25, "mean_p": 0.3227, "max_p": 0.4056, "loco_auc": 0.2083, "campaign_class": "watch", "walk_rank": 15, "spatial_flag": "near_known_gold" }, "geometry": { "type": "Polygon", "coordinates": [ [ [ -116.0, 44.8 ], [ -116.0, 45.2 ], [ -116.4, 45.2 ], [ -116.4, 44.8 ], [ -116.0, 44.8 ] ] ] } },
{ "type": "Feature", "properties": { "block_id": -2909887, "lon_min": -116.4, "lon_max": -116.0, "lat_min": 45.2, "lat_max": 45.6, "n_nure": 0, "mean_p": null, "max_p": null, "loco_auc": null, "campaign_class": "skip", "walk_rank": null, "spatial_flag": "no_nure" }, "geometry": { "type": "Polygon", "coordinates": [ [ [ -116.0, 45.2 ], [ -116.0, 45.6 ], [ -116.4, 45.6 ], [ -116.4, 45.2 ], [ -116.0, 45.2 ] ] ] } },
{ "type": "Feature", "properties": { "block_id": -2909886, "lon_min": -116.4, "lon_max": -116.0, "lat_min": 45.6, "lat_max": 46.0, "n_nure": 0, "mean_p": null, "max_p": null, "loco_auc": null, "campaign_class": "skip", "walk_rank": null, "spatial_flag": "no_nure" }, "geometry": { "type": "Polygon", "coordinates": [ [ [ -116.0, 45.6 ], [ -116.0, 46.0 ], [ -116.4, 46.0 ], [ -116.4, 45.6 ], [ -116.0, 45.6 ] ] ] } },
{ "type": "Feature", "properties": { "block_id": -2909885, "lon_min": -116.4, "lon_max": -116.0, "lat_min": 46.0, "lat_max": 46.4, "n_nure": 0, "mean_p": null, "max_p": null, "loco_auc": null, "campaign_class": "skip", "walk_rank": null, "spatial_flag": "no_nure" }, "geometry": { "type": "Polygon", "coordinates": [ [ [ -116.0, 46.0 ], [ -116.0, 46.4 ], [ -116.4, 46.4 ], [ -116.4, 46.0 ], [ -116.0, 46.0 ] ] ] } },
{ "type": "Feature", "properties": { "block_id": -2899889, "lon_min": -116.0, "lon_max": -115.6, "lat_min": 44.4, "lat_max": 44.8, "n_nure": 0, "mean_p": null, "max_p": null, "loco_auc": null, "campaign_class": "skip", "walk_rank": null, "spatial_flag": "no_nure" }, "geometry": { "type": "Polygon", "coordinates": [ [ [ -115.6, 44.4 ], [ -115.6, 44.8 ], [ -116.0, 44.8 ], [ -116.0, 44.4 ], [ -115.6, 44.4 ] ] ] } },
{ "type": "Feature", "properties": { "block_id": -2899888, "lon_min": -116.0, "lon_max": -115.6, "lat_min": 44.8, "lat_max": 45.2, "n_nure": 141, "mean_p": 0.424, "max_p": 0.731, "loco_auc": 0.5162, "campaign_class": "confirm", "walk_rank": 4, "spatial_flag": "near_known_gold" }, "geometry": { "type": "Polygon", "coordinates": [ [ [ -115.6, 44.8 ], [ -115.6, 45.2 ], [ -116.0, 45.2 ], [ -116.0, 44.8 ], [ -115.6, 44.8 ] ] ] } },
{ "type": "Feature", "properties": { "block_id": -2899887, "lon_min": -116.0, "lon_max": -115.6, "lat_min": 45.2, "lat_max": 45.6, "n_nure": 129, "mean_p": 0.3591, "max_p": 0.59, "loco_auc": 0.5326, "campaign_class": "watch", "walk_rank": 19, "spatial_flag": "near_known_gold" }, "geometry": { "type": "Polygon", "coordinates": [ [ [ -115.6, 45.2 ], [ -115.6, 45.6 ], [ -116.0, 45.6 ], [ -116.0, 45.2 ], [ -115.6, 45.2 ] ] ] } },
{ "type": "Feature", "properties": { "block_id": -2899886, "lon_min": -116.0, "lon_max": -115.6, "lat_min": 45.6, "lat_max": 46.0, "n_nure": 185, "mean_p": 0.38, "max_p": 0.6, "loco_auc": 0.7215, "campaign_class": "expedition", "walk_rank": 1, "spatial_flag": "near_known_gold" }, "geometry": { "type": "Polygon", "coordinates": [ [ [ -115.6, 45.6 ], [ -115.6, 46.0 ], [ -116.0, 46.0 ], [ -116.0, 45.6 ], [ -115.6, 45.6 ] ] ] } },
{ "type": "Feature", "properties": { "block_id": -2899885, "lon_min": -116.0, "lon_max": -115.6, "lat_min": 46.0, "lat_max": 46.4, "n_nure": 73, "mean_p": 0.3601, "max_p": 0.495, "loco_auc": 0.4558, "campaign_class": "watch", "walk_rank": 11, "spatial_flag": "far_from_known_gold" }, "geometry": { "type": "Polygon", "coordinates": [ [ [ -115.6, 46.0 ], [ -115.6, 46.4 ], [ -116.0, 46.4 ], [ -116.0, 46.0 ], [ -115.6, 46.0 ] ] ] } },
{ "type": "Feature", "properties": { "block_id": -2889889, "lon_min": -115.6, "lon_max": -115.2, "lat_min": 44.4, "lat_max": 44.8, "n_nure": 0, "mean_p": null, "max_p": null, "loco_auc": null, "campaign_class": "skip", "walk_rank": null, "spatial_flag": "no_nure" }, "geometry": { "type": "Polygon", "coordinates": [ [ [ -115.2, 44.4 ], [ -115.2, 44.8 ], [ -115.6, 44.8 ], [ -115.6, 44.4 ], [ -115.2, 44.4 ] ] ] } },
{ "type": "Feature", "properties": { "block_id": -2889888, "lon_min": -115.6, "lon_max": -115.2, "lat_min": 44.8, "lat_max": 45.2, "n_nure": 135, "mean_p": 0.4232, "max_p": 0.7822, "loco_auc": 0.5023, "campaign_class": "expedition", "walk_rank": 2, "spatial_flag": "near_known_gold" }, "geometry": { "type": "Polygon", "coordinates": [ [ [ -115.2, 44.8 ], [ -115.2, 45.2 ], [ -115.6, 45.2 ], [ -115.6, 44.8 ], [ -115.2, 44.8 ] ] ] } },
{ "type": "Feature", "properties": { "block_id": -2889887, "lon_min": -115.6, "lon_max": -115.2, "lat_min": 45.2, "lat_max": 45.6, "n_nure": 106, "mean_p": 0.3753, "max_p": 0.575, "loco_auc": 0.5698, "campaign_class": "watch", "walk_rank": 22, "spatial_flag": "near_known_gold" }, "geometry": { "type": "Polygon", "coordinates": [ [ [ -115.2, 45.2 ], [ -115.2, 45.6 ], [ -115.6, 45.6 ], [ -115.6, 45.2 ], [ -115.2, 45.2 ] ] ] } },
{ "type": "Feature", "properties": { "block_id": -2889886, "lon_min": -115.6, "lon_max": -115.2, "lat_min": 45.6, "lat_max": 46.0, "n_nure": 170, "mean_p": 0.3539, "max_p": 0.5, "loco_auc": 0.5588, "campaign_class": "watch", "walk_rank": 13, "spatial_flag": "near_known_gold" }, "geometry": { "type": "Polygon", "coordinates": [ [ [ -115.2, 45.6 ], [ -115.2, 46.0 ], [ -115.6, 46.0 ], [ -115.6, 45.6 ], [ -115.2, 45.6 ] ] ] } },
{ "type": "Feature", "properties": { "block_id": -2889885, "lon_min": -115.6, "lon_max": -115.2, "lat_min": 46.0, "lat_max": 46.4, "n_nure": 63, "mean_p": 0.3727, "max_p": 0.545, "loco_auc": 0.5492, "campaign_class": "watch", "walk_rank": 10, "spatial_flag": "far_from_known_gold" }, "geometry": { "type": "Polygon", "coordinates": [ [ [ -115.2, 46.0 ], [ -115.2, 46.4 ], [ -115.6, 46.4 ], [ -115.6, 46.0 ], [ -115.2, 46.0 ] ] ] } },
{ "type": "Feature", "properties": { "block_id": -2879889, "lon_min": -115.2, "lon_max": -114.8, "lat_min": 44.4, "lat_max": 44.8, "n_nure": 1, "mean_p": 0.4564, "max_p": 0.4564, "loco_auc": null, "campaign_class": "watch", "walk_rank": 18, "spatial_flag": "near_known_gold" }, "geometry": { "type": "Polygon", "coordinates": [ [ [ -114.8, 44.4 ], [ -114.8, 44.8 ], [ -115.2, 44.8 ], [ -115.2, 44.4 ], [ -114.8, 44.4 ] ] ] } },
{ "type": "Feature", "properties": { "block_id": -2879888, "lon_min": -115.2, "lon_max": -114.8, "lat_min": 44.8, "lat_max": 45.2, "n_nure": 110, "mean_p": 0.4119, "max_p": 0.6555, "loco_auc": 0.521, "campaign_class": "confirm", "walk_rank": 6, "spatial_flag": "near_known_gold" }, "geometry": { "type": "Polygon", "coordinates": [ [ [ -114.8, 44.8 ], [ -114.8, 45.2 ], [ -115.2, 45.2 ], [ -115.2, 44.8 ], [ -114.8, 44.8 ] ] ] } },
{ "type": "Feature", "properties": { "block_id": -2879887, "lon_min": -115.2, "lon_max": -114.8, "lat_min": 45.2, "lat_max": 45.6, "n_nure": 98, "mean_p": 0.3603, "max_p": 0.675, "loco_auc": 0.6196, "campaign_class": "confirm", "walk_rank": 3, "spatial_flag": "near_known_gold" }, "geometry": { "type": "Polygon", "coordinates": [ [ [ -114.8, 45.2 ], [ -114.8, 45.6 ], [ -115.2, 45.6 ], [ -115.2, 45.2 ], [ -114.8, 45.2 ] ] ] } },
{ "type": "Feature", "properties": { "block_id": -2879886, "lon_min": -115.2, "lon_max": -114.8, "lat_min": 45.6, "lat_max": 46.0, "n_nure": 88, "mean_p": 0.3642, "max_p": 0.515, "loco_auc": 0.4944, "campaign_class": "watch", "walk_rank": 12, "spatial_flag": "near_known_gold" }, "geometry": { "type": "Polygon", "coordinates": [ [ [ -114.8, 45.6 ], [ -114.8, 46.0 ], [ -115.2, 46.0 ], [ -115.2, 45.6 ], [ -114.8, 45.6 ] ] ] } },
{ "type": "Feature", "properties": { "block_id": -2879885, "lon_min": -115.2, "lon_max": -114.8, "lat_min": 46.0, "lat_max": 46.4, "n_nure": 58, "mean_p": 0.3593, "max_p": 0.465, "loco_auc": null, "campaign_class": "watch", "walk_rank": 7, "spatial_flag": "far_from_known_gold" }, "geometry": { "type": "Polygon", "coordinates": [ [ [ -114.8, 46.0 ], [ -114.8, 46.4 ], [ -115.2, 46.4 ], [ -115.2, 46.0 ], [ -114.8, 46.0 ] ] ] } },
{ "type": "Feature", "properties": { "block_id": -2869889, "lon_min": -114.8, "lon_max": -114.4, "lat_min": 44.4, "lat_max": 44.8, "n_nure": 1, "mean_p": 0.4178, "max_p": 0.4178, "loco_auc": null, "campaign_class": "watch", "walk_rank": 20, "spatial_flag": "near_known_gold" }, "geometry": { "type": "Polygon", "coordinates": [ [ [ -114.4, 44.4 ], [ -114.4, 44.8 ], [ -114.8, 44.8 ], [ -114.8, 44.4 ], [ -114.4, 44.4 ] ] ] } },
{ "type": "Feature", "properties": { "block_id": -2869888, "lon_min": -114.8, "lon_max": -114.4, "lat_min": 44.8, "lat_max": 45.2, "n_nure": 98, "mean_p": 0.3908, "max_p": 0.5814, "loco_auc": 0.675, "campaign_class": "watch", "walk_rank": 23, "spatial_flag": "near_known_gold" }, "geometry": { "type": "Polygon", "coordinates": [ [ [ -114.4, 44.8 ], [ -114.4, 45.2 ], [ -114.8, 45.2 ], [ -114.8, 44.8 ], [ -114.4, 44.8 ] ] ] } },
{ "type": "Feature", "properties": { "block_id": -2869887, "lon_min": -114.8, "lon_max": -114.4, "lat_min": 45.2, "lat_max": 45.6, "n_nure": 143, "mean_p": 0.3507, "max_p": 0.545, "loco_auc": 0.619, "campaign_class": "watch", "walk_rank": 21, "spatial_flag": "near_known_gold" }, "geometry": { "type": "Polygon", "coordinates": [ [ [ -114.4, 45.2 ], [ -114.4, 45.6 ], [ -114.8, 45.6 ], [ -114.8, 45.2 ], [ -114.4, 45.2 ] ] ] } },
{ "type": "Feature", "properties": { "block_id": -2869886, "lon_min": -114.8, "lon_max": -114.4, "lat_min": 45.6, "lat_max": 46.0, "n_nure": 164, "mean_p": 0.3635, "max_p": 0.57, "loco_auc": 0.5851, "campaign_class": "watch", "walk_rank": 17, "spatial_flag": "near_known_gold" }, "geometry": { "type": "Polygon", "coordinates": [ [ [ -114.4, 45.6 ], [ -114.4, 46.0 ], [ -114.8, 46.0 ], [ -114.8, 45.6 ], [ -114.4, 45.6 ] ] ] } },
{ "type": "Feature", "properties": { "block_id": -2869885, "lon_min": -114.8, "lon_max": -114.4, "lat_min": 46.0, "lat_max": 46.4, "n_nure": 54, "mean_p": 0.3893, "max_p": 0.52, "loco_auc": null, "campaign_class": "watch", "walk_rank": 8, "spatial_flag": "far_from_known_gold" }, "geometry": { "type": "Polygon", "coordinates": [ [ [ -114.4, 46.0 ], [ -114.4, 46.4 ], [ -114.8, 46.4 ], [ -114.8, 46.0 ], [ -114.4, 46.0 ] ] ] } },
{ "type": "Feature", "properties": { "block_id": -2859889, "lon_min": -114.4, "lon_max": -113.99999999999997, "lat_min": 44.4, "lat_max": 44.8, "n_nure": 0, "mean_p": null, "max_p": null, "loco_auc": null, "campaign_class": "skip", "walk_rank": null, "spatial_flag": "no_nure" }, "geometry": { "type": "Polygon", "coordinates": [ [ [ -114.0, 44.4 ], [ -114.0, 44.8 ], [ -114.4, 44.8 ], [ -114.4, 44.4 ], [ -114.0, 44.4 ] ] ] } },
{ "type": "Feature", "properties": { "block_id": -2859888, "lon_min": -114.4, "lon_max": -113.99999999999997, "lat_min": 44.8, "lat_max": 45.2, "n_nure": 132, "mean_p": 0.3935, "max_p": 0.5464, "loco_auc": 0.5619, "campaign_class": "watch", "walk_rank": 16, "spatial_flag": "near_known_gold" }, "geometry": { "type": "Polygon", "coordinates": [ [ [ -114.0, 44.8 ], [ -114.0, 45.2 ], [ -114.4, 45.2 ], [ -114.4, 44.8 ], [ -114.0, 44.8 ] ] ] } },
{ "type": "Feature", "properties": { "block_id": -2859887, "lon_min": -114.4, "lon_max": -113.99999999999997, "lat_min": 45.2, "lat_max": 45.6, "n_nure": 200, "mean_p": 0.3798, "max_p": 0.715, "loco_auc": 0.4473, "campaign_class": "confirm", "walk_rank": 5, "spatial_flag": "near_known_gold" }, "geometry": { "type": "Polygon", "coordinates": [ [ [ -114.0, 45.2 ], [ -114.0, 45.6 ], [ -114.4, 45.6 ], [ -114.4, 45.2 ], [ -114.0, 45.2 ] ] ] } },
{ "type": "Feature", "properties": { "block_id": -2859886, "lon_min": -114.4, "lon_max": -113.99999999999997, "lat_min": 45.6, "lat_max": 46.0, "n_nure": 92, "mean_p": 0.3666, "max_p": 0.5, "loco_auc": 0.4358, "campaign_class": "watch", "walk_rank": 14, "spatial_flag": "near_known_gold" }, "geometry": { "type": "Polygon", "coordinates": [ [ [ -114.0, 45.6 ], [ -114.0, 46.0 ], [ -114.4, 46.0 ], [ -114.4, 45.6 ], [ -114.0, 45.6 ] ] ] } },
{ "type": "Feature", "properties": { "block_id": -2859885, "lon_min": -114.4, "lon_max": -113.99999999999997, "lat_min": 46.0, "lat_max": 46.4, "n_nure": 199, "mean_p": 0.3969, "max_p": 0.525, "loco_auc": 0.471, "campaign_class": "watch", "walk_rank": 9, "spatial_flag": "far_from_known_gold" }, "geometry": { "type": "Polygon", "coordinates": [ [ [ -114.0, 46.0 ], [ -114.0, 46.4 ], [ -114.4, 46.4 ], [ -114.4, 46.0 ], [ -114.0, 46.0 ] ] ] } },
{ "type": "Feature", "properties": { "block_id": -2849889, "lon_min": -113.99999999999997, "lon_max": -113.6, "lat_min": 44.4, "lat_max": 44.8, "n_nure": 0, "mean_p": null, "max_p": null, "loco_auc": null, "campaign_class": "skip", "walk_rank": null, "spatial_flag": "no_nure" }, "geometry": { "type": "Polygon", "coordinates": [ [ [ -113.6, 44.4 ], [ -113.6, 44.8 ], [ -114.0, 44.8 ], [ -114.0, 44.4 ], [ -113.6, 44.4 ] ] ] } },
{ "type": "Feature", "properties": { "block_id": -2849888, "lon_min": -113.99999999999997, "lon_max": -113.6, "lat_min": 44.8, "lat_max": 45.2, "n_nure": 0, "mean_p": null, "max_p": null, "loco_auc": null, "campaign_class": "skip", "walk_rank": null, "spatial_flag": "no_nure" }, "geometry": { "type": "Polygon", "coordinates": [ [ [ -113.6, 44.8 ], [ -113.6, 45.2 ], [ -114.0, 45.2 ], [ -114.0, 44.8 ], [ -113.6, 44.8 ] ] ] } },
{ "type": "Feature", "properties": { "block_id": -2849887, "lon_min": -113.99999999999997, "lon_max": -113.6, "lat_min": 45.2, "lat_max": 45.6, "n_nure": 0, "mean_p": null, "max_p": null, "loco_auc": null, "campaign_class": "skip", "walk_rank": null, "spatial_flag": "no_nure" }, "geometry": { "type": "Polygon", "coordinates": [ [ [ -113.6, 45.2 ], [ -113.6, 45.6 ], [ -114.0, 45.6 ], [ -114.0, 45.2 ], [ -113.6, 45.2 ] ] ] } },
{ "type": "Feature", "properties": { "block_id": -2849886, "lon_min": -113.99999999999997, "lon_max": -113.6, "lat_min": 45.6, "lat_max": 46.0, "n_nure": 0, "mean_p": null, "max_p": null, "loco_auc": null, "campaign_class": "skip", "walk_rank": null, "spatial_flag": "no_nure" }, "geometry": { "type": "Polygon", "coordinates": [ [ [ -113.6, 45.6 ], [ -113.6, 46.0 ], [ -114.0, 46.0 ], [ -114.0, 45.6 ], [ -113.6, 45.6 ] ] ] } },
{ "type": "Feature", "properties": { "block_id": -2849885, "lon_min": -113.99999999999997, "lon_max": -113.6, "lat_min": 46.0, "lat_max": 46.4, "n_nure": 0, "mean_p": null, "max_p": null, "loco_auc": null, "campaign_class": "skip", "walk_rank": null, "spatial_flag": "no_nure" }, "geometry": { "type": "Polygon", "coordinates": [ [ [ -113.6, 46.0 ], [ -113.6, 46.4 ], [ -114.0, 46.4 ], [ -114.0, 46.0 ], [ -113.6, 46.0 ] ] ] } }
]
}
