{
"type": "FeatureCollection",
"name": "task11_hobby_reports",
"crs": { "type": "name", "properties": { "name": "urn:ogc:def:crs:OGC:1.3:CRS84" } },
"features": [
{ "type": "Feature", "properties": { "report_id": "ID-ORO", "name": "Orogrande", "creek_name": "Orogrande Creek", "lon": -115.5279, "lat": 45.7249, "gold_class": "unknown", "location_precision": "creek", "geom_confidence": 3, "source_type": "pamphlet", "source_cite": "USGS GNIS Orogrande; USFS Nez Perce-Clearwater recreational mining (French and Orogrande Creeks)", "source_url": "https://www.fs.usda.gov/r01/nezperce-clearwater/natural-resources/geology/suction-dredging", "date_approx": "2024", "hours_or_pans": null, "public_land": "unknown", "notes": "Gazetteer at the named settlement. Not a recovery.", "block_id": -2899886.0, "campaign_class": "expedition", "walk_rank": 1.0, "catchment_hit": true, "nearest_pan_pin_m": null, "pin_scored": false }, "geometry": { "type": "Point", "coordinates": [ -115.5279, 45.7249 ] } },
{ "type": "Feature", "properties": { "report_id": "ID-CRO", "name": "Crooked River at Orogrande", "creek_name": "Crooked River", "lon": -115.53, "lat": 45.73, "gold_class": "unknown", "location_precision": "creek", "geom_confidence": 2, "source_type": "pamphlet", "source_cite": "USFS Nez Perce-Clearwater French and Orogrande Creeks mining info; USGS GNIS Crooked River", "source_url": "https://www.fs.usda.gov/r01/nezperce-clearwater/natural-resources/geology/suction-dredging", "date_approx": "2024", "hours_or_pans": null, "public_land": "unknown", "notes": "Hand panning generally allowed on NF land; confirm claims.", "block_id": -2899886.0, "campaign_class": "expedition", "walk_rank": 1.0, "catchment_hit": true, "nearest_pan_pin_m": null, "pin_scored": false }, "geometry": { "type": "Point", "coordinates": [ -115.53, 45.73 ] } },
{ "type": "Feature", "properties": { "report_id": "ID-FRE", "name": "French Creek", "creek_name": "French Creek", "lon": -115.56, "lat": 45.71, "gold_class": "unknown", "location_precision": "creek", "geom_confidence": 2, "source_type": "pamphlet", "source_cite": "USFS Nez Perce-Clearwater French and Orogrande Creeks", "source_url": "https://www.fs.usda.gov/r01/nezperce-clearwater/natural-resources/geology/suction-dredging", "date_approx": "2024", "hours_or_pans": null, "public_land": "unknown", "notes": "Paired with Orogrande in the USFS mining page.", "block_id": -2899886.0, "campaign_class": "expedition", "walk_rank": 1.0, "catchment_hit": true, "nearest_pan_pin_m": null, "pin_scored": false }, "geometry": { "type": "Point", "coordinates": [ -115.56, 45.71 ] } },
{ "type": "Feature", "properties": { "report_id": "ID-DIX", "name": "Dixie", "creek_name": "Dixie Creek", "lon": -115.4637, "lat": 45.5546, "gold_class": "unknown", "location_precision": "district", "geom_confidence": 3, "source_type": "pamphlet", "source_cite": "USGS GNIS Dixie ID; historic Idaho Batholith placer camp", "source_url": "https://www.fs.usda.gov/r01/nezperce-clearwater/natural-resources/geology", "date_approx": "1860s", "hours_or_pans": null, "public_land": "unknown", "notes": "District. Mapped; not a catchment hit.", "block_id": -2899887.0, "campaign_class": "watch", "walk_rank": 19.0, "catchment_hit": false, "nearest_pan_pin_m": null, "pin_scored": false }, "geometry": { "type": "Point", "coordinates": [ -115.4637, 45.5546 ] } },
{ "type": "Feature", "properties": { "report_id": "ID-WAR", "name": "Warren", "creek_name": "Warren Creek", "lon": -115.6765, "lat": 45.2638, "gold_class": "unknown", "location_precision": "district", "geom_confidence": 3, "source_type": "pamphlet", "source_cite": "USGS GNIS Warren ID; historic Warren placer district", "source_url": "https://www.fs.usda.gov/r01/nezperce-clearwater/natural-resources/geology", "date_approx": "1860s", "hours_or_pans": null, "public_land": "unknown", "notes": "District. Mapped; not a catchment hit.", "block_id": -2899887.0, "campaign_class": "watch", "walk_rank": 19.0, "catchment_hit": false, "nearest_pan_pin_m": null, "pin_scored": false }, "geometry": { "type": "Point", "coordinates": [ -115.6765, 45.2638 ] } },
{ "type": "Feature", "properties": { "report_id": "ID-WCK", "name": "Warren Creek", "creek_name": "Warren Creek", "lon": -115.67, "lat": 45.27, "gold_class": "unknown", "location_precision": "creek", "geom_confidence": 2, "source_type": "pamphlet", "source_cite": "USGS GNIS Warren; creek through the Warren camp", "source_url": "https://www.fs.usda.gov/r01/nezperce-clearwater/natural-resources/geology", "date_approx": "1860s", "hours_or_pans": null, "public_land": "unknown", "notes": "Creek-scale pin next to the Warren district point.", "block_id": -2899887.0, "campaign_class": "watch", "walk_rank": 19.0, "catchment_hit": true, "nearest_pan_pin_m": null, "pin_scored": false }, "geometry": { "type": "Point", "coordinates": [ -115.67, 45.27 ] } },
{ "type": "Feature", "properties": { "report_id": "ID-FLO", "name": "Florence", "creek_name": "Florence Creek", "lon": -116.0282, "lat": 45.5013, "gold_class": "unknown", "location_precision": "district", "geom_confidence": 3, "source_type": "pamphlet", "source_cite": "USGS GNIS Florence ID; 1861 Idaho gold rush camp", "source_url": "https://www.fs.usda.gov/r01/nezperce-clearwater/natural-resources/geology", "date_approx": "1861", "hours_or_pans": null, "public_land": "unknown", "notes": "District. Mapped; not a catchment hit.", "block_id": null, "campaign_class": null, "walk_rank": null, "catchment_hit": false, "nearest_pan_pin_m": null, "pin_scored": false }, "geometry": { "type": "Point", "coordinates": [ -116.0282, 45.5013 ] } },
{ "type": "Feature", "properties": { "report_id": "ID-ELK", "name": "Elk City / SF Clearwater", "creek_name": "South Fork Clearwater River", "lon": -115.4368, "lat": 45.8268, "gold_class": "unknown", "location_precision": "reach", "geom_confidence": 3, "source_type": "pamphlet", "source_cite": "USGS GNIS Elk City; USFS South Fork of the Clearwater River recreational mining", "source_url": "https://www.fs.usda.gov/r01/nezperce-clearwater/natural-resources/geology/suction-dredging", "date_approx": "2024", "hours_or_pans": null, "public_land": "unknown", "notes": "USFS names this river as a recreational mining water.", "block_id": -2899886.0, "campaign_class": "expedition", "walk_rank": 1.0, "catchment_hit": true, "nearest_pan_pin_m": null, "pin_scored": false }, "geometry": { "type": "Point", "coordinates": [ -115.4368, 45.8268 ] } },
{ "type": "Feature", "properties": { "report_id": "ID-RED", "name": "Red River", "creek_name": "Red River", "lon": -115.352, "lat": 45.716, "gold_class": "unknown", "location_precision": "creek", "geom_confidence": 3, "source_type": "pamphlet", "source_cite": "USGS GNIS Red River ID; SF Clearwater tributary placer camp", "source_url": "https://www.fs.usda.gov/r01/nezperce-clearwater/natural-resources/geology", "date_approx": "1860s", "hours_or_pans": null, "public_land": "unknown", "notes": "Historic camp on the Red River.", "block_id": -2899886.0, "campaign_class": "expedition", "walk_rank": 1.0, "catchment_hit": true, "nearest_pan_pin_m": null, "pin_scored": false }, "geometry": { "type": "Point", "coordinates": [ -115.352, 45.716 ] } },
{ "type": "Feature", "properties": { "report_id": "ID-NEW", "name": "Newsome Creek", "creek_name": "Newsome Creek", "lon": -115.796, "lat": 45.829, "gold_class": "unknown", "location_precision": "creek", "geom_confidence": 3, "source_type": "pamphlet", "source_cite": "USGS GNIS Newsome; SF Clearwater tributary", "source_url": "https://www.fs.usda.gov/r01/nezperce-clearwater/natural-resources/geology", "date_approx": "1860s", "hours_or_pans": null, "public_land": "unknown", "notes": "Historic Newsome placer.", "block_id": -2899886.0, "campaign_class": "expedition", "walk_rank": 1.0, "catchment_hit": true, "nearest_pan_pin_m": null, "pin_scored": false }, "geometry": { "type": "Point", "coordinates": [ -115.796, 45.829 ] } },
{ "type": "Feature", "properties": { "report_id": "ID-BUR", "name": "Burgdorf", "creek_name": "Lake Creek", "lon": -115.9135, "lat": 45.2771, "gold_class": "unknown", "location_precision": "district", "geom_confidence": 3, "source_type": "pamphlet", "source_cite": "USGS GNIS Burgdorf; Payette NF historic springs / placer camp", "source_url": "https://www.fs.usda.gov/r04/payette", "date_approx": "1860s", "hours_or_pans": null, "public_land": "unknown", "notes": "District. Mapped; not a catchment hit.", "block_id": -2899888.0, "campaign_class": "confirm", "walk_rank": 4.0, "catchment_hit": false, "nearest_pan_pin_m": null, "pin_scored": false }, "geometry": { "type": "Point", "coordinates": [ -115.9135, 45.2771 ] } },
{ "type": "Feature", "properties": { "report_id": "ID-SEC", "name": "Secesh River", "creek_name": "Secesh River", "lon": -115.82, "lat": 45.2, "gold_class": "unknown", "location_precision": "creek", "geom_confidence": 2, "source_type": "pamphlet", "source_cite": "USGS GNIS Secesh River; Warren-Burgdorf drainage", "source_url": "https://www.fs.usda.gov/r04/payette", "date_approx": "1860s", "hours_or_pans": null, "public_land": "unknown", "notes": "Creek-scale. Confirm NF vs claim.", "block_id": -2899888.0, "campaign_class": "confirm", "walk_rank": 4.0, "catchment_hit": true, "nearest_pan_pin_m": null, "pin_scored": false }, "geometry": { "type": "Point", "coordinates": [ -115.82, 45.2 ] } },
{ "type": "Feature", "properties": { "report_id": "ID-BUF", "name": "Buffalo Hump", "creek_name": "Buffalo Hump", "lon": -115.77, "lat": 45.618, "gold_class": "unknown", "location_precision": "district", "geom_confidence": 2, "source_type": "pamphlet", "source_cite": "USGS GNIS Buffalo Hump; Gospel-Hump historic district", "source_url": "https://www.fs.usda.gov/r01/nezperce-clearwater/natural-resources/geology", "date_approx": "1890s", "hours_or_pans": null, "public_land": "unknown", "notes": "District. Mapped; not a catchment hit.", "block_id": -2899886.0, "campaign_class": "expedition", "walk_rank": 1.0, "catchment_hit": false, "nearest_pan_pin_m": null, "pin_scored": false }, "geometry": { "type": "Point", "coordinates": [ -115.77, 45.618 ] } },
{ "type": "Feature", "properties": { "report_id": "ID-GLD", "name": "Golden", "creek_name": "Crooked River", "lon": -115.674, "lat": 45.802, "gold_class": "unknown", "location_precision": "creek", "geom_confidence": 3, "source_type": "pamphlet", "source_cite": "USGS GNIS Golden ID; Crooked River / Orogrande corridor", "source_url": "https://www.fs.usda.gov/r01/nezperce-clearwater/natural-resources/geology", "date_approx": "1860s", "hours_or_pans": null, "public_land": "unknown", "notes": "Named settlement on the Crooked River.", "block_id": -2899886.0, "campaign_class": "expedition", "walk_rank": 1.0, "catchment_hit": true, "nearest_pan_pin_m": null, "pin_scored": false }, "geometry": { "type": "Point", "coordinates": [ -115.674, 45.802 ] } },
{ "type": "Feature", "properties": { "report_id": "ID-SFC", "name": "SF Clearwater above Elk City", "creek_name": "South Fork Clearwater River", "lon": -115.4, "lat": 45.8, "gold_class": "unknown", "location_precision": "reach", "geom_confidence": 2, "source_type": "pamphlet", "source_cite": "USFS South Fork of the Clearwater River recreational mining", "source_url": "https://www.fs.usda.gov/r01/nezperce-clearwater/natural-resources/geology/suction-dredging", "date_approx": "2024", "hours_or_pans": null, "public_land": "unknown", "notes": "Reach upstream of Elk City. Hand tools; seasonal motorized rules differ.", "block_id": -2899886.0, "campaign_class": "expedition", "walk_rank": 1.0, "catchment_hit": true, "nearest_pan_pin_m": null, "pin_scored": false }, "geometry": { "type": "Point", "coordinates": [ -115.4, 45.8 ] } }
]
}
