{
"type": "FeatureCollection",
"name": "task11_spatial_cv_blocks_0p4deg",
"crs": { "type": "name", "properties": { "name": "urn:ogc:def:crs:OGC:1.3:CRS84" } },
"features": [
{ "type": "Feature", "properties": { "block_id": -2829888, "lon_min": -113.2, "lon_max": -112.8, "lat_min": 44.8, "lat_max": 45.2, "n_nure": 0, "mean_p": null, "max_p": null, "loco_auc": null, "campaign_class": "skip", "walk_rank": null, "spatial_flag": "no_nure" }, "geometry": { "type": "Polygon", "coordinates": [ [ [ -112.8, 44.8 ], [ -112.8, 45.2 ], [ -113.2, 45.2 ], [ -113.2, 44.8 ], [ -112.8, 44.8 ] ] ] } },
{ "type": "Feature", "properties": { "block_id": -2829887, "lon_min": -113.2, "lon_max": -112.8, "lat_min": 45.2, "lat_max": 45.6, "n_nure": 24, "mean_p": 0.4613, "max_p": 0.835, "loco_auc": 0.3819, "campaign_class": "confirm", "walk_rank": 16, "spatial_flag": "near_known_gold" }, "geometry": { "type": "Polygon", "coordinates": [ [ [ -112.8, 45.2 ], [ -112.8, 45.6 ], [ -113.2, 45.6 ], [ -113.2, 45.2 ], [ -112.8, 45.2 ] ] ] } },
{ "type": "Feature", "properties": { "block_id": -2829886, "lon_min": -113.2, "lon_max": -112.8, "lat_min": 45.6, "lat_max": 46.0, "n_nure": 10, "mean_p": 0.29, "max_p": 0.83, "loco_auc": 0.75, "campaign_class": "confirm", "walk_rank": 9, "spatial_flag": "near_known_gold" }, "geometry": { "type": "Polygon", "coordinates": [ [ [ -112.8, 45.6 ], [ -112.8, 46.0 ], [ -113.2, 46.0 ], [ -113.2, 45.6 ], [ -112.8, 45.6 ] ] ] } },
{ "type": "Feature", "properties": { "block_id": -2829885, "lon_min": -113.2, "lon_max": -112.8, "lat_min": 46.0, "lat_max": 46.4, "n_nure": 11, "mean_p": 0.16, "max_p": 0.295, "loco_auc": null, "campaign_class": "skip", "walk_rank": null, "spatial_flag": "near_known_gold" }, "geometry": { "type": "Polygon", "coordinates": [ [ [ -112.8, 46.0 ], [ -112.8, 46.4 ], [ -113.2, 46.4 ], [ -113.2, 46.0 ], [ -112.8, 46.0 ] ] ] } },
{ "type": "Feature", "properties": { "block_id": -2829884, "lon_min": -113.2, "lon_max": -112.8, "lat_min": 46.4, "lat_max": 46.8, "n_nure": 11, "mean_p": 0.1462, "max_p": 0.25, "loco_auc": null, "campaign_class": "skip", "walk_rank": null, "spatial_flag": "far_from_known_gold" }, "geometry": { "type": "Polygon", "coordinates": [ [ [ -112.8, 46.4 ], [ -112.8, 46.8 ], [ -113.2, 46.8 ], [ -113.2, 46.4 ], [ -112.8, 46.4 ] ] ] } },
{ "type": "Feature", "properties": { "block_id": -2829883, "lon_min": -113.2, "lon_max": -112.8, "lat_min": 46.8, "lat_max": 47.2, "n_nure": 0, "mean_p": null, "max_p": null, "loco_auc": null, "campaign_class": "skip", "walk_rank": null, "spatial_flag": "no_nure" }, "geometry": { "type": "Polygon", "coordinates": [ [ [ -112.8, 46.8 ], [ -112.8, 47.2 ], [ -113.2, 47.2 ], [ -113.2, 46.8 ], [ -112.8, 46.8 ] ] ] } },
{ "type": "Feature", "properties": { "block_id": -2819888, "lon_min": -112.8, "lon_max": -112.4, "lat_min": 44.8, "lat_max": 45.2, "n_nure": 0, "mean_p": null, "max_p": null, "loco_auc": null, "campaign_class": "skip", "walk_rank": null, "spatial_flag": "no_nure" }, "geometry": { "type": "Polygon", "coordinates": [ [ [ -112.4, 44.8 ], [ -112.4, 45.2 ], [ -112.8, 45.2 ], [ -112.8, 44.8 ], [ -112.4, 44.8 ] ] ] } },
{ "type": "Feature", "properties": { "block_id": -2819887, "lon_min": -112.8, "lon_max": -112.4, "lat_min": 45.2, "lat_max": 45.6, "n_nure": 140, "mean_p": 0.3095, "max_p": 0.905, "loco_auc": 0.4869, "campaign_class": "expedition", "walk_rank": 6, "spatial_flag": "near_known_gold" }, "geometry": { "type": "Polygon", "coordinates": [ [ [ -112.4, 45.2 ], [ -112.4, 45.6 ], [ -112.8, 45.6 ], [ -112.8, 45.2 ], [ -112.4, 45.2 ] ] ] } },
{ "type": "Feature", "properties": { "block_id": -2819886, "lon_min": -112.8, "lon_max": -112.4, "lat_min": 45.6, "lat_max": 46.0, "n_nure": 297, "mean_p": 0.5909, "max_p": 1.0, "loco_auc": 0.5186, "campaign_class": "confirm", "walk_rank": 13, "spatial_flag": "near_known_gold" }, "geometry": { "type": "Polygon", "coordinates": [ [ [ -112.4, 45.6 ], [ -112.4, 46.0 ], [ -112.8, 46.0 ], [ -112.8, 45.6 ], [ -112.4, 45.6 ] ] ] } },
{ "type": "Feature", "properties": { "block_id": -2819885, "lon_min": -112.8, "lon_max": -112.4, "lat_min": 46.0, "lat_max": 46.4, "n_nure": 390, "mean_p": 0.5954, "max_p": 0.945, "loco_auc": 0.5349, "campaign_class": "confirm", "walk_rank": 12, "spatial_flag": "near_known_gold" }, "geometry": { "type": "Polygon", "coordinates": [ [ [ -112.4, 46.0 ], [ -112.4, 46.4 ], [ -112.8, 46.4 ], [ -112.8, 46.0 ], [ -112.4, 46.0 ] ] ] } },
{ "type": "Feature", "properties": { "block_id": -2819884, "lon_min": -112.8, "lon_max": -112.4, "lat_min": 46.4, "lat_max": 46.8, "n_nure": 191, "mean_p": 0.4338, "max_p": 0.895, "loco_auc": 0.4544, "campaign_class": "expedition", "walk_rank": 1, "spatial_flag": "near_known_gold" }, "geometry": { "type": "Polygon", "coordinates": [ [ [ -112.4, 46.4 ], [ -112.4, 46.8 ], [ -112.8, 46.8 ], [ -112.8, 46.4 ], [ -112.4, 46.4 ] ] ] } },
{ "type": "Feature", "properties": { "block_id": -2819883, "lon_min": -112.8, "lon_max": -112.4, "lat_min": 46.8, "lat_max": 47.2, "n_nure": 0, "mean_p": null, "max_p": null, "loco_auc": null, "campaign_class": "skip", "walk_rank": null, "spatial_flag": "no_nure" }, "geometry": { "type": "Polygon", "coordinates": [ [ [ -112.4, 46.8 ], [ -112.4, 47.2 ], [ -112.8, 47.2 ], [ -112.8, 46.8 ], [ -112.4, 46.8 ] ] ] } },
{ "type": "Feature", "properties": { "block_id": -2809888, "lon_min": -112.4, "lon_max": -111.99999999999999, "lat_min": 44.8, "lat_max": 45.2, "n_nure": 0, "mean_p": null, "max_p": null, "loco_auc": null, "campaign_class": "skip", "walk_rank": null, "spatial_flag": "no_nure" }, "geometry": { "type": "Polygon", "coordinates": [ [ [ -112.0, 44.8 ], [ -112.0, 45.2 ], [ -112.4, 45.2 ], [ -112.4, 44.8 ], [ -112.0, 44.8 ] ] ] } },
{ "type": "Feature", "properties": { "block_id": -2809887, "lon_min": -112.4, "lon_max": -111.99999999999999, "lat_min": 45.2, "lat_max": 45.6, "n_nure": 150, "mean_p": 0.38, "max_p": 0.95, "loco_auc": 0.4695, "campaign_class": "confirm", "walk_rank": 8, "spatial_flag": "near_known_gold" }, "geometry": { "type": "Polygon", "coordinates": [ [ [ -112.0, 45.2 ], [ -112.0, 45.6 ], [ -112.4, 45.6 ], [ -112.4, 45.2 ], [ -112.0, 45.2 ] ] ] } },
{ "type": "Feature", "properties": { "block_id": -2809886, "lon_min": -112.4, "lon_max": -111.99999999999999, "lat_min": 45.6, "lat_max": 46.0, "n_nure": 429, "mean_p": 0.5307, "max_p": 0.975, "loco_auc": 0.5268, "campaign_class": "expedition", "walk_rank": 3, "spatial_flag": "near_known_gold" }, "geometry": { "type": "Polygon", "coordinates": [ [ [ -112.0, 45.6 ], [ -112.0, 46.0 ], [ -112.4, 46.0 ], [ -112.4, 45.6 ], [ -112.0, 45.6 ] ] ] } },
{ "type": "Feature", "properties": { "block_id": -2809885, "lon_min": -112.4, "lon_max": -111.99999999999999, "lat_min": 46.0, "lat_max": 46.4, "n_nure": 456, "mean_p": 0.6282, "max_p": 0.975, "loco_auc": 0.4963, "campaign_class": "confirm", "walk_rank": 15, "spatial_flag": "near_known_gold" }, "geometry": { "type": "Polygon", "coordinates": [ [ [ -112.0, 46.0 ], [ -112.0, 46.4 ], [ -112.4, 46.4 ], [ -112.4, 46.0 ], [ -112.0, 46.0 ] ] ] } },
{ "type": "Feature", "properties": { "block_id": -2809884, "lon_min": -112.4, "lon_max": -111.99999999999999, "lat_min": 46.4, "lat_max": 46.8, "n_nure": 305, "mean_p": 0.6911, "max_p": 0.965, "loco_auc": 0.6197, "campaign_class": "confirm", "walk_rank": 17, "spatial_flag": "near_known_gold" }, "geometry": { "type": "Polygon", "coordinates": [ [ [ -112.0, 46.4 ], [ -112.0, 46.8 ], [ -112.4, 46.8 ], [ -112.4, 46.4 ], [ -112.0, 46.4 ] ] ] } },
{ "type": "Feature", "properties": { "block_id": -2809883, "lon_min": -112.4, "lon_max": -111.99999999999999, "lat_min": 46.8, "lat_max": 47.2, "n_nure": 0, "mean_p": null, "max_p": null, "loco_auc": null, "campaign_class": "skip", "walk_rank": null, "spatial_flag": "no_nure" }, "geometry": { "type": "Polygon", "coordinates": [ [ [ -112.0, 46.8 ], [ -112.0, 47.2 ], [ -112.4, 47.2 ], [ -112.4, 46.8 ], [ -112.0, 46.8 ] ] ] } },
{ "type": "Feature", "properties": { "block_id": -2799888, "lon_min": -111.99999999999999, "lon_max": -111.6, "lat_min": 44.8, "lat_max": 45.2, "n_nure": 0, "mean_p": null, "max_p": null, "loco_auc": null, "campaign_class": "skip", "walk_rank": null, "spatial_flag": "no_nure" }, "geometry": { "type": "Polygon", "coordinates": [ [ [ -111.6, 44.8 ], [ -111.6, 45.2 ], [ -112.0, 45.2 ], [ -112.0, 44.8 ], [ -111.6, 44.8 ] ] ] } },
{ "type": "Feature", "properties": { "block_id": -2799887, "lon_min": -111.99999999999999, "lon_max": -111.6, "lat_min": 45.2, "lat_max": 45.6, "n_nure": 131, "mean_p": 0.4008, "max_p": 0.94, "loco_auc": 0.6255, "campaign_class": "confirm", "walk_rank": 18, "spatial_flag": "near_known_gold" }, "geometry": { "type": "Polygon", "coordinates": [ [ [ -111.6, 45.2 ], [ -111.6, 45.6 ], [ -112.0, 45.6 ], [ -112.0, 45.2 ], [ -111.6, 45.2 ] ] ] } },
{ "type": "Feature", "properties": { "block_id": -2799886, "lon_min": -111.99999999999999, "lon_max": -111.6, "lat_min": 45.6, "lat_max": 46.0, "n_nure": 642, "mean_p": 0.1934, "max_p": 0.9, "loco_auc": 0.4975, "campaign_class": "expedition", "walk_rank": 4, "spatial_flag": "near_known_gold" }, "geometry": { "type": "Polygon", "coordinates": [ [ [ -111.6, 45.6 ], [ -111.6, 46.0 ], [ -112.0, 46.0 ], [ -112.0, 45.6 ], [ -111.6, 45.6 ] ] ] } },
{ "type": "Feature", "properties": { "block_id": -2799885, "lon_min": -111.99999999999999, "lon_max": -111.6, "lat_min": 46.0, "lat_max": 46.4, "n_nure": 260, "mean_p": 0.5595, "max_p": 1.0, "loco_auc": 0.5685, "campaign_class": "confirm", "walk_rank": 19, "spatial_flag": "near_known_gold" }, "geometry": { "type": "Polygon", "coordinates": [ [ [ -111.6, 46.0 ], [ -111.6, 46.4 ], [ -112.0, 46.4 ], [ -112.0, 46.0 ], [ -111.6, 46.0 ] ] ] } },
{ "type": "Feature", "properties": { "block_id": -2799884, "lon_min": -111.99999999999999, "lon_max": -111.6, "lat_min": 46.4, "lat_max": 46.8, "n_nure": 306, "mean_p": 0.6305, "max_p": 0.985, "loco_auc": 0.497, "campaign_class": "confirm", "walk_rank": 11, "spatial_flag": "near_known_gold" }, "geometry": { "type": "Polygon", "coordinates": [ [ [ -111.6, 46.4 ], [ -111.6, 46.8 ], [ -112.0, 46.8 ], [ -112.0, 46.4 ], [ -111.6, 46.4 ] ] ] } },
{ "type": "Feature", "properties": { "block_id": -2799883, "lon_min": -111.99999999999999, "lon_max": -111.6, "lat_min": 46.8, "lat_max": 47.2, "n_nure": 0, "mean_p": null, "max_p": null, "loco_auc": null, "campaign_class": "skip", "walk_rank": null, "spatial_flag": "no_nure" }, "geometry": { "type": "Polygon", "coordinates": [ [ [ -111.6, 46.8 ], [ -111.6, 47.2 ], [ -112.0, 47.2 ], [ -112.0, 46.8 ], [ -111.6, 46.8 ] ] ] } },
{ "type": "Feature", "properties": { "block_id": -2789888, "lon_min": -111.6, "lon_max": -111.2, "lat_min": 44.8, "lat_max": 45.2, "n_nure": 0, "mean_p": null, "max_p": null, "loco_auc": null, "campaign_class": "skip", "walk_rank": null, "spatial_flag": "no_nure" }, "geometry": { "type": "Polygon", "coordinates": [ [ [ -111.2, 44.8 ], [ -111.2, 45.2 ], [ -111.6, 45.2 ], [ -111.6, 44.8 ], [ -111.2, 44.8 ] ] ] } },
{ "type": "Feature", "properties": { "block_id": -2789887, "lon_min": -111.6, "lon_max": -111.2, "lat_min": 45.2, "lat_max": 45.6, "n_nure": 412, "mean_p": 0.1795, "max_p": 0.87, "loco_auc": 0.4099, "campaign_class": "confirm", "walk_rank": 10, "spatial_flag": "near_known_gold" }, "geometry": { "type": "Polygon", "coordinates": [ [ [ -111.2, 45.2 ], [ -111.2, 45.6 ], [ -111.6, 45.6 ], [ -111.6, 45.2 ], [ -111.2, 45.2 ] ] ] } },
{ "type": "Feature", "properties": { "block_id": -2789886, "lon_min": -111.6, "lon_max": -111.2, "lat_min": 45.6, "lat_max": 46.0, "n_nure": 212, "mean_p": 0.1195, "max_p": 0.93, "loco_auc": 0.605, "campaign_class": "expedition", "walk_rank": 5, "spatial_flag": "near_known_gold" }, "geometry": { "type": "Polygon", "coordinates": [ [ [ -111.2, 45.6 ], [ -111.2, 46.0 ], [ -111.6, 46.0 ], [ -111.6, 45.6 ], [ -111.2, 45.6 ] ] ] } },
{ "type": "Feature", "properties": { "block_id": -2789885, "lon_min": -111.6, "lon_max": -111.2, "lat_min": 46.0, "lat_max": 46.4, "n_nure": 105, "mean_p": 0.1631, "max_p": 0.885, "loco_auc": 0.8084, "campaign_class": "confirm", "walk_rank": 14, "spatial_flag": "near_known_gold" }, "geometry": { "type": "Polygon", "coordinates": [ [ [ -111.2, 46.0 ], [ -111.2, 46.4 ], [ -111.6, 46.4 ], [ -111.6, 46.0 ], [ -111.2, 46.0 ] ] ] } },
{ "type": "Feature", "properties": { "block_id": -2789884, "lon_min": -111.6, "lon_max": -111.2, "lat_min": 46.4, "lat_max": 46.8, "n_nure": 123, "mean_p": 0.4256, "max_p": 0.925, "loco_auc": 0.5033, "campaign_class": "expedition", "walk_rank": 7, "spatial_flag": "near_known_gold" }, "geometry": { "type": "Polygon", "coordinates": [ [ [ -111.2, 46.4 ], [ -111.2, 46.8 ], [ -111.6, 46.8 ], [ -111.6, 46.4 ], [ -111.2, 46.4 ] ] ] } },
{ "type": "Feature", "properties": { "block_id": -2789883, "lon_min": -111.6, "lon_max": -111.2, "lat_min": 46.8, "lat_max": 47.2, "n_nure": 0, "mean_p": null, "max_p": null, "loco_auc": null, "campaign_class": "skip", "walk_rank": null, "spatial_flag": "no_nure" }, "geometry": { "type": "Polygon", "coordinates": [ [ [ -111.2, 46.8 ], [ -111.2, 47.2 ], [ -111.6, 47.2 ], [ -111.6, 46.8 ], [ -111.2, 46.8 ] ] ] } },
{ "type": "Feature", "properties": { "block_id": -2779888, "lon_min": -111.2, "lon_max": -110.8, "lat_min": 44.8, "lat_max": 45.2, "n_nure": 0, "mean_p": null, "max_p": null, "loco_auc": null, "campaign_class": "skip", "walk_rank": null, "spatial_flag": "no_nure" }, "geometry": { "type": "Polygon", "coordinates": [ [ [ -110.8, 44.8 ], [ -110.8, 45.2 ], [ -111.2, 45.2 ], [ -111.2, 44.8 ], [ -110.8, 44.8 ] ] ] } },
{ "type": "Feature", "properties": { "block_id": -2779887, "lon_min": -111.2, "lon_max": -110.8, "lat_min": 45.2, "lat_max": 45.6, "n_nure": 21, "mean_p": 0.1034, "max_p": 0.205, "loco_auc": null, "campaign_class": "skip", "walk_rank": null, "spatial_flag": "near_known_gold" }, "geometry": { "type": "Polygon", "coordinates": [ [ [ -110.8, 45.2 ], [ -110.8, 45.6 ], [ -111.2, 45.6 ], [ -111.2, 45.2 ], [ -110.8, 45.2 ] ] ] } },
{ "type": "Feature", "properties": { "block_id": -2779886, "lon_min": -111.2, "lon_max": -110.8, "lat_min": 45.6, "lat_max": 46.0, "n_nure": 12, "mean_p": 0.0771, "max_p": 0.12, "loco_auc": null, "campaign_class": "skip", "walk_rank": null, "spatial_flag": "near_known_gold" }, "geometry": { "type": "Polygon", "coordinates": [ [ [ -110.8, 45.6 ], [ -110.8, 46.0 ], [ -111.2, 46.0 ], [ -111.2, 45.6 ], [ -110.8, 45.6 ] ] ] } },
{ "type": "Feature", "properties": { "block_id": -2779885, "lon_min": -111.2, "lon_max": -110.8, "lat_min": 46.0, "lat_max": 46.4, "n_nure": 18, "mean_p": 0.1083, "max_p": 0.21, "loco_auc": null, "campaign_class": "skip", "walk_rank": null, "spatial_flag": "far_from_known_gold" }, "geometry": { "type": "Polygon", "coordinates": [ [ [ -110.8, 46.0 ], [ -110.8, 46.4 ], [ -111.2, 46.4 ], [ -111.2, 46.0 ], [ -110.8, 46.0 ] ] ] } },
{ "type": "Feature", "properties": { "block_id": -2779884, "lon_min": -111.2, "lon_max": -110.8, "lat_min": 46.4, "lat_max": 46.8, "n_nure": 16, "mean_p": 0.348, "max_p": 0.88, "loco_auc": 0.6545, "campaign_class": "expedition", "walk_rank": 2, "spatial_flag": "near_known_gold" }, "geometry": { "type": "Polygon", "coordinates": [ [ [ -110.8, 46.4 ], [ -110.8, 46.8 ], [ -111.2, 46.8 ], [ -111.2, 46.4 ], [ -110.8, 46.4 ] ] ] } },
{ "type": "Feature", "properties": { "block_id": -2779883, "lon_min": -111.2, "lon_max": -110.8, "lat_min": 46.8, "lat_max": 47.2, "n_nure": 0, "mean_p": null, "max_p": null, "loco_auc": null, "campaign_class": "skip", "walk_rank": null, "spatial_flag": "no_nure" }, "geometry": { "type": "Polygon", "coordinates": [ [ [ -110.8, 46.8 ], [ -110.8, 47.2 ], [ -111.2, 47.2 ], [ -111.2, 46.8 ], [ -110.8, 46.8 ] ] ] } }
]
}
