{
"type": "FeatureCollection",
"name": "task11_pour_points",
"crs": { "type": "name", "properties": { "name": "urn:ogc:def:crs:OGC:1.3:CRS84" } },
"features": [
{ "type": "Feature", "properties": { "block_id": -2829887, "name": "block_-2829887", "lon": -112.8078, "lat": 45.2661, "p_anomalous": 0.675, "elev_m": 1787.5023193359375, "nearest_gold_deg": 0.0090607063742358454, "spatial_flag": "near_known_gold", "campaign_class": "confirm", "walk_rank": 16 }, "geometry": { "type": "Point", "coordinates": [ -112.8078, 45.2661 ] } },
{ "type": "Feature", "properties": { "block_id": -2829886, "name": "block_-2829886", "lon": -112.8036, "lat": 45.9814, "p_anomalous": 0.155, "elev_m": 1681.665283203125, "nearest_gold_deg": 0.040272726503176828, "spatial_flag": "near_known_gold", "campaign_class": "confirm", "walk_rank": 9 }, "geometry": { "type": "Point", "coordinates": [ -112.8036, 45.9814 ] } },
{ "type": "Feature", "properties": { "block_id": -2829885, "name": "block_-2829885", "lon": -112.8072, "lat": 46.3081, "p_anomalous": 0.175, "elev_m": 1479.106689453125, "nearest_gold_deg": 0.072293245189295155, "spatial_flag": "near_known_gold", "campaign_class": "skip", "walk_rank": null }, "geometry": { "type": "Point", "coordinates": [ -112.8072, 46.3081 ] } },
{ "type": "Feature", "properties": { "block_id": -2829884, "name": "block_-2829884", "lon": -112.8181, "lat": 46.5186, "p_anomalous": 0.25, "elev_m": 1326.19287109375, "nearest_gold_deg": 0.21668199579106806, "spatial_flag": "far_from_known_gold", "campaign_class": "skip", "walk_rank": null }, "geometry": { "type": "Point", "coordinates": [ -112.8181, 46.5186 ] } },
{ "type": "Feature", "properties": { "block_id": -2819887, "name": "block_-2819887", "lon": -112.4519, "lat": 45.5003, "p_anomalous": 0.165, "elev_m": 1460.4410400390625, "nearest_gold_deg": 0.059910019195445932, "spatial_flag": "near_known_gold", "campaign_class": "expedition", "walk_rank": 6 }, "geometry": { "type": "Point", "coordinates": [ -112.4519, 45.5003 ] } },
{ "type": "Feature", "properties": { "block_id": -2819886, "name": "block_-2819886", "lon": -112.6942, "lat": 45.6011, "p_anomalous": 0.75120783044523842, "elev_m": 1583.7857666015625, "nearest_gold_deg": 0.023721637801799055, "spatial_flag": "near_known_gold", "campaign_class": "confirm", "walk_rank": 13 }, "geometry": { "type": "Point", "coordinates": [ -112.6942, 45.6011 ] } },
{ "type": "Feature", "properties": { "block_id": -2819885, "name": "block_-2819885", "lon": -112.7492, "lat": 46.3394, "p_anomalous": 0.855, "elev_m": 1395.9620361328125, "nearest_gold_deg": 0.025151248477959028, "spatial_flag": "near_known_gold", "campaign_class": "confirm", "walk_rank": 12 }, "geometry": { "type": "Point", "coordinates": [ -112.7492, 46.3394 ] } },
{ "type": "Feature", "properties": { "block_id": -2819884, "name": "block_-2819884", "lon": -112.7186, "lat": 46.4867, "p_anomalous": 0.26, "elev_m": 1355.753662109375, "nearest_gold_deg": 0.14348142736953653, "spatial_flag": "near_known_gold", "campaign_class": "expedition", "walk_rank": 1 }, "geometry": { "type": "Point", "coordinates": [ -112.7186, 46.4867 ] } },
{ "type": "Feature", "properties": { "block_id": -2809887, "name": "block_-2809887", "lon": -112.3706, "lat": 45.5411, "p_anomalous": 0.205, "elev_m": 1416.2601318359375, "nearest_gold_deg": 0.043628068946503236, "spatial_flag": "near_known_gold", "campaign_class": "confirm", "walk_rank": 8 }, "geometry": { "type": "Point", "coordinates": [ -112.3706, 45.5411 ] } },
{ "type": "Feature", "properties": { "block_id": -2809886, "name": "block_-2809886", "lon": -112.1478, "lat": 45.8803, "p_anomalous": 0.67464973864200717, "elev_m": 1350.8392333984375, "nearest_gold_deg": 0.10023221288588573, "spatial_flag": "near_known_gold", "campaign_class": "expedition", "walk_rank": 3 }, "geometry": { "type": "Point", "coordinates": [ -112.1478, 45.8803 ] } },
{ "type": "Feature", "properties": { "block_id": -2809885, "name": "block_-2809885", "lon": -112.0256, "lat": 46.3997, "p_anomalous": 0.79766276071986364, "elev_m": 1395.8072509765625, "nearest_gold_deg": 0.010913592442457232, "spatial_flag": "near_known_gold", "campaign_class": "confirm", "walk_rank": 15 }, "geometry": { "type": "Point", "coordinates": [ -112.0256, 46.3997 ] } },
{ "type": "Feature", "properties": { "block_id": -2809884, "name": "block_-2809884", "lon": -112.0597, "lat": 46.6467, "p_anomalous": 0.92, "elev_m": 1188.2886962890625, "nearest_gold_deg": 0.0058012412464887239, "spatial_flag": "near_known_gold", "campaign_class": "confirm", "walk_rank": 17 }, "geometry": { "type": "Point", "coordinates": [ -112.0597, 46.6467 ] } },
{ "type": "Feature", "properties": { "block_id": -2799887, "name": "block_-2799887", "lon": -111.6472, "lat": 45.5854, "p_anomalous": 0.795, "elev_m": 1454.429931640625, "nearest_gold_deg": 0.0055002272680296045, "spatial_flag": "near_known_gold", "campaign_class": "confirm", "walk_rank": 18 }, "geometry": { "type": "Point", "coordinates": [ -111.6472, 45.5854 ] } },
{ "type": "Feature", "properties": { "block_id": -2799886, "name": "block_-2799886", "lon": -111.6058, "lat": 45.8383, "p_anomalous": 0.095, "elev_m": 1269.7755126953125, "nearest_gold_deg": 0.079170464821179065, "spatial_flag": "near_known_gold", "campaign_class": "expedition", "walk_rank": 4 }, "geometry": { "type": "Point", "coordinates": [ -111.6058, 45.8383 ] } },
{ "type": "Feature", "properties": { "block_id": -2799885, "name": "block_-2799885", "lon": -111.6119, "lat": 46.1694, "p_anomalous": 0.87, "elev_m": 1284.2115478515625, "nearest_gold_deg": 0.0030188739622462571, "spatial_flag": "near_known_gold", "campaign_class": "confirm", "walk_rank": 19 }, "geometry": { "type": "Point", "coordinates": [ -111.6119, 46.1694 ] } },
{ "type": "Feature", "properties": { "block_id": -2799884, "name": "block_-2799884", "lon": -111.8369, "lat": 46.6822, "p_anomalous": 0.785, "elev_m": 1127.17041015625, "nearest_gold_deg": 0.025646498786386657, "spatial_flag": "near_known_gold", "campaign_class": "confirm", "walk_rank": 11 }, "geometry": { "type": "Point", "coordinates": [ -111.8369, 46.6822 ] } },
{ "type": "Feature", "properties": { "block_id": -2789887, "name": "block_-2789887", "lon": -111.5958, "lat": 45.5853, "p_anomalous": 0.135, "elev_m": 1367.5, "nearest_gold_deg": 0.026641368208111461, "spatial_flag": "near_known_gold", "campaign_class": "confirm", "walk_rank": 10 }, "geometry": { "type": "Point", "coordinates": [ -111.5958, 45.5853 ] } },
{ "type": "Feature", "properties": { "block_id": -2789886, "name": "block_-2789886", "lon": -111.4682, "lat": 45.9884, "p_anomalous": 0.085, "elev_m": 1235.723388671875, "nearest_gold_deg": 0.074608953886246304, "spatial_flag": "near_known_gold", "campaign_class": "expedition", "walk_rank": 5 }, "geometry": { "type": "Point", "coordinates": [ -111.4682, 45.9884 ] } },
{ "type": "Feature", "properties": { "block_id": -2789885, "name": "block_-2789885", "lon": -111.495, "lat": 46.2053, "p_anomalous": 0.78, "elev_m": 1184.84375, "nearest_gold_deg": 0.021815673264883498, "spatial_flag": "near_known_gold", "campaign_class": "confirm", "walk_rank": 14 }, "geometry": { "type": "Point", "coordinates": [ -111.495, 46.2053 ] } },
{ "type": "Feature", "properties": { "block_id": -2789884, "name": "block_-2789884", "lon": -111.5714, "lat": 46.4706, "p_anomalous": 0.23, "elev_m": 1180.2972412109375, "nearest_gold_deg": 0.052119992325403756, "spatial_flag": "near_known_gold", "campaign_class": "expedition", "walk_rank": 7 }, "geometry": { "type": "Point", "coordinates": [ -111.5714, 46.4706 ] } },
{ "type": "Feature", "properties": { "block_id": -2779887, "name": "block_-2779887", "lon": -111.1697, "lat": 45.5803, "p_anomalous": 0.1109832420706607, "elev_m": 1559.316650390625, "nearest_gold_deg": 0.046974564393925146, "spatial_flag": "near_known_gold", "campaign_class": "skip", "walk_rank": null }, "geometry": { "type": "Point", "coordinates": [ -111.1697, 45.5803 ] } },
{ "type": "Feature", "properties": { "block_id": -2779886, "name": "block_-2779886", "lon": -111.1792, "lat": 45.8726, "p_anomalous": 0.12, "elev_m": 1324.01904296875, "nearest_gold_deg": 0.10599332856363977, "spatial_flag": "near_known_gold", "campaign_class": "skip", "walk_rank": null }, "geometry": { "type": "Point", "coordinates": [ -111.1792, 45.8726 ] } },
{ "type": "Feature", "properties": { "block_id": -2779885, "name": "block_-2779885", "lon": -111.1714, "lat": 46.1111, "p_anomalous": 0.115, "elev_m": 1364.5142822265625, "nearest_gold_deg": 0.27881681907660466, "spatial_flag": "far_from_known_gold", "campaign_class": "skip", "walk_rank": null }, "geometry": { "type": "Point", "coordinates": [ -111.1714, 46.1111 ] } },
{ "type": "Feature", "properties": { "block_id": -2779884, "name": "block_-2779884", "lon": -111.16, "lat": 46.765, "p_anomalous": 0.19, "elev_m": 1358.9267578125, "nearest_gold_deg": 0.12755732280038232, "spatial_flag": "near_known_gold", "campaign_class": "expedition", "walk_rank": 2 }, "geometry": { "type": "Point", "coordinates": [ -111.16, 46.765 ] } }
]
}
