{
"type": "FeatureCollection",
"name": "task11_field_campaign_targets",
"crs": { "type": "name", "properties": { "name": "urn:ogc:def:crs:OGC:1.3:CRS84" } },
"features": [
{ "type": "Feature", "properties": { "walk_rank": "1", "block_id": -2789885, "campaign_class": "expedition", "spot_order": 1, "role": "high_p_sample", "lon": -111.5511, "lat": 46.2108, "p_anomalous": 0.44, "elev_m": 1266.2 }, "geometry": { "type": "Point", "coordinates": [ -111.5511, 46.2108 ] } },
{ "type": "Feature", "properties": { "walk_rank": "1", "block_id": -2789885, "campaign_class": "expedition", "spot_order": 2, "role": "high_p_sample", "lon": -111.5353, "lat": 46.2106, "p_anomalous": 0.48, "elev_m": 1228.8 }, "geometry": { "type": "Point", "coordinates": [ -111.5353, 46.2106 ] } },
{ "type": "Feature", "properties": { "walk_rank": "1", "block_id": -2789885, "campaign_class": "expedition", "spot_order": 3, "role": "high_p_sample", "lon": -111.5222, "lat": 46.2211, "p_anomalous": 0.45, "elev_m": 1226.5 }, "geometry": { "type": "Point", "coordinates": [ -111.5222, 46.2211 ] } },
{ "type": "Feature", "properties": { "walk_rank": "1", "block_id": -2789885, "campaign_class": "expedition", "spot_order": 4, "role": "pour_point", "lon": -111.5028, "lat": 46.2614, "p_anomalous": 0.4478, "elev_m": 1183.4 }, "geometry": { "type": "Point", "coordinates": [ -111.5028, 46.2614 ] } },
{ "type": "Feature", "properties": { "walk_rank": "2", "block_id": -2789884, "campaign_class": "confirm", "spot_order": 1, "role": "pour_point", "lon": -111.5725, "lat": 46.4792, "p_anomalous": 0.469, "elev_m": 1161.8 }, "geometry": { "type": "Point", "coordinates": [ -111.5725, 46.4792 ] } },
{ "type": "Feature", "properties": { "walk_rank": "3", "block_id": -2799884, "campaign_class": "confirm", "spot_order": 1, "role": "high_p_sample", "lon": -111.8358, "lat": 46.4831, "p_anomalous": 0.56, "elev_m": 1602.5 }, "geometry": { "type": "Point", "coordinates": [ -111.8358, 46.4831 ] } },
{ "type": "Feature", "properties": { "walk_rank": "3", "block_id": -2799884, "campaign_class": "confirm", "spot_order": 2, "role": "high_p_sample", "lon": -111.9803, "lat": 46.4786, "p_anomalous": 0.61, "elev_m": 1275.6 }, "geometry": { "type": "Point", "coordinates": [ -111.9803, 46.4786 ] } },
{ "type": "Feature", "properties": { "walk_rank": "3", "block_id": -2799884, "campaign_class": "confirm", "spot_order": 3, "role": "high_p_sample", "lon": -111.8369, "lat": 46.6822, "p_anomalous": 0.67, "elev_m": 1127.2 }, "geometry": { "type": "Point", "coordinates": [ -111.8369, 46.6822 ] } },
{ "type": "Feature", "properties": { "walk_rank": "3", "block_id": -2799884, "campaign_class": "confirm", "spot_order": 4, "role": "pour_point", "lon": -111.8875, "lat": 46.755, "p_anomalous": 0.405, "elev_m": 1112.0 }, "geometry": { "type": "Point", "coordinates": [ -111.8875, 46.755 ] } },
{ "type": "Feature", "properties": { "walk_rank": "4", "block_id": -2779885, "campaign_class": "watch", "spot_order": 1, "role": "pour_point", "lon": -111.1556, "lat": 46.1147, "p_anomalous": 0.404, "elev_m": 1382.5 }, "geometry": { "type": "Point", "coordinates": [ -111.1556, 46.1147 ] } },
{ "type": "Feature", "properties": { "walk_rank": "5", "block_id": -2829884, "campaign_class": "watch", "spot_order": 1, "role": "high_p_sample", "lon": -112.8228, "lat": 46.4697, "p_anomalous": 0.4178, "elev_m": 1456.7 }, "geometry": { "type": "Point", "coordinates": [ -112.8228, 46.4697 ] } },
{ "type": "Feature", "properties": { "walk_rank": "5", "block_id": -2829884, "campaign_class": "watch", "spot_order": 2, "role": "high_p_sample", "lon": -112.83, "lat": 46.5656, "p_anomalous": 0.4678, "elev_m": 1357.5 }, "geometry": { "type": "Point", "coordinates": [ -112.83, 46.5656 ] } },
{ "type": "Feature", "properties": { "walk_rank": "5", "block_id": -2829884, "campaign_class": "watch", "spot_order": 3, "role": "pour_point", "lon": -112.8181, "lat": 46.5186, "p_anomalous": 0.3992, "elev_m": 1326.2 }, "geometry": { "type": "Point", "coordinates": [ -112.8181, 46.5186 ] } },
{ "type": "Feature", "properties": { "walk_rank": "6", "block_id": -2819884, "campaign_class": "watch", "spot_order": 1, "role": "high_p_sample", "lon": -112.5531, "lat": 46.6072, "p_anomalous": 0.4828, "elev_m": 1479.8 }, "geometry": { "type": "Point", "coordinates": [ -112.5531, 46.6072 ] } },
{ "type": "Feature", "properties": { "walk_rank": "6", "block_id": -2819884, "campaign_class": "watch", "spot_order": 2, "role": "high_p_sample", "lon": -112.7269, "lat": 46.7431, "p_anomalous": 0.45, "elev_m": 1473.4 }, "geometry": { "type": "Point", "coordinates": [ -112.7269, 46.7431 ] } },
{ "type": "Feature", "properties": { "walk_rank": "6", "block_id": -2819884, "campaign_class": "watch", "spot_order": 3, "role": "high_p_sample", "lon": -112.7681, "lat": 46.7753, "p_anomalous": 0.455, "elev_m": 1419.4 }, "geometry": { "type": "Point", "coordinates": [ -112.7681, 46.7753 ] } },
{ "type": "Feature", "properties": { "walk_rank": "6", "block_id": -2819884, "campaign_class": "watch", "spot_order": 4, "role": "pour_point", "lon": -112.7956, "lat": 46.5264, "p_anomalous": 0.355, "elev_m": 1336.2 }, "geometry": { "type": "Point", "coordinates": [ -112.7956, 46.5264 ] } },
{ "type": "Feature", "properties": { "walk_rank": "7", "block_id": -2779886, "campaign_class": "watch", "spot_order": 1, "role": "high_p_sample", "lon": -111.1772, "lat": 46.0028, "p_anomalous": 0.41, "elev_m": 1472.7 }, "geometry": { "type": "Point", "coordinates": [ -111.1772, 46.0028 ] } },
{ "type": "Feature", "properties": { "walk_rank": "7", "block_id": -2779886, "campaign_class": "watch", "spot_order": 2, "role": "high_p_sample", "lon": -111.1651, "lat": 45.9918, "p_anomalous": 0.4778, "elev_m": 1467.1 }, "geometry": { "type": "Point", "coordinates": [ -111.1651, 45.9918 ] } },
{ "type": "Feature", "properties": { "walk_rank": "7", "block_id": -2779886, "campaign_class": "watch", "spot_order": 3, "role": "high_p_sample", "lon": -111.17, "lat": 45.9312, "p_anomalous": 0.42, "elev_m": 1398.6 }, "geometry": { "type": "Point", "coordinates": [ -111.17, 45.9312 ] } },
{ "type": "Feature", "properties": { "walk_rank": "7", "block_id": -2779886, "campaign_class": "watch", "spot_order": 4, "role": "pour_point", "lon": -111.1829, "lat": 45.9112, "p_anomalous": 0.4278, "elev_m": 1357.8 }, "geometry": { "type": "Point", "coordinates": [ -111.1829, 45.9112 ] } },
{ "type": "Feature", "properties": { "walk_rank": "8", "block_id": -2779884, "campaign_class": "watch", "spot_order": 1, "role": "high_p_sample", "lon": -111.3736, "lat": 46.6564, "p_anomalous": 0.665, "elev_m": 1704.2 }, "geometry": { "type": "Point", "coordinates": [ -111.3736, 46.6564 ] } },
{ "type": "Feature", "properties": { "walk_rank": "8", "block_id": -2779884, "campaign_class": "watch", "spot_order": 2, "role": "high_p_sample", "lon": -111.2306, "lat": 46.6403, "p_anomalous": 0.565, "elev_m": 1550.8 }, "geometry": { "type": "Point", "coordinates": [ -111.2306, 46.6403 ] } },
{ "type": "Feature", "properties": { "walk_rank": "8", "block_id": -2779884, "campaign_class": "watch", "spot_order": 3, "role": "high_p_sample", "lon": -111.1969, "lat": 46.6336, "p_anomalous": 0.55, "elev_m": 1488.4 }, "geometry": { "type": "Point", "coordinates": [ -111.1969, 46.6336 ] } },
{ "type": "Feature", "properties": { "walk_rank": "8", "block_id": -2779884, "campaign_class": "watch", "spot_order": 4, "role": "pour_point", "lon": -111.1589, "lat": 46.7747, "p_anomalous": 0.425, "elev_m": 1366.1 }, "geometry": { "type": "Point", "coordinates": [ -111.1589, 46.7747 ] } },
{ "type": "Feature", "properties": { "walk_rank": "9", "block_id": -2789886, "campaign_class": "watch", "spot_order": 1, "role": "high_p_sample", "lon": -111.5881, "lat": 45.7147, "p_anomalous": 0.545, "elev_m": 1514.8 }, "geometry": { "type": "Point", "coordinates": [ -111.5881, 45.7147 ] } },
{ "type": "Feature", "properties": { "walk_rank": "9", "block_id": -2789886, "campaign_class": "watch", "spot_order": 2, "role": "high_p_sample", "lon": -111.5739, "lat": 45.7344, "p_anomalous": 0.57, "elev_m": 1430.9 }, "geometry": { "type": "Point", "coordinates": [ -111.5739, 45.7344 ] } },
{ "type": "Feature", "properties": { "walk_rank": "9", "block_id": -2789886, "campaign_class": "watch", "spot_order": 3, "role": "high_p_sample", "lon": -111.52, "lat": 45.7472, "p_anomalous": 0.545, "elev_m": 1331.1 }, "geometry": { "type": "Point", "coordinates": [ -111.52, 45.7472 ] } },
{ "type": "Feature", "properties": { "walk_rank": "9", "block_id": -2789886, "campaign_class": "watch", "spot_order": 4, "role": "pour_point", "lon": -111.4261, "lat": 45.9853, "p_anomalous": 0.45, "elev_m": 1232.2 }, "geometry": { "type": "Point", "coordinates": [ -111.4261, 45.9853 ] } },
{ "type": "Feature", "properties": { "walk_rank": "10", "block_id": -2829885, "campaign_class": "watch", "spot_order": 1, "role": "pour_point", "lon": -112.8067, "lat": 46.3425, "p_anomalous": 0.425, "elev_m": 1475.6 }, "geometry": { "type": "Point", "coordinates": [ -112.8067, 46.3425 ] } },
{ "type": "Feature", "properties": { "walk_rank": "11", "block_id": -2799886, "campaign_class": "watch", "spot_order": 1, "role": "high_p_sample", "lon": -111.7186, "lat": 45.7317, "p_anomalous": 0.555, "elev_m": 1558.3 }, "geometry": { "type": "Point", "coordinates": [ -111.7186, 45.7317 ] } },
{ "type": "Feature", "properties": { "walk_rank": "11", "block_id": -2799886, "campaign_class": "watch", "spot_order": 2, "role": "high_p_sample", "lon": -111.7833, "lat": 45.6825, "p_anomalous": 0.565, "elev_m": 1520.7 }, "geometry": { "type": "Point", "coordinates": [ -111.7833, 45.6825 ] } },
{ "type": "Feature", "properties": { "walk_rank": "11", "block_id": -2799886, "campaign_class": "watch", "spot_order": 3, "role": "high_p_sample", "lon": -111.9756, "lat": 45.9003, "p_anomalous": 0.555, "elev_m": 1413.5 }, "geometry": { "type": "Point", "coordinates": [ -111.9756, 45.9003 ] } },
{ "type": "Feature", "properties": { "walk_rank": "11", "block_id": -2799886, "campaign_class": "watch", "spot_order": 4, "role": "pour_point", "lon": -111.6144, "lat": 45.8728, "p_anomalous": 0.4286, "elev_m": 1246.5 }, "geometry": { "type": "Point", "coordinates": [ -111.6144, 45.8728 ] } },
{ "type": "Feature", "properties": { "walk_rank": "12", "block_id": -2819887, "campaign_class": "watch", "spot_order": 1, "role": "high_p_sample", "lon": -112.6028, "lat": 45.5233, "p_anomalous": 0.41, "elev_m": 2263.9 }, "geometry": { "type": "Point", "coordinates": [ -112.6028, 45.5233 ] } },
{ "type": "Feature", "properties": { "walk_rank": "12", "block_id": -2819887, "campaign_class": "watch", "spot_order": 2, "role": "high_p_sample", "lon": -112.5542, "lat": 45.5375, "p_anomalous": 0.4078, "elev_m": 1834.3 }, "geometry": { "type": "Point", "coordinates": [ -112.5542, 45.5375 ] } },
{ "type": "Feature", "properties": { "walk_rank": "12", "block_id": -2819887, "campaign_class": "watch", "spot_order": 3, "role": "high_p_sample", "lon": -112.5308, "lat": 45.545, "p_anomalous": 0.4078, "elev_m": 1745.8 }, "geometry": { "type": "Point", "coordinates": [ -112.5308, 45.545 ] } },
{ "type": "Feature", "properties": { "walk_rank": "12", "block_id": -2819887, "campaign_class": "watch", "spot_order": 4, "role": "pour_point", "lon": -112.4519, "lat": 45.5003, "p_anomalous": 0.425, "elev_m": 1460.4 }, "geometry": { "type": "Point", "coordinates": [ -112.4519, 45.5003 ] } },
{ "type": "Feature", "properties": { "walk_rank": "13", "block_id": -2829887, "campaign_class": "watch", "spot_order": 1, "role": "high_p_sample", "lon": -112.8328, "lat": 45.2247, "p_anomalous": 0.23, "elev_m": 1726.3 }, "geometry": { "type": "Point", "coordinates": [ -112.8328, 45.2247 ] } },
{ "type": "Feature", "properties": { "walk_rank": "13", "block_id": -2829887, "campaign_class": "watch", "spot_order": 2, "role": "high_p_sample", "lon": -112.8261, "lat": 45.2242, "p_anomalous": 0.25, "elev_m": 1719.8 }, "geometry": { "type": "Point", "coordinates": [ -112.8261, 45.2242 ] } },
{ "type": "Feature", "properties": { "walk_rank": "13", "block_id": -2829887, "campaign_class": "watch", "spot_order": 3, "role": "pour_point", "lon": -112.8036, "lat": 45.2119, "p_anomalous": 0.38, "elev_m": 1688.2 }, "geometry": { "type": "Point", "coordinates": [ -112.8036, 45.2119 ] } },
{ "type": "Feature", "properties": { "walk_rank": "14", "block_id": -2809887, "campaign_class": "watch", "spot_order": 1, "role": "high_p_sample", "lon": -112.3533, "lat": 45.3103, "p_anomalous": 0.47, "elev_m": 1730.3 }, "geometry": { "type": "Point", "coordinates": [ -112.3533, 45.3103 ] } },
{ "type": "Feature", "properties": { "walk_rank": "14", "block_id": -2809887, "campaign_class": "watch", "spot_order": 2, "role": "high_p_sample", "lon": -112.0492, "lat": 45.2978, "p_anomalous": 0.4678, "elev_m": 1678.1 }, "geometry": { "type": "Point", "coordinates": [ -112.0492, 45.2978 ] } },
{ "type": "Feature", "properties": { "walk_rank": "14", "block_id": -2809887, "campaign_class": "watch", "spot_order": 3, "role": "high_p_sample", "lon": -112.1486, "lat": 45.3186, "p_anomalous": 0.485, "elev_m": 1634.9 }, "geometry": { "type": "Point", "coordinates": [ -112.1486, 45.3186 ] } },
{ "type": "Feature", "properties": { "walk_rank": "14", "block_id": -2809887, "campaign_class": "watch", "spot_order": 4, "role": "pour_point", "lon": -112.3706, "lat": 45.5411, "p_anomalous": 0.3992, "elev_m": 1416.3 }, "geometry": { "type": "Point", "coordinates": [ -112.3706, 45.5411 ] } },
{ "type": "Feature", "properties": { "walk_rank": "15", "block_id": -2819885, "campaign_class": "watch", "spot_order": 1, "role": "high_p_sample", "lon": -112.8067, "lat": 46.3425, "p_anomalous": 0.425, "elev_m": 1475.6 }, "geometry": { "type": "Point", "coordinates": [ -112.8067, 46.3425 ] } },
{ "type": "Feature", "properties": { "walk_rank": "15", "block_id": -2819885, "campaign_class": "watch", "spot_order": 2, "role": "high_p_sample", "lon": -112.7897, "lat": 46.3542, "p_anomalous": 0.45, "elev_m": 1446.5 }, "geometry": { "type": "Point", "coordinates": [ -112.7897, 46.3542 ] } },
{ "type": "Feature", "properties": { "walk_rank": "15", "block_id": -2819885, "campaign_class": "watch", "spot_order": 3, "role": "high_p_sample", "lon": -112.7714, "lat": 46.3669, "p_anomalous": 0.43, "elev_m": 1430.4 }, "geometry": { "type": "Point", "coordinates": [ -112.7714, 46.3669 ] } },
{ "type": "Feature", "properties": { "walk_rank": "15", "block_id": -2819885, "campaign_class": "watch", "spot_order": 4, "role": "pour_point", "lon": -112.7461, "lat": 46.3603, "p_anomalous": 0.415, "elev_m": 1392.6 }, "geometry": { "type": "Point", "coordinates": [ -112.7461, 46.3603 ] } },
{ "type": "Feature", "properties": { "walk_rank": "16", "block_id": -2789887, "campaign_class": "watch", "spot_order": 1, "role": "pour_point", "lon": -111.587, "lat": 45.5373, "p_anomalous": 0.385, "elev_m": 1412.9 }, "geometry": { "type": "Point", "coordinates": [ -111.587, 45.5373 ] } },
{ "type": "Feature", "properties": { "walk_rank": "17", "block_id": -2799885, "campaign_class": "watch", "spot_order": 1, "role": "high_p_sample", "lon": -111.7631, "lat": 46.0825, "p_anomalous": 0.5436, "elev_m": 1535.6 }, "geometry": { "type": "Point", "coordinates": [ -111.7631, 46.0825 ] } },
{ "type": "Feature", "properties": { "walk_rank": "17", "block_id": -2799885, "campaign_class": "watch", "spot_order": 2, "role": "high_p_sample", "lon": -111.7653, "lat": 46.0569, "p_anomalous": 0.53, "elev_m": 1492.9 }, "geometry": { "type": "Point", "coordinates": [ -111.7653, 46.0569 ] } },
{ "type": "Feature", "properties": { "walk_rank": "17", "block_id": -2799885, "campaign_class": "watch", "spot_order": 3, "role": "high_p_sample", "lon": -111.7261, "lat": 46.0342, "p_anomalous": 0.45, "elev_m": 1420.9 }, "geometry": { "type": "Point", "coordinates": [ -111.7261, 46.0342 ] } },
{ "type": "Feature", "properties": { "walk_rank": "17", "block_id": -2799885, "campaign_class": "watch", "spot_order": 4, "role": "pour_point", "lon": -111.62, "lat": 46.0581, "p_anomalous": 0.365, "elev_m": 1308.8 }, "geometry": { "type": "Point", "coordinates": [ -111.62, 46.0581 ] } },
{ "type": "Feature", "properties": { "walk_rank": "18", "block_id": -2809886, "campaign_class": "watch", "spot_order": 1, "role": "high_p_sample", "lon": -112.3306, "lat": 45.7756, "p_anomalous": 0.49, "elev_m": 1778.5 }, "geometry": { "type": "Point", "coordinates": [ -112.3306, 45.7756 ] } },
{ "type": "Feature", "properties": { "walk_rank": "18", "block_id": -2809886, "campaign_class": "watch", "spot_order": 2, "role": "high_p_sample", "lon": -112.2364, "lat": 45.7939, "p_anomalous": 0.4628, "elev_m": 1472.2 }, "geometry": { "type": "Point", "coordinates": [ -112.2364, 45.7939 ] } },
{ "type": "Feature", "properties": { "walk_rank": "18", "block_id": -2809886, "campaign_class": "watch", "spot_order": 3, "role": "high_p_sample", "lon": -112.1567, "lat": 45.7925, "p_anomalous": 0.4357, "elev_m": 1340.2 }, "geometry": { "type": "Point", "coordinates": [ -112.1567, 45.7925 ] } },
{ "type": "Feature", "properties": { "walk_rank": "18", "block_id": -2809886, "campaign_class": "watch", "spot_order": 4, "role": "pour_point", "lon": -112.1233, "lat": 45.8103, "p_anomalous": 0.3828, "elev_m": 1331.8 }, "geometry": { "type": "Point", "coordinates": [ -112.1233, 45.8103 ] } },
{ "type": "Feature", "properties": { "walk_rank": "19", "block_id": -2829886, "campaign_class": "watch", "spot_order": 1, "role": "high_p_sample", "lon": -112.8392, "lat": 45.9653, "p_anomalous": 0.325, "elev_m": 1851.6 }, "geometry": { "type": "Point", "coordinates": [ -112.8392, 45.9653 ] } },
{ "type": "Feature", "properties": { "walk_rank": "19", "block_id": -2829886, "campaign_class": "watch", "spot_order": 2, "role": "high_p_sample", "lon": -112.8394, "lat": 45.9656, "p_anomalous": 0.395, "elev_m": 1839.8 }, "geometry": { "type": "Point", "coordinates": [ -112.8394, 45.9656 ] } },
{ "type": "Feature", "properties": { "walk_rank": "19", "block_id": -2829886, "campaign_class": "watch", "spot_order": 3, "role": "pour_point", "lon": -112.8139, "lat": 45.9833, "p_anomalous": 0.44, "elev_m": 1677.6 }, "geometry": { "type": "Point", "coordinates": [ -112.8139, 45.9833 ] } },
{ "type": "Feature", "properties": { "walk_rank": "20", "block_id": -2819886, "campaign_class": "watch", "spot_order": 1, "role": "high_p_sample", "lon": -112.8089, "lat": 45.5919, "p_anomalous": 0.4357, "elev_m": 1913.6 }, "geometry": { "type": "Point", "coordinates": [ -112.8089, 45.5919 ] } },
{ "type": "Feature", "properties": { "walk_rank": "20", "block_id": -2819886, "campaign_class": "watch", "spot_order": 2, "role": "high_p_sample", "lon": -112.7403, "lat": 45.5917, "p_anomalous": 0.4042, "elev_m": 1707.8 }, "geometry": { "type": "Point", "coordinates": [ -112.7403, 45.5917 ] } },
{ "type": "Feature", "properties": { "walk_rank": "20", "block_id": -2819886, "campaign_class": "watch", "spot_order": 3, "role": "pour_point", "lon": -112.6942, "lat": 45.6011, "p_anomalous": 0.415, "elev_m": 1583.8 }, "geometry": { "type": "Point", "coordinates": [ -112.6942, 45.6011 ] } },
{ "type": "Feature", "properties": { "walk_rank": "21", "block_id": -2809885, "campaign_class": "watch", "spot_order": 1, "role": "high_p_sample", "lon": -111.9033, "lat": 46.3417, "p_anomalous": 0.485, "elev_m": 2099.7 }, "geometry": { "type": "Point", "coordinates": [ -111.9033, 46.3417 ] } },
{ "type": "Feature", "properties": { "walk_rank": "21", "block_id": -2809885, "campaign_class": "watch", "spot_order": 2, "role": "high_p_sample", "lon": -111.9528, "lat": 46.3542, "p_anomalous": 0.44, "elev_m": 1740.1 }, "geometry": { "type": "Point", "coordinates": [ -111.9528, 46.3542 ] } },
{ "type": "Feature", "properties": { "walk_rank": "21", "block_id": -2809885, "campaign_class": "watch", "spot_order": 3, "role": "high_p_sample", "lon": -111.9831, "lat": 46.3606, "p_anomalous": 0.445, "elev_m": 1559.8 }, "geometry": { "type": "Point", "coordinates": [ -111.9831, 46.3606 ] } },
{ "type": "Feature", "properties": { "walk_rank": "21", "block_id": -2809885, "campaign_class": "watch", "spot_order": 4, "role": "pour_point", "lon": -112.0256, "lat": 46.3997, "p_anomalous": 0.1825, "elev_m": 1395.8 }, "geometry": { "type": "Point", "coordinates": [ -112.0256, 46.3997 ] } },
{ "type": "Feature", "properties": { "walk_rank": "22", "block_id": -2809884, "campaign_class": "watch", "spot_order": 1, "role": "high_p_sample", "lon": -112.0872, "lat": 46.7522, "p_anomalous": 0.4228, "elev_m": 1280.0 }, "geometry": { "type": "Point", "coordinates": [ -112.0872, 46.7522 ] } },
{ "type": "Feature", "properties": { "walk_rank": "22", "block_id": -2809884, "campaign_class": "watch", "spot_order": 2, "role": "pour_point", "lon": -112.0558, "lat": 46.7344, "p_anomalous": 0.3692, "elev_m": 1210.5 }, "geometry": { "type": "Point", "coordinates": [ -112.0558, 46.7344 ] } },
{ "type": "Feature", "properties": { "walk_rank": "23", "block_id": -2799887, "campaign_class": "watch", "spot_order": 1, "role": "high_p_sample", "lon": -111.7628, "lat": 45.5684, "p_anomalous": 0.455, "elev_m": 1555.2 }, "geometry": { "type": "Point", "coordinates": [ -111.7628, 45.5684 ] } },
{ "type": "Feature", "properties": { "walk_rank": "23", "block_id": -2799887, "campaign_class": "watch", "spot_order": 2, "role": "high_p_sample", "lon": -111.6679, "lat": 45.5695, "p_anomalous": 0.42, "elev_m": 1519.7 }, "geometry": { "type": "Point", "coordinates": [ -111.6679, 45.5695 ] } },
{ "type": "Feature", "properties": { "walk_rank": "23", "block_id": -2799887, "campaign_class": "watch", "spot_order": 3, "role": "high_p_sample", "lon": -111.6834, "lat": 45.5748, "p_anomalous": 0.415, "elev_m": 1462.7 }, "geometry": { "type": "Point", "coordinates": [ -111.6834, 45.5748 ] } },
{ "type": "Feature", "properties": { "walk_rank": "23", "block_id": -2799887, "campaign_class": "watch", "spot_order": 4, "role": "pour_point", "lon": -111.6472, "lat": 45.5854, "p_anomalous": 0.395, "elev_m": 1454.4 }, "geometry": { "type": "Point", "coordinates": [ -111.6472, 45.5854 ] } },
{ "type": "Feature", "properties": { "walk_rank": "<NA>", "block_id": -2779887, "campaign_class": "skip", "spot_order": 1, "role": "high_p_sample", "lon": -111.1579, "lat": 45.5334, "p_anomalous": 0.3438, "elev_m": 1720.6 }, "geometry": { "type": "Point", "coordinates": [ -111.1579, 45.5334 ] } },
{ "type": "Feature", "properties": { "walk_rank": "<NA>", "block_id": -2779887, "campaign_class": "skip", "spot_order": 2, "role": "high_p_sample", "lon": -111.1647, "lat": 45.5453, "p_anomalous": 0.28, "elev_m": 1631.4 }, "geometry": { "type": "Point", "coordinates": [ -111.1647, 45.5453 ] } },
{ "type": "Feature", "properties": { "walk_rank": "<NA>", "block_id": -2779887, "campaign_class": "skip", "spot_order": 3, "role": "pour_point", "lon": -111.1742, "lat": 45.544, "p_anomalous": 0.385, "elev_m": 1614.6 }, "geometry": { "type": "Point", "coordinates": [ -111.1742, 45.544 ] } }
]
}
