{
"type": "FeatureCollection",
"name": "fig7_integrated_priority_tier",
"crs": { "type": "name", "properties": { "name": "urn:ogc:def:crs:OGC:1.3:CRS84" } },
"features": [
{ "type": "Feature", "properties": { "name": "Hunters Placer", "lon": -118.21, "lat": 48.14, "commodity": "placer_gold", "mrds_id": "M004332", "lidar_year": 2020, "lidar_res_m": 0.5, "lidar_quality": "HIGH", "topo_year": 1971, "topo_contour_ft": 20, "topo_available": true, "area_ha": 4.5, "depth_m": 3.0, "depth_uncertainty_m": 1.5, "mag_anomaly_nT": 257.07441968898786, "mag_high": true, "th_value_ppm": null, "th_source": null, "th_near": false, "th_local_ppm": 20.0, "th_assign_lab_id": "C164654", "th_assign_dist_km": 5.7568150197158392, "y_value_ppm": null, "y_near": false, "multicommodity_target": false, "priority_score": 1, "rad_K": 1.1642715930938721, "rad_eTh": 5.9604706764221191, "rad_eU": 2.5151503086090088, "rad_eU_eTh": 0.42197176114936841, "rad_K_eTh": 0.19533215685455688, "rad_eTh_high": false, "rad_th_agree": "neither", "source_lith_score": 2.48, "source_lith_desc": "MCC_metapelite(53%) | felsic_intrusive(41%)", "tonnage_t": 202500, "ndpr_ppm": 205.0, "ndpr_tonnes": 38.2, "ndpr_t_p10": 12.6, "ndpr_t_p50": 38.2, "ndpr_t_p90": 80.6, "confidence": "HIGH", "total_cost_$M": 5.0, "npv_central_$M": -0.8, "breakeven_$/kg": 130.1, "processing_viable": false, "dual_anomaly_flag": false, "has_th_anomaly": false, "score_th": 0, "score_mag": 1, "score_lith": 2.48, "score_conf": 2, "score_ndpr": 1.0547089086078059, "score_au": 0.0, "score_y": 0, "score_ml": 0.88, "combined_score": 8.47, "rank": 1 }, "geometry": { "type": "Point", "coordinates": [ -118.21, 48.14 ] } },
{ "type": "Feature", "properties": { "name": "Bossburg Placer", "lon": -117.8, "lat": 48.72, "commodity": "placer_gold", "mrds_id": "M004326", "lidar_year": 2019, "lidar_res_m": 1.0, "lidar_quality": "MEDIUM", "topo_year": 1969, "topo_contour_ft": 40, "topo_available": true, "area_ha": 4.0, "depth_m": 3.5, "depth_uncertainty_m": 1.5, "mag_anomaly_nT": 154.6970431823809, "mag_high": false, "th_value_ppm": 33.0, "th_source": "MONAZITE", "th_near": true, "th_local_ppm": 33.0, "th_assign_lab_id": "C178928", "th_assign_dist_km": 10.792303986154176, "y_value_ppm": null, "y_near": false, "multicommodity_target": false, "priority_score": 2, "rad_K": 0.99188882112503052, "rad_eTh": 6.4067425727844238, "rad_eU": 1.2249573469161987, "rad_eU_eTh": 0.1911981530395441, "rad_K_eTh": 0.15481952175486696, "rad_eTh_high": false, "rad_th_agree": "stream_only", "source_lith_score": 2.0, "source_lith_desc": "felsic_intrusive(100%)", "tonnage_t": 210000, "ndpr_ppm": 338.0, "ndpr_tonnes": 69.5, "ndpr_t_p10": 27.8, "ndpr_t_p50": 69.5, "ndpr_t_p90": 140.8, "confidence": "MEDIUM", "total_cost_$M": 6.6, "npv_central_$M": 0.6, "breakeven_$/kg": 99.2, "processing_viable": true, "dual_anomaly_flag": false, "has_th_anomaly": true, "score_th": 2, "score_mag": 0, "score_lith": 2.0, "score_conf": 1, "score_ndpr": 1.2279898697267426, "score_au": 0.5, "score_y": 0, "score_ml": 0.275, "combined_score": 8.23, "rank": 2 }, "geometry": { "type": "Point", "coordinates": [ -117.8, 48.72 ] } },
{ "type": "Feature", "properties": { "name": "Oroville Placer", "lon": -119.43, "lat": 48.94, "commodity": "placer_gold", "mrds_id": "M004324", "lidar_year": 2021, "lidar_res_m": 0.5, "lidar_quality": "HIGH", "topo_year": 1971, "topo_contour_ft": 20, "topo_available": true, "area_ha": 22.0, "depth_m": 5.0, "depth_uncertainty_m": 2.0, "mag_anomaly_nT": -3.0088882762834421, "mag_high": false, "th_value_ppm": null, "th_source": null, "th_near": false, "th_local_ppm": null, "th_assign_lab_id": null, "th_assign_dist_km": null, "y_value_ppm": null, "y_near": false, "multicommodity_target": false, "priority_score": 0, "rad_K": 1.5956434011459351, "rad_eTh": 4.9026904106140137, "rad_eU": 1.2164533138275146, "rad_eU_eTh": 0.24811954497350483, "rad_K_eTh": 0.32546281072357097, "rad_eTh_high": false, "rad_th_agree": "neither", "source_lith_score": 3.0, "source_lith_desc": "MCC_metapelite(100%)", "tonnage_t": 1650000, "ndpr_ppm": 82.0, "ndpr_tonnes": 129.6, "ndpr_t_p10": 53.4, "ndpr_t_p50": 129.6, "ndpr_t_p90": 251.6, "confidence": "HIGH", "total_cost_$M": 31.3, "npv_central_$M": -17.5, "breakeven_$/kg": 247.7, "processing_viable": false, "dual_anomaly_flag": false, "has_th_anomaly": false, "score_th": 0, "score_mag": 0, "score_lith": 3.0, "score_conf": 2, "score_ndpr": 1.4084033343563831, "score_au": 0.0, "score_y": 0, "score_ml": 0.12, "combined_score": 7.94, "rank": 3 }, "geometry": { "type": "Point", "coordinates": [ -119.43, 48.94 ] } },
{ "type": "Feature", "properties": { "name": "Colville Placer", "lon": -117.9, "lat": 48.55, "commodity": "placer_gold", "mrds_id": "M004330", "lidar_year": 2020, "lidar_res_m": 0.5, "lidar_quality": "HIGH", "topo_year": 1972, "topo_contour_ft": 20, "topo_available": true, "area_ha": 7.0, "depth_m": 3.5, "depth_uncertainty_m": 1.5, "mag_anomaly_nT": 293.3156306828235, "mag_high": true, "th_value_ppm": null, "th_source": null, "th_near": false, "th_local_ppm": null, "th_assign_lab_id": null, "th_assign_dist_km": null, "y_value_ppm": null, "y_near": false, "multicommodity_target": false, "priority_score": 1, "rad_K": 1.1913726329803467, "rad_eTh": 7.461705207824707, "rad_eU": 2.3322861194610596, "rad_eU_eTh": 0.31256744329906133, "rad_K_eTh": 0.15966492910106062, "rad_eTh_high": false, "rad_th_agree": "neither", "source_lith_score": 2.05, "source_lith_desc": "felsic_intrusive(95%)", "tonnage_t": 367500, "ndpr_ppm": 82.0, "ndpr_tonnes": 28.3, "ndpr_t_p10": 11.0, "ndpr_t_p50": 28.3, "ndpr_t_p90": 56.4, "confidence": "HIGH", "total_cost_$M": 7.0, "npv_central_$M": -3.9, "breakeven_$/kg": 247.7, "processing_viable": false, "dual_anomaly_flag": false, "has_th_anomaly": false, "score_th": 0, "score_mag": 1, "score_lith": 2.05, "score_conf": 2, "score_ndpr": 0.9678576236828601, "score_au": 0.0, "score_y": 0, "score_ml": 0.93, "combined_score": 7.92, "rank": 4 }, "geometry": { "type": "Point", "coordinates": [ -117.9, 48.55 ] } },
{ "type": "Feature", "properties": { "name": "Old Dominion Mine", "lon": -118.25, "lat": 48.43, "commodity": "gold_lode", "mrds_id": "M004327", "lidar_year": 2013, "lidar_res_m": 2.0, "lidar_quality": "LOW", "topo_year": 1958, "topo_contour_ft": 80, "topo_available": true, "area_ha": 12.0, "depth_m": 8.0, "depth_uncertainty_m": 3.0, "mag_anomaly_nT": 275.08193697832081, "mag_high": true, "th_value_ppm": null, "th_source": null, "th_near": false, "th_local_ppm": 11.0, "th_assign_lab_id": "C165499", "th_assign_dist_km": 2.0717905706096191, "y_value_ppm": null, "y_near": false, "multicommodity_target": false, "priority_score": 1, "rad_K": 1.0619207620620728, "rad_eTh": 6.2661495208740234, "rad_eU": 1.6842695474624634, "rad_eU_eTh": 0.26878859846094699, "rad_K_eTh": 0.16946942592489439, "rad_eTh_high": false, "rad_th_agree": "neither", "source_lith_score": 2.44, "source_lith_desc": "felsic_intrusive(56%) | MCC_metapelite(44%)", "tonnage_t": 1440000, "ndpr_ppm": 112.0, "ndpr_tonnes": 154.0, "ndpr_t_p10": 67.6, "ndpr_t_p50": 154.0, "ndpr_t_p90": 309.1, "confidence": "LOW", "total_cost_$M": 29.4, "npv_central_$M": -13.0, "breakeven_$/kg": 195.2, "processing_viable": false, "dual_anomaly_flag": false, "has_th_anomaly": false, "score_th": 0, "score_mag": 1, "score_lith": 2.44, "score_conf": 0, "score_ndpr": 1.4583471472243088, "score_au": 0.0, "score_y": 0, "score_ml": 0.905, "combined_score": 7.26, "rank": 5 }, "geometry": { "type": "Point", "coordinates": [ -118.25, 48.43 ] } },
{ "type": "Feature", "properties": { "name": "Conconully Placer", "lon": -119.75, "lat": 48.55, "commodity": "placer_gold", "mrds_id": "M004322", "lidar_year": 2016, "lidar_res_m": 1.0, "lidar_quality": "MEDIUM", "topo_year": 1966, "topo_contour_ft": 40, "topo_available": true, "area_ha": 8.5, "depth_m": 4.0, "depth_uncertainty_m": 1.5, "mag_anomaly_nT": 105.94106145583943, "mag_high": false, "th_value_ppm": null, "th_source": null, "th_near": false, "th_local_ppm": null, "th_assign_lab_id": null, "th_assign_dist_km": null, "y_value_ppm": null, "y_near": false, "multicommodity_target": false, "priority_score": 0, "rad_K": 1.3737225532531738, "rad_eTh": 4.7169322967529297, "rad_eU": 1.9514687061309814, "rad_eU_eTh": 0.41371564893444523, "rad_K_eTh": 0.29123219644234138, "rad_eTh_high": false, "rad_th_agree": "neither", "source_lith_score": 3.0, "source_lith_desc": "MCC_metapelite(100%)", "tonnage_t": 510000, "ndpr_ppm": 82.0, "ndpr_tonnes": 39.5, "ndpr_t_p10": 16.9, "ndpr_t_p50": 39.5, "ndpr_t_p90": 79.3, "confidence": "MEDIUM", "total_cost_$M": 9.7, "npv_central_$M": -5.4, "breakeven_$/kg": 247.7, "processing_viable": false, "dual_anomaly_flag": false, "has_th_anomaly": false, "score_th": 0, "score_mag": 0, "score_lith": 3.0, "score_conf": 1, "score_ndpr": 1.0643980637509733, "score_au": 0.0, "score_y": 0, "score_ml": 0.735, "combined_score": 6.86, "rank": 6 }, "geometry": { "type": "Point", "coordinates": [ -119.75, 48.55 ] } },
{ "type": "Feature", "properties": { "name": "Brender Placer", "lon": -119.42, "lat": 48.51, "commodity": "placer_gold", "mrds_id": "M004321", "lidar_year": 2016, "lidar_res_m": 1.0, "lidar_quality": "MEDIUM", "topo_year": 1969, "topo_contour_ft": 40, "topo_available": true, "area_ha": 3.2, "depth_m": 3.5, "depth_uncertainty_m": 1.5, "mag_anomaly_nT": 229.24105051066246, "mag_high": true, "th_value_ppm": null, "th_source": null, "th_near": false, "th_local_ppm": 3.0, "th_assign_lab_id": "C164832", "th_assign_dist_km": 10.767916376924534, "y_value_ppm": null, "y_near": false, "multicommodity_target": false, "priority_score": 1, "rad_K": 1.0670504570007324, "rad_eTh": 3.1306800842285156, "rad_eU": 0.83693349361419678, "rad_eU_eTh": 0.26733280664173642, "rad_K_eTh": 0.34083663239058887, "rad_eTh_high": false, "rad_th_agree": "neither", "source_lith_score": 3.0, "source_lith_desc": "MCC_metapelite(100%)", "tonnage_t": 168000, "ndpr_ppm": 31.0, "ndpr_tonnes": 5.0, "ndpr_t_p10": 1.9, "ndpr_t_p50": 5.0, "ndpr_t_p90": 10.2, "confidence": "MEDIUM", "total_cost_$M": 2.8, "npv_central_$M": -2.2, "breakeven_$/kg": 570.3, "processing_viable": false, "dual_anomaly_flag": false, "has_th_anomaly": false, "score_th": 0, "score_mag": 1, "score_lith": 3.0, "score_conf": 1, "score_ndpr": 0.46598000289067926, "score_au": 0.0, "score_y": 0, "score_ml": 0.77, "combined_score": 6.7, "rank": 7 }, "geometry": { "type": "Point", "coordinates": [ -119.42, 48.51 ] } },
{ "type": "Feature", "properties": { "name": "Sanpoil River Placer", "lon": -118.85, "lat": 48.2, "commodity": "placer_gold", "mrds_id": "M004329", "lidar_year": 2013, "lidar_res_m": 2.0, "lidar_quality": "LOW", "topo_year": 1964, "topo_contour_ft": 40, "topo_available": true, "area_ha": 9.0, "depth_m": 4.5, "depth_uncertainty_m": 2.0, "mag_anomaly_nT": 16.504501228714201, "mag_high": false, "th_value_ppm": null, "th_source": null, "th_near": false, "th_local_ppm": 13.8, "th_assign_lab_id": "C244552", "th_assign_dist_km": 8.5325850522930615, "y_value_ppm": null, "y_near": false, "multicommodity_target": false, "priority_score": 0, "rad_K": 1.4675024747848511, "rad_eTh": 4.9090781211853027, "rad_eU": 1.3354136943817139, "rad_eU_eTh": 0.27202942414354503, "rad_K_eTh": 0.29893646802070462, "rad_eTh_high": false, "rad_th_agree": "neither", "source_lith_score": 3.0, "source_lith_desc": "MCC_metapelite(100%)", "tonnage_t": 607500, "ndpr_ppm": 141.0, "ndpr_tonnes": 80.2, "ndpr_t_p10": 29.9, "ndpr_t_p50": 80.2, "ndpr_t_p90": 167.2, "confidence": "LOW", "total_cost_$M": 13.2, "npv_central_$M": -4.5, "breakeven_$/kg": 165.7, "processing_viable": false, "dual_anomaly_flag": false, "has_th_anomaly": false, "score_th": 0, "score_mag": 0, "score_lith": 3.0, "score_conf": 0, "score_ndpr": 1.2694495788561089, "score_au": 0.0, "score_y": 0, "score_ml": 0.89, "combined_score": 6.43, "rank": 8 }, "geometry": { "type": "Point", "coordinates": [ -118.85, 48.2 ] } },
{ "type": "Feature", "properties": { "name": "Kettle Falls Placer", "lon": -118.06, "lat": 48.6, "commodity": "placer_gold", "mrds_id": "M004325", "lidar_year": 2020, "lidar_res_m": 0.5, "lidar_quality": "HIGH", "topo_year": 1968, "topo_contour_ft": 40, "topo_available": true, "area_ha": 5.5, "depth_m": 3.0, "depth_uncertainty_m": 1.5, "mag_anomaly_nT": 319.1765205139294, "mag_high": true, "th_value_ppm": null, "th_source": null, "th_near": false, "th_local_ppm": 14.1, "th_assign_lab_id": "C226226", "th_assign_dist_km": 5.0869743904476401, "y_value_ppm": null, "y_near": false, "multicommodity_target": false, "priority_score": 1, "rad_K": 1.6768738031387329, "rad_eTh": 7.4188904762268066, "rad_eU": 2.7129886150360107, "rad_eU_eTh": 0.36568657048241221, "rad_K_eTh": 0.2260275722511513, "rad_eTh_high": false, "rad_th_agree": "neither", "source_lith_score": 2.0, "source_lith_desc": "felsic_intrusive(100%)", "tonnage_t": 247500, "ndpr_ppm": 144.0, "ndpr_tonnes": 34.1, "ndpr_t_p10": 10.6, "ndpr_t_p50": 34.1, "ndpr_t_p90": 73.0, "confidence": "MEDIUM", "total_cost_$M": 5.4, "npv_central_$M": -1.8, "breakeven_$/kg": 163.3, "processing_viable": false, "dual_anomaly_flag": false, "has_th_anomaly": false, "score_th": 0, "score_mag": 1, "score_lith": 2.0, "score_conf": 1, "score_ndpr": 1.0218362526616651, "score_au": 0.0, "score_y": 0, "score_ml": 0.325, "combined_score": 6.37, "rank": 9 }, "geometry": { "type": "Point", "coordinates": [ -118.06, 48.6 ] } },
{ "type": "Feature", "properties": { "name": "Republic Gold District", "lon": -118.73, "lat": 48.65, "commodity": "gold_lode", "mrds_id": "M004323", "lidar_year": 2013, "lidar_res_m": 2.0, "lidar_quality": "LOW", "topo_year": 1958, "topo_contour_ft": 40, "topo_available": true, "area_ha": 15.0, "depth_m": 6.0, "depth_uncertainty_m": 2.0, "mag_anomaly_nT": 171.34641571269947, "mag_high": false, "th_value_ppm": null, "th_source": null, "th_near": false, "th_local_ppm": null, "th_assign_lab_id": null, "th_assign_dist_km": null, "y_value_ppm": null, "y_near": false, "multicommodity_target": false, "priority_score": 0, "rad_K": 1.7878005504608154, "rad_eTh": 6.5340843200683594, "rad_eU": 1.7323479652404785, "rad_eU_eTh": 0.26512482551225397, "rad_K_eTh": 0.27361149059094353, "rad_eTh_high": false, "rad_th_agree": "neither", "source_lith_score": 3.0, "source_lith_desc": "MCC_metapelite(100%)", "tonnage_t": 1350000, "ndpr_ppm": 82.0, "ndpr_tonnes": 107.4, "ndpr_t_p10": 51.4, "ndpr_t_p50": 107.4, "ndpr_t_p90": 208.4, "confidence": "LOW", "total_cost_$M": 25.6, "npv_central_$M": -14.3, "breakeven_$/kg": 247.7, "processing_viable": false, "dual_anomaly_flag": false, "has_th_anomaly": false, "score_th": 0, "score_mag": 0, "score_lith": 3.0, "score_conf": 0, "score_ndpr": 1.3540028542423579, "score_au": 0.0, "score_y": 0, "score_ml": 0.225, "combined_score": 5.93, "rank": 10 }, "geometry": { "type": "Point", "coordinates": [ -118.73, 48.65 ] } },
{ "type": "Feature", "properties": { "name": "Northport Placer", "lon": -117.78, "lat": 48.92, "commodity": "placer_gold", "mrds_id": "M004331", "lidar_year": 2019, "lidar_res_m": 1.0, "lidar_quality": "MEDIUM", "topo_year": 1968, "topo_contour_ft": 40, "topo_available": true, "area_ha": 3.5, "depth_m": 3.0, "depth_uncertainty_m": 1.0, "mag_anomaly_nT": 41.921477831342948, "mag_high": false, "th_value_ppm": null, "th_source": null, "th_near": false, "th_local_ppm": 11.0, "th_assign_lab_id": "C178794", "th_assign_dist_km": 11.050652129410198, "y_value_ppm": null, "y_near": false, "multicommodity_target": false, "priority_score": 0, "rad_K": 1.2185646295547485, "rad_eTh": 6.1069517135620117, "rad_eU": 1.4846876859664917, "rad_eU_eTh": 0.24311436467875974, "rad_K_eTh": 0.19953729564434272, "rad_eTh_high": false, "rad_th_agree": "neither", "source_lith_score": 2.0, "source_lith_desc": "felsic_intrusive(100%)", "tonnage_t": 157500, "ndpr_ppm": 112.0, "ndpr_tonnes": 17.0, "ndpr_t_p10": 8.1, "ndpr_t_p50": 17.0, "ndpr_t_p90": 32.7, "confidence": "MEDIUM", "total_cost_$M": 3.2, "npv_central_$M": -1.4, "breakeven_$/kg": 195.2, "processing_viable": false, "dual_anomaly_flag": false, "has_th_anomaly": false, "score_th": 0, "score_mag": 0, "score_lith": 2.0, "score_conf": 1, "score_ndpr": 0.82029928091884929, "score_au": 0.0, "score_y": 0, "score_ml": 0.94, "combined_score": 5.58, "rank": 11 }, "geometry": { "type": "Point", "coordinates": [ -117.78, 48.92 ] } },
{ "type": "Feature", "properties": { "name": "Meyers Creek Placer", "lon": -119.1, "lat": 48.32, "commodity": "placer_gold", "mrds_id": "M004328", "lidar_year": 2016, "lidar_res_m": 1.0, "lidar_quality": "MEDIUM", "topo_year": 1966, "topo_contour_ft": 40, "topo_available": true, "area_ha": 2.8, "depth_m": 2.5, "depth_uncertainty_m": 1.0, "mag_anomaly_nT": 45.418999280968691, "mag_high": false, "th_value_ppm": null, "th_source": null, "th_near": false, "th_local_ppm": 9.0, "th_assign_lab_id": "C165397", "th_assign_dist_km": 8.9750700411176751, "y_value_ppm": null, "y_near": false, "multicommodity_target": false, "priority_score": 0, "rad_K": 1.2498970031738281, "rad_eTh": 4.0431399345397949, "rad_eU": 2.2335958480834961, "rad_eU_eTh": 0.55244089599825641, "rad_K_eTh": 0.3091401790218018, "rad_eTh_high": false, "rad_th_agree": "neither", "source_lith_score": 3.0, "source_lith_desc": "MCC_metapelite(100%)", "tonnage_t": 105000, "ndpr_ppm": 92.0, "ndpr_tonnes": 9.4, "ndpr_t_p10": 4.0, "ndpr_t_p50": 9.4, "ndpr_t_p90": 19.1, "confidence": "MEDIUM", "total_cost_$M": 2.0, "npv_central_$M": -1.1, "breakeven_$/kg": 226.4, "processing_viable": false, "dual_anomaly_flag": false, "has_th_anomaly": false, "score_th": 0, "score_mag": 0, "score_lith": 3.0, "score_conf": 1, "score_ndpr": 0.64875190239979907, "score_au": 0.0, "score_y": 0, "score_ml": 0.17, "combined_score": 5.47, "rank": 12 }, "geometry": { "type": "Point", "coordinates": [ -119.1, 48.32 ] } }
]
}
