{
"type": "FeatureCollection",
"name": "task11_hobby_reports",
"crs": { "type": "name", "properties": { "name": "urn:ogc:def:crs:OGC:1.3:CRS84" } },
"features": [
{ "type": "Feature", "properties": { "report_id": "WA-SIM", "name": "Similkameen at Oroville", "creek_name": "Similkameen River", "lon": -119.4356, "lat": 48.9382, "gold_class": "unknown", "location_precision": "creek", "geom_confidence": 3, "source_type": "pamphlet", "source_cite": "WA DNR Recreational Gold Panning (site 38); USGS GNIS Oroville", "source_url": "https://dnr.wa.gov/sites/default/files/2025-03/ger_gold_panning.pdf", "date_approx": 2025, "hours_or_pans": null, "public_land": "unknown", "notes": "Gazetteer point at Oroville. Not a recovery. Confirm land status.", "block_id": null, "campaign_class": null, "walk_rank": null, "catchment_hit": false, "nearest_pan_pin_m": null, "pin_scored": false }, "geometry": { "type": "Point", "coordinates": [ -119.4356, 48.9382 ] } },
{ "type": "Feature", "properties": { "report_id": "WA-NTH", "name": "Nighthawk", "creek_name": "Similkameen River", "lon": -119.4416, "lat": 48.9682, "gold_class": "unknown", "location_precision": "creek", "geom_confidence": 3, "source_type": "pamphlet", "source_cite": "Huntting 1955 / DNR OFR 79-0 Nighthawk; USGS GNIS Nighthawk", "source_url": "https://dnr.wa.gov/sites/default/files/2025-04/ger_ofr79-0_placer_gold_mining.pdf", "date_approx": 1955, "hours_or_pans": null, "public_land": "unknown", "notes": "Historic placer camp on the Similkameen.", "block_id": null, "campaign_class": null, "walk_rank": null, "catchment_hit": false, "nearest_pan_pin_m": null, "pin_scored": false }, "geometry": { "type": "Point", "coordinates": [ -119.4416, 48.9682 ] } },
{ "type": "Feature", "properties": { "report_id": "WA-MYR", "name": "Myers Creek at Chesaw", "creek_name": "Myers Creek", "lon": -119.0517, "lat": 48.9513, "gold_class": "unknown", "location_precision": "creek", "geom_confidence": 3, "source_type": "pamphlet", "source_cite": "WA DNR pamphlet site 39 Walker (Myers Creek); USGS GNIS Chesaw", "source_url": "https://dnr.wa.gov/sites/default/files/2025-03/ger_gold_panning.pdf", "date_approx": 2025, "hours_or_pans": null, "public_land": "unknown", "notes": "Chesaw cluster with Mary Ann and Deadman Creeks.", "block_id": -2979878.0, "campaign_class": "confirm", "walk_rank": 21.0, "catchment_hit": true, "nearest_pan_pin_m": null, "pin_scored": false }, "geometry": { "type": "Point", "coordinates": [ -119.0517, 48.9513 ] } },
{ "type": "Feature", "properties": { "report_id": "WA-MAR", "name": "Mary Ann Creek", "creek_name": "Mary Ann Creek", "lon": -119.12, "lat": 48.96, "gold_class": "unknown", "location_precision": "creek", "geom_confidence": 2, "source_type": "pamphlet", "source_cite": "WA DNR pamphlet site 39; USGS GNIS Mary Ann Creek", "source_url": "https://dnr.wa.gov/sites/default/files/2025-03/ger_gold_panning.pdf", "date_approx": 2025, "hours_or_pans": null, "public_land": "unknown", "notes": "Reach-scale; point is mid-drainage near Chesaw.", "block_id": -2979878.0, "campaign_class": "confirm", "walk_rank": 21.0, "catchment_hit": true, "nearest_pan_pin_m": null, "pin_scored": false }, "geometry": { "type": "Point", "coordinates": [ -119.12, 48.96 ] } },
{ "type": "Feature", "properties": { "report_id": "WA-DED", "name": "Deadman Creek near Chesaw", "creek_name": "Deadman Creek", "lon": -119.08, "lat": 48.94, "gold_class": "unknown", "location_precision": "creek", "geom_confidence": 2, "source_type": "pamphlet", "source_cite": "WA DNR pamphlet site 39; USGS GNIS Deadman Creek", "source_url": "https://dnr.wa.gov/sites/default/files/2025-03/ger_gold_panning.pdf", "date_approx": 2025, "hours_or_pans": null, "public_land": "unknown", "notes": "Okanogan County Deadman Creek in the Chesaw cluster.", "block_id": -2979878.0, "campaign_class": "confirm", "walk_rank": 21.0, "catchment_hit": true, "nearest_pan_pin_m": null, "pin_scored": false }, "geometry": { "type": "Point", "coordinates": [ -119.08, 48.94 ] } },
{ "type": "Feature", "properties": { "report_id": "WA-TON", "name": "Okanogan at Tonasket", "creek_name": "Okanogan River", "lon": -119.4396, "lat": 48.7052, "gold_class": "unknown", "location_precision": "reach", "geom_confidence": 3, "source_type": "pamphlet", "source_cite": "DNR OFR 79-0 Okanogan County placers; USGS GNIS Tonasket", "source_url": "https://dnr.wa.gov/sites/default/files/2025-04/ger_ofr79-0_placer_gold_mining.pdf", "date_approx": 1979, "hours_or_pans": null, "public_land": "unknown", "notes": "Main-stem reach at Tonasket.", "block_id": null, "campaign_class": null, "walk_rank": null, "catchment_hit": false, "nearest_pan_pin_m": null, "pin_scored": false }, "geometry": { "type": "Point", "coordinates": [ -119.4396, 48.7052 ] } },
{ "type": "Feature", "properties": { "report_id": "WA-CNC", "name": "Conconully", "creek_name": "Salmon Creek", "lon": -119.7506, "lat": 48.5579, "gold_class": "unknown", "location_precision": "district", "geom_confidence": 3, "source_type": "pamphlet", "source_cite": "DNR OFR 79-0; USGS GNIS Conconully", "source_url": "https://dnr.wa.gov/sites/default/files/2025-04/ger_ofr79-0_placer_gold_mining.pdf", "date_approx": 1979, "hours_or_pans": null, "public_land": "unknown", "notes": "District. Mapped; not a catchment hit.", "block_id": null, "campaign_class": null, "walk_rank": null, "catchment_hit": false, "nearest_pan_pin_m": null, "pin_scored": false }, "geometry": { "type": "Point", "coordinates": [ -119.7506, 48.5579 ] } },
{ "type": "Feature", "properties": { "report_id": "WA-REP", "name": "Republic / Sanpoil", "creek_name": "Sanpoil River", "lon": -118.7378, "lat": 48.6482, "gold_class": "unknown", "location_precision": "district", "geom_confidence": 3, "source_type": "pamphlet", "source_cite": "WA DNR pamphlet site 41 Alva Stout (Republic); USGS GNIS Republic", "source_url": "https://dnr.wa.gov/sites/default/files/2025-03/ger_gold_panning.pdf", "date_approx": 2025, "hours_or_pans": null, "public_land": "unknown", "notes": "District. Mapped; not a catchment hit.", "block_id": null, "campaign_class": null, "walk_rank": null, "catchment_hit": false, "nearest_pan_pin_m": null, "pin_scored": false }, "geometry": { "type": "Point", "coordinates": [ -118.7378, 48.6482 ] } },
{ "type": "Feature", "properties": { "report_id": "WA-KEL", "name": "Keller Ferry Columbia", "creek_name": "Columbia River", "lon": -118.6901, "lat": 47.9274, "gold_class": "unknown", "location_precision": "reach", "geom_confidence": 3, "source_type": "pamphlet", "source_cite": "WA DNR pamphlet site 44 Keller Ferry; USGS GNIS Keller Ferry", "source_url": "https://dnr.wa.gov/sites/default/files/2025-03/ger_gold_panning.pdf", "date_approx": 2025, "hours_or_pans": null, "public_land": "unknown", "notes": "Columbia bar district 44. Reservoir/bar access varies.", "block_id": null, "campaign_class": null, "walk_rank": null, "catchment_hit": false, "nearest_pan_pin_m": null, "pin_scored": false }, "geometry": { "type": "Point", "coordinates": [ -118.6901, 47.9274 ] } },
{ "type": "Feature", "properties": { "report_id": "WA-DAY", "name": "Daisy Columbia", "creek_name": "Columbia River", "lon": -118.1819, "lat": 48.3371, "gold_class": "unknown", "location_precision": "reach", "geom_confidence": 3, "source_type": "pamphlet", "source_cite": "WA DNR pamphlet site 46 Daisy; USGS GNIS Daisy", "source_url": "https://dnr.wa.gov/sites/default/files/2025-03/ger_gold_panning.pdf", "date_approx": 2025, "hours_or_pans": null, "public_land": "unknown", "notes": "Columbia bar cluster 46.", "block_id": -2959880.0, "campaign_class": "confirm", "walk_rank": 23.0, "catchment_hit": true, "nearest_pan_pin_m": null, "pin_scored": false }, "geometry": { "type": "Point", "coordinates": [ -118.1819, 48.3371 ] } },
{ "type": "Feature", "properties": { "report_id": "WA-KET", "name": "Kettle Falls", "creek_name": "Columbia River", "lon": -118.0564, "lat": 48.6107, "gold_class": "unknown", "location_precision": "reach", "geom_confidence": 3, "source_type": "pamphlet", "source_cite": "DNR OFR 79-0 Kettle Falls; USGS GNIS Kettle Falls", "source_url": "https://dnr.wa.gov/sites/default/files/2025-04/ger_ofr79-0_placer_gold_mining.pdf", "date_approx": 1979, "hours_or_pans": null, "public_land": "unknown", "notes": "Columbia / Kettle confluence town.", "block_id": -2959880.0, "campaign_class": "confirm", "walk_rank": 23.0, "catchment_hit": true, "nearest_pan_pin_m": null, "pin_scored": false }, "geometry": { "type": "Point", "coordinates": [ -118.0564, 48.6107 ] } },
{ "type": "Feature", "properties": { "report_id": "WA-BOS", "name": "Bossburg Bar", "creek_name": "Columbia River", "lon": -118.0278, "lat": 48.7271, "gold_class": "unknown", "location_precision": "bar", "geom_confidence": 3, "source_type": "pamphlet", "source_cite": "WA DNR pamphlet site 47 Bossburg Bar; USGS GNIS Bossburg", "source_url": "https://dnr.wa.gov/sites/default/files/2025-03/ger_gold_panning.pdf", "date_approx": 2025, "hours_or_pans": null, "public_land": "unknown", "notes": "Named bar. Precision=bar so it can hit a catchment.", "block_id": null, "campaign_class": null, "walk_rank": null, "catchment_hit": false, "nearest_pan_pin_m": null, "pin_scored": false }, "geometry": { "type": "Point", "coordinates": [ -118.0278, 48.7271 ] } },
{ "type": "Feature", "properties": { "report_id": "WA-CHN", "name": "China Bend", "creek_name": "Columbia River", "lon": -118.0, "lat": 48.801, "gold_class": "unknown", "location_precision": "reach", "geom_confidence": 2, "source_type": "pamphlet", "source_cite": "WA DNR pamphlet site 47 China Bend", "source_url": "https://dnr.wa.gov/sites/default/files/2025-03/ger_gold_panning.pdf", "date_approx": 2025, "hours_or_pans": null, "public_land": "unknown", "notes": "Columbia north of Kettle Falls.", "block_id": null, "campaign_class": null, "walk_rank": null, "catchment_hit": false, "nearest_pan_pin_m": null, "pin_scored": false }, "geometry": { "type": "Point", "coordinates": [ -118.0, 48.801 ] } },
{ "type": "Feature", "properties": { "report_id": "WA-EVA", "name": "Evans", "creek_name": "Columbia River", "lon": -118.0464, "lat": 48.701, "gold_class": "unknown", "location_precision": "reach", "geom_confidence": 3, "source_type": "pamphlet", "source_cite": "WA DNR pamphlet site 48 Evans; USGS GNIS Evans", "source_url": "https://dnr.wa.gov/sites/default/files/2025-03/ger_gold_panning.pdf", "date_approx": 2025, "hours_or_pans": null, "public_land": "unknown", "notes": "Columbia bar cluster 48.", "block_id": null, "campaign_class": null, "walk_rank": null, "catchment_hit": false, "nearest_pan_pin_m": null, "pin_scored": false }, "geometry": { "type": "Point", "coordinates": [ -118.0464, 48.701 ] } },
{ "type": "Feature", "properties": { "report_id": "WA-NOR", "name": "Northport Bar", "creek_name": "Columbia River", "lon": -117.7822, "lat": 48.9146, "gold_class": "unknown", "location_precision": "bar", "geom_confidence": 3, "source_type": "pamphlet", "source_cite": "WA DNR pamphlet site 48 Northport Bar; USGS GNIS Northport", "source_url": "https://dnr.wa.gov/sites/default/files/2025-03/ger_gold_panning.pdf", "date_approx": 2025, "hours_or_pans": null, "public_land": "unknown", "notes": "Named bar at Northport.", "block_id": null, "campaign_class": null, "walk_rank": null, "catchment_hit": false, "nearest_pan_pin_m": null, "pin_scored": false }, "geometry": { "type": "Point", "coordinates": [ -117.7822, 48.9146 ] } },
{ "type": "Feature", "properties": { "report_id": "WA-HUN", "name": "Hunters", "creek_name": "Columbia River", "lon": -118.2006, "lat": 48.1168, "gold_class": "unknown", "location_precision": "reach", "geom_confidence": 3, "source_type": "pamphlet", "source_cite": "DNR OFR 79-0 Stevens County Columbia bars; USGS GNIS Hunters", "source_url": "https://dnr.wa.gov/sites/default/files/2025-04/ger_ofr79-0_placer_gold_mining.pdf", "date_approx": 1979, "hours_or_pans": null, "public_land": "unknown", "notes": "Same name as the ranked pile. Gazetteer not a grade.", "block_id": null, "campaign_class": null, "walk_rank": null, "catchment_hit": false, "nearest_pan_pin_m": null, "pin_scored": false }, "geometry": { "type": "Point", "coordinates": [ -118.2006, 48.1168 ] } },
{ "type": "Feature", "properties": { "report_id": "WA-COL", "name": "Colville", "creek_name": "Colville River", "lon": -117.9055, "lat": 48.5466, "gold_class": "unknown", "location_precision": "district", "geom_confidence": 3, "source_type": "pamphlet", "source_cite": "DNR OFR 79-0; USGS GNIS Colville", "source_url": "https://dnr.wa.gov/sites/default/files/2025-04/ger_ofr79-0_placer_gold_mining.pdf", "date_approx": 1979, "hours_or_pans": null, "public_land": "unknown", "notes": "District. Mapped; not a catchment hit.", "block_id": null, "campaign_class": null, "walk_rank": null, "catchment_hit": false, "nearest_pan_pin_m": null, "pin_scored": false }, "geometry": { "type": "Point", "coordinates": [ -117.9055, 48.5466 ] } },
{ "type": "Feature", "properties": { "report_id": "WA-CUR", "name": "Curlew / Kettle River", "creek_name": "Kettle River", "lon": -118.5995, "lat": 48.8854, "gold_class": "unknown", "location_precision": "creek", "geom_confidence": 3, "source_type": "pamphlet", "source_cite": "WA DNR pamphlet site 49 Kettle River; USGS GNIS Curlew", "source_url": "https://dnr.wa.gov/sites/default/files/2025-03/ger_gold_panning.pdf", "date_approx": 2025, "hours_or_pans": null, "public_land": "unknown", "notes": "Kettle River at Curlew.", "block_id": null, "campaign_class": null, "walk_rank": null, "catchment_hit": false, "nearest_pan_pin_m": null, "pin_scored": false }, "geometry": { "type": "Point", "coordinates": [ -118.5995, 48.8854 ] } },
{ "type": "Feature", "properties": { "report_id": "WA-DAN", "name": "Goosmus Creek / Danville", "creek_name": "Goosmus Creek", "lon": -118.5111, "lat": 48.9927, "gold_class": "unknown", "location_precision": "creek", "geom_confidence": 3, "source_type": "pamphlet", "source_cite": "WA DNR pamphlet site 40 Goosmus Creek; USGS GNIS Danville", "source_url": "https://dnr.wa.gov/sites/default/files/2025-03/ger_gold_panning.pdf", "date_approx": 2025, "hours_or_pans": null, "public_land": "unknown", "notes": "Near the Canadian border.", "block_id": null, "campaign_class": null, "walk_rank": null, "catchment_hit": false, "nearest_pan_pin_m": null, "pin_scored": false }, "geometry": { "type": "Point", "coordinates": [ -118.5111, 48.9927 ] } },
{ "type": "Feature", "properties": { "report_id": "WA-WAU", "name": "Wauconda", "creek_name": "Wauconda", "lon": -119.0113, "lat": 48.726, "gold_class": "unknown", "location_precision": "district", "geom_confidence": 3, "source_type": "pamphlet", "source_cite": "DNR OFR 79-0 Wauconda; USGS GNIS Wauconda", "source_url": "https://dnr.wa.gov/sites/default/files/2025-04/ger_ofr79-0_placer_gold_mining.pdf", "date_approx": 1979, "hours_or_pans": null, "public_land": "unknown", "notes": "District. Mapped; not a catchment hit.", "block_id": null, "campaign_class": null, "walk_rank": null, "catchment_hit": false, "nearest_pan_pin_m": null, "pin_scored": false }, "geometry": { "type": "Point", "coordinates": [ -119.0113, 48.726 ] } },
{ "type": "Feature", "properties": { "report_id": "WA-BRE", "name": "Brewster Columbia-Okanogan", "creek_name": "Columbia River", "lon": -119.7806, "lat": 48.0982, "gold_class": "unknown", "location_precision": "reach", "geom_confidence": 3, "source_type": "pamphlet", "source_cite": "DNR OFR 79-0 Columbia River bars; USGS GNIS Brewster", "source_url": "https://dnr.wa.gov/sites/default/files/2025-04/ger_ofr79-0_placer_gold_mining.pdf", "date_approx": 1979, "hours_or_pans": null, "public_land": "unknown", "notes": "Confluence town. Main-stem.", "block_id": null, "campaign_class": null, "walk_rank": null, "catchment_hit": false, "nearest_pan_pin_m": null, "pin_scored": false }, "geometry": { "type": "Point", "coordinates": [ -119.7806, 48.0982 ] } },
{ "type": "Feature", "properties": { "report_id": "WA-PAT", "name": "Methow mouth at Pateros", "creek_name": "Methow River", "lon": -119.9026, "lat": 48.0507, "gold_class": "unknown", "location_precision": "creek", "geom_confidence": 3, "source_type": "pamphlet", "source_cite": "WA DNR pamphlet site 35 Methow River; USGS GNIS Pateros", "source_url": "https://dnr.wa.gov/sites/default/files/2025-03/ger_gold_panning.pdf", "date_approx": 2025, "hours_or_pans": null, "public_land": "unknown", "notes": "Mouth only; Twisp is west of the box.", "block_id": null, "campaign_class": null, "walk_rank": null, "catchment_hit": false, "nearest_pan_pin_m": null, "pin_scored": false }, "geometry": { "type": "Point", "coordinates": [ -119.9026, 48.0507 ] } },
{ "type": "Feature", "properties": { "report_id": "WA-INC", "name": "Inchelium Columbia", "creek_name": "Columbia River", "lon": -118.2808, "lat": 48.3121, "gold_class": "unknown", "location_precision": "reach", "geom_confidence": 3, "source_type": "pamphlet", "source_cite": "WA DNR pamphlet Columbia clusters 45-46; USGS GNIS Inchelium", "source_url": "https://dnr.wa.gov/sites/default/files/2025-03/ger_gold_panning.pdf", "date_approx": 2025, "hours_or_pans": null, "public_land": "unknown", "notes": "West bank Columbia / Sanpoil arm.", "block_id": -2959880.0, "campaign_class": "confirm", "walk_rank": 23.0, "catchment_hit": true, "nearest_pan_pin_m": null, "pin_scored": false }, "geometry": { "type": "Point", "coordinates": [ -118.2808, 48.3121 ] } },
{ "type": "Feature", "properties": { "report_id": "WA-SAN", "name": "Sanpoil at Nespelem", "creek_name": "Sanpoil River", "lon": -118.977, "lat": 48.157, "gold_class": "unknown", "location_precision": "creek", "geom_confidence": 3, "source_type": "pamphlet", "source_cite": "DNR OFR 79-0; USGS GNIS Nespelem", "source_url": "https://dnr.wa.gov/sites/default/files/2025-04/ger_ofr79-0_placer_gold_mining.pdf", "date_approx": 1979, "hours_or_pans": null, "public_land": "unknown", "notes": "Sanpoil drainage south of Republic.", "block_id": -2999880.0, "campaign_class": "confirm", "walk_rank": 15.0, "catchment_hit": true, "nearest_pan_pin_m": null, "pin_scored": false }, "geometry": { "type": "Point", "coordinates": [ -118.977, 48.157 ] } }
]
}
