{
"type": "FeatureCollection",
"name": "task11_spatial_cv_blocks_0p4deg",
"crs": { "type": "name", "properties": { "name": "urn:ogc:def:crs:OGC:1.3:CRS84" } },
"features": [
{ "type": "Feature", "properties": { "block_id": -3009882, "lon_min": -120.4, "lon_max": -120.0, "lat_min": 47.2, "lat_max": 47.6, "n_nure": 0, "mean_p": null, "max_p": null, "loco_auc": null, "campaign_class": "skip", "walk_rank": null, "spatial_flag": "no_nure" }, "geometry": { "type": "Polygon", "coordinates": [ [ [ -120.0, 47.2 ], [ -120.0, 47.6 ], [ -120.4, 47.6 ], [ -120.4, 47.2 ], [ -120.0, 47.2 ] ] ] } },
{ "type": "Feature", "properties": { "block_id": -3009881, "lon_min": -120.4, "lon_max": -120.0, "lat_min": 47.6, "lat_max": 48.0, "n_nure": 0, "mean_p": null, "max_p": null, "loco_auc": null, "campaign_class": "skip", "walk_rank": null, "spatial_flag": "no_nure" }, "geometry": { "type": "Polygon", "coordinates": [ [ [ -120.0, 47.6 ], [ -120.0, 48.0 ], [ -120.4, 48.0 ], [ -120.4, 47.6 ], [ -120.0, 47.6 ] ] ] } },
{ "type": "Feature", "properties": { "block_id": -3009880, "lon_min": -120.4, "lon_max": -120.0, "lat_min": 48.0, "lat_max": 48.4, "n_nure": 0, "mean_p": null, "max_p": null, "loco_auc": null, "campaign_class": "skip", "walk_rank": null, "spatial_flag": "no_nure" }, "geometry": { "type": "Polygon", "coordinates": [ [ [ -120.0, 48.0 ], [ -120.0, 48.4 ], [ -120.4, 48.4 ], [ -120.4, 48.0 ], [ -120.0, 48.0 ] ] ] } },
{ "type": "Feature", "properties": { "block_id": -3009879, "lon_min": -120.4, "lon_max": -120.0, "lat_min": 48.4, "lat_max": 48.8, "n_nure": 0, "mean_p": null, "max_p": null, "loco_auc": null, "campaign_class": "skip", "walk_rank": null, "spatial_flag": "no_nure" }, "geometry": { "type": "Polygon", "coordinates": [ [ [ -120.0, 48.4 ], [ -120.0, 48.8 ], [ -120.4, 48.8 ], [ -120.4, 48.4 ], [ -120.0, 48.4 ] ] ] } },
{ "type": "Feature", "properties": { "block_id": -3009878, "lon_min": -120.4, "lon_max": -120.0, "lat_min": 48.8, "lat_max": 49.2, "n_nure": 0, "mean_p": null, "max_p": null, "loco_auc": null, "campaign_class": "skip", "walk_rank": null, "spatial_flag": "no_nure" }, "geometry": { "type": "Polygon", "coordinates": [ [ [ -120.0, 48.8 ], [ -120.0, 49.2 ], [ -120.4, 49.2 ], [ -120.4, 48.8 ], [ -120.0, 48.8 ] ] ] } },
{ "type": "Feature", "properties": { "block_id": -2999882, "lon_min": -120.0, "lon_max": -119.6, "lat_min": 47.2, "lat_max": 47.6, "n_nure": 1, "mean_p": 0.145, "max_p": 0.145, "loco_auc": null, "campaign_class": "skip", "walk_rank": 29, "spatial_flag": "far_from_known_gold" }, "geometry": { "type": "Polygon", "coordinates": [ [ [ -119.6, 47.2 ], [ -119.6, 47.6 ], [ -120.0, 47.6 ], [ -120.0, 47.2 ], [ -119.6, 47.2 ] ] ] } },
{ "type": "Feature", "properties": { "block_id": -2999881, "lon_min": -120.0, "lon_max": -119.6, "lat_min": 47.6, "lat_max": 48.0, "n_nure": 3, "mean_p": 0.135, "max_p": 0.195, "loco_auc": null, "campaign_class": "skip", "walk_rank": 37, "spatial_flag": "far_from_known_gold" }, "geometry": { "type": "Polygon", "coordinates": [ [ [ -119.6, 47.6 ], [ -119.6, 48.0 ], [ -120.0, 48.0 ], [ -120.0, 47.6 ], [ -119.6, 47.6 ] ] ] } },
{ "type": "Feature", "properties": { "block_id": -2999880, "lon_min": -120.0, "lon_max": -119.6, "lat_min": 48.0, "lat_max": 48.4, "n_nure": 7, "mean_p": 0.5736, "max_p": 0.97, "loco_auc": 0.75, "campaign_class": "confirm", "walk_rank": 15, "spatial_flag": "near_known_gold" }, "geometry": { "type": "Polygon", "coordinates": [ [ [ -119.6, 48.0 ], [ -119.6, 48.4 ], [ -120.0, 48.4 ], [ -120.0, 48.0 ], [ -119.6, 48.0 ] ] ] } },
{ "type": "Feature", "properties": { "block_id": -2999879, "lon_min": -120.0, "lon_max": -119.6, "lat_min": 48.4, "lat_max": 48.8, "n_nure": 3, "mean_p": 0.5783, "max_p": 0.885, "loco_auc": null, "campaign_class": "confirm", "walk_rank": 16, "spatial_flag": "near_known_gold" }, "geometry": { "type": "Polygon", "coordinates": [ [ [ -119.6, 48.4 ], [ -119.6, 48.8 ], [ -120.0, 48.8 ], [ -120.0, 48.4 ], [ -119.6, 48.4 ] ] ] } },
{ "type": "Feature", "properties": { "block_id": -2999878, "lon_min": -120.0, "lon_max": -119.6, "lat_min": 48.8, "lat_max": 49.2, "n_nure": 5, "mean_p": 0.399, "max_p": 0.73, "loco_auc": 0.0, "campaign_class": "confirm", "walk_rank": 19, "spatial_flag": "near_known_gold" }, "geometry": { "type": "Polygon", "coordinates": [ [ [ -119.6, 48.8 ], [ -119.6, 49.2 ], [ -120.0, 49.2 ], [ -120.0, 48.8 ], [ -119.6, 48.8 ] ] ] } },
{ "type": "Feature", "properties": { "block_id": -2989882, "lon_min": -119.6, "lon_max": -119.2, "lat_min": 47.2, "lat_max": 47.6, "n_nure": 3, "mean_p": 0.1433, "max_p": 0.21, "loco_auc": null, "campaign_class": "skip", "walk_rank": 30, "spatial_flag": "far_from_known_gold" }, "geometry": { "type": "Polygon", "coordinates": [ [ [ -119.2, 47.2 ], [ -119.2, 47.6 ], [ -119.6, 47.6 ], [ -119.6, 47.2 ], [ -119.2, 47.2 ] ] ] } },
{ "type": "Feature", "properties": { "block_id": -2989881, "lon_min": -119.6, "lon_max": -119.2, "lat_min": 47.6, "lat_max": 48.0, "n_nure": 8, "mean_p": 0.0794, "max_p": 0.175, "loco_auc": null, "campaign_class": "skip", "walk_rank": 33, "spatial_flag": "far_from_known_gold" }, "geometry": { "type": "Polygon", "coordinates": [ [ [ -119.2, 47.6 ], [ -119.2, 48.0 ], [ -119.6, 48.0 ], [ -119.6, 47.6 ], [ -119.2, 47.6 ] ] ] } },
{ "type": "Feature", "properties": { "block_id": -2989880, "lon_min": -119.6, "lon_max": -119.2, "lat_min": 48.0, "lat_max": 48.4, "n_nure": 3, "mean_p": 0.4, "max_p": 0.875, "loco_auc": null, "campaign_class": "confirm", "walk_rank": 11, "spatial_flag": "near_known_gold" }, "geometry": { "type": "Polygon", "coordinates": [ [ [ -119.2, 48.0 ], [ -119.2, 48.4 ], [ -119.6, 48.4 ], [ -119.6, 48.0 ], [ -119.2, 48.0 ] ] ] } },
{ "type": "Feature", "properties": { "block_id": -2989879, "lon_min": -119.6, "lon_max": -119.2, "lat_min": 48.4, "lat_max": 48.8, "n_nure": 6, "mean_p": 0.7542, "max_p": 0.95, "loco_auc": 0.8, "campaign_class": "confirm", "walk_rank": 14, "spatial_flag": "near_known_gold" }, "geometry": { "type": "Polygon", "coordinates": [ [ [ -119.2, 48.4 ], [ -119.2, 48.8 ], [ -119.6, 48.8 ], [ -119.6, 48.4 ], [ -119.2, 48.4 ] ] ] } },
{ "type": "Feature", "properties": { "block_id": -2989878, "lon_min": -119.6, "lon_max": -119.2, "lat_min": 48.8, "lat_max": 49.2, "n_nure": 5, "mean_p": 0.604, "max_p": 0.92, "loco_auc": 0.5, "campaign_class": "confirm", "walk_rank": 28, "spatial_flag": "near_known_gold" }, "geometry": { "type": "Polygon", "coordinates": [ [ [ -119.2, 48.8 ], [ -119.2, 49.2 ], [ -119.6, 49.2 ], [ -119.6, 48.8 ], [ -119.2, 48.8 ] ] ] } },
{ "type": "Feature", "properties": { "block_id": -2979882, "lon_min": -119.2, "lon_max": -118.8, "lat_min": 47.2, "lat_max": 47.6, "n_nure": 1, "mean_p": 0.185, "max_p": 0.185, "loco_auc": null, "campaign_class": "skip", "walk_rank": 34, "spatial_flag": "far_from_known_gold" }, "geometry": { "type": "Polygon", "coordinates": [ [ [ -118.8, 47.2 ], [ -118.8, 47.6 ], [ -119.2, 47.6 ], [ -119.2, 47.2 ], [ -118.8, 47.2 ] ] ] } },
{ "type": "Feature", "properties": { "block_id": -2979881, "lon_min": -119.2, "lon_max": -118.8, "lat_min": 47.6, "lat_max": 48.0, "n_nure": 12, "mean_p": 0.4704, "max_p": 0.94, "loco_auc": 0.3429, "campaign_class": "expedition", "walk_rank": 5, "spatial_flag": "near_known_gold" }, "geometry": { "type": "Polygon", "coordinates": [ [ [ -118.8, 47.6 ], [ -118.8, 48.0 ], [ -119.2, 48.0 ], [ -119.2, 47.6 ], [ -118.8, 47.6 ] ] ] } },
{ "type": "Feature", "properties": { "block_id": -2979880, "lon_min": -119.2, "lon_max": -118.8, "lat_min": 48.0, "lat_max": 48.4, "n_nure": 15, "mean_p": 0.8695, "max_p": 0.975, "loco_auc": 0.9286, "campaign_class": "expedition", "walk_rank": 7, "spatial_flag": "near_known_gold" }, "geometry": { "type": "Polygon", "coordinates": [ [ [ -118.8, 48.0 ], [ -118.8, 48.4 ], [ -119.2, 48.4 ], [ -119.2, 48.0 ], [ -118.8, 48.0 ] ] ] } },
{ "type": "Feature", "properties": { "block_id": -2979879, "lon_min": -119.2, "lon_max": -118.8, "lat_min": 48.4, "lat_max": 48.8, "n_nure": 7, "mean_p": 0.8571, "max_p": 0.9817, "loco_auc": 1.0, "campaign_class": "confirm", "walk_rank": 12, "spatial_flag": "near_known_gold" }, "geometry": { "type": "Polygon", "coordinates": [ [ [ -118.8, 48.4 ], [ -118.8, 48.8 ], [ -119.2, 48.8 ], [ -119.2, 48.4 ], [ -118.8, 48.4 ] ] ] } },
{ "type": "Feature", "properties": { "block_id": -2979878, "lon_min": -119.2, "lon_max": -118.8, "lat_min": 48.8, "lat_max": 49.2, "n_nure": 9, "mean_p": 0.5406, "max_p": 0.925, "loco_auc": 0.4, "campaign_class": "confirm", "walk_rank": 21, "spatial_flag": "near_known_gold" }, "geometry": { "type": "Polygon", "coordinates": [ [ [ -118.8, 48.8 ], [ -118.8, 49.2 ], [ -119.2, 49.2 ], [ -119.2, 48.8 ], [ -118.8, 48.8 ] ] ] } },
{ "type": "Feature", "properties": { "block_id": -2969882, "lon_min": -118.8, "lon_max": -118.4, "lat_min": 47.2, "lat_max": 47.6, "n_nure": 2, "mean_p": 0.0575, "max_p": 0.085, "loco_auc": null, "campaign_class": "skip", "walk_rank": 32, "spatial_flag": "far_from_known_gold" }, "geometry": { "type": "Polygon", "coordinates": [ [ [ -118.4, 47.2 ], [ -118.4, 47.6 ], [ -118.8, 47.6 ], [ -118.8, 47.2 ], [ -118.4, 47.2 ] ] ] } },
{ "type": "Feature", "properties": { "block_id": -2969881, "lon_min": -118.8, "lon_max": -118.4, "lat_min": 47.6, "lat_max": 48.0, "n_nure": 19, "mean_p": 0.895, "max_p": 0.9905, "loco_auc": 1.0, "campaign_class": "confirm", "walk_rank": 17, "spatial_flag": "near_known_gold" }, "geometry": { "type": "Polygon", "coordinates": [ [ [ -118.4, 47.6 ], [ -118.4, 48.0 ], [ -118.8, 48.0 ], [ -118.8, 47.6 ], [ -118.4, 47.6 ] ] ] } },
{ "type": "Feature", "properties": { "block_id": -2969880, "lon_min": -118.8, "lon_max": -118.4, "lat_min": 48.0, "lat_max": 48.4, "n_nure": 4, "mean_p": 0.72, "max_p": 0.925, "loco_auc": null, "campaign_class": "expedition", "walk_rank": 4, "spatial_flag": "near_known_gold" }, "geometry": { "type": "Polygon", "coordinates": [ [ [ -118.4, 48.0 ], [ -118.4, 48.4 ], [ -118.8, 48.4 ], [ -118.8, 48.0 ], [ -118.4, 48.0 ] ] ] } },
{ "type": "Feature", "properties": { "block_id": -2969879, "lon_min": -118.8, "lon_max": -118.4, "lat_min": 48.4, "lat_max": 48.8, "n_nure": 6, "mean_p": 0.7158, "max_p": 0.935, "loco_auc": 0.2, "campaign_class": "confirm", "walk_rank": 26, "spatial_flag": "near_known_gold" }, "geometry": { "type": "Polygon", "coordinates": [ [ [ -118.4, 48.4 ], [ -118.4, 48.8 ], [ -118.8, 48.8 ], [ -118.8, 48.4 ], [ -118.4, 48.4 ] ] ] } },
{ "type": "Feature", "properties": { "block_id": -2969878, "lon_min": -118.8, "lon_max": -118.4, "lat_min": 48.8, "lat_max": 49.2, "n_nure": 3, "mean_p": 0.4405, "max_p": 0.9, "loco_auc": null, "campaign_class": "confirm", "walk_rank": 22, "spatial_flag": "near_known_gold" }, "geometry": { "type": "Polygon", "coordinates": [ [ [ -118.4, 48.8 ], [ -118.4, 49.2 ], [ -118.8, 49.2 ], [ -118.8, 48.8 ], [ -118.4, 48.8 ] ] ] } },
{ "type": "Feature", "properties": { "block_id": -2959882, "lon_min": -118.4, "lon_max": -117.99999999999997, "lat_min": 47.2, "lat_max": 47.6, "n_nure": 2, "mean_p": 0.4318, "max_p": 0.705, "loco_auc": null, "campaign_class": "expedition", "walk_rank": 2, "spatial_flag": "near_known_gold" }, "geometry": { "type": "Polygon", "coordinates": [ [ [ -118.0, 47.2 ], [ -118.0, 47.6 ], [ -118.4, 47.6 ], [ -118.4, 47.2 ], [ -118.0, 47.2 ] ] ] } },
{ "type": "Feature", "properties": { "block_id": -2959881, "lon_min": -118.4, "lon_max": -117.99999999999997, "lat_min": 47.6, "lat_max": 48.0, "n_nure": 70, "mean_p": 0.6031, "max_p": 0.9362, "loco_auc": 0.8029, "campaign_class": "confirm", "walk_rank": 20, "spatial_flag": "near_known_gold" }, "geometry": { "type": "Polygon", "coordinates": [ [ [ -118.0, 47.6 ], [ -118.0, 48.0 ], [ -118.4, 48.0 ], [ -118.4, 47.6 ], [ -118.0, 47.6 ] ] ] } },
{ "type": "Feature", "properties": { "block_id": -2959880, "lon_min": -118.4, "lon_max": -117.99999999999997, "lat_min": 48.0, "lat_max": 48.4, "n_nure": 30, "mean_p": 0.9481, "max_p": 0.9754, "loco_auc": null, "campaign_class": "confirm", "walk_rank": 23, "spatial_flag": "near_known_gold" }, "geometry": { "type": "Polygon", "coordinates": [ [ [ -118.0, 48.0 ], [ -118.0, 48.4 ], [ -118.4, 48.4 ], [ -118.4, 48.0 ], [ -118.0, 48.0 ] ] ] } },
{ "type": "Feature", "properties": { "block_id": -2959879, "lon_min": -118.4, "lon_max": -117.99999999999997, "lat_min": 48.4, "lat_max": 48.8, "n_nure": 22, "mean_p": 0.89, "max_p": 0.9717, "loco_auc": 0.25, "campaign_class": "confirm", "walk_rank": 27, "spatial_flag": "near_known_gold" }, "geometry": { "type": "Polygon", "coordinates": [ [ [ -118.0, 48.4 ], [ -118.0, 48.8 ], [ -118.4, 48.8 ], [ -118.4, 48.4 ], [ -118.0, 48.4 ] ] ] } },
{ "type": "Feature", "properties": { "block_id": -2959878, "lon_min": -118.4, "lon_max": -117.99999999999997, "lat_min": 48.8, "lat_max": 49.2, "n_nure": 1, "mean_p": 0.84, "max_p": 0.84, "loco_auc": null, "campaign_class": "confirm", "walk_rank": 25, "spatial_flag": "near_known_gold" }, "geometry": { "type": "Polygon", "coordinates": [ [ [ -118.0, 48.8 ], [ -118.0, 49.2 ], [ -118.4, 49.2 ], [ -118.4, 48.8 ], [ -118.0, 48.8 ] ] ] } },
{ "type": "Feature", "properties": { "block_id": -2949882, "lon_min": -117.99999999999997, "lon_max": -117.6, "lat_min": 47.2, "lat_max": 47.6, "n_nure": 1, "mean_p": 0.27, "max_p": 0.27, "loco_auc": null, "campaign_class": "skip", "walk_rank": 31, "spatial_flag": "far_from_known_gold" }, "geometry": { "type": "Polygon", "coordinates": [ [ [ -117.6, 47.2 ], [ -117.6, 47.6 ], [ -118.0, 47.6 ], [ -118.0, 47.2 ], [ -117.6, 47.2 ] ] ] } },
{ "type": "Feature", "properties": { "block_id": -2949881, "lon_min": -117.99999999999997, "lon_max": -117.6, "lat_min": 47.6, "lat_max": 48.0, "n_nure": 17, "mean_p": 0.0629, "max_p": 0.195, "loco_auc": null, "campaign_class": "skip", "walk_rank": 38, "spatial_flag": "far_from_known_gold" }, "geometry": { "type": "Polygon", "coordinates": [ [ [ -117.6, 47.6 ], [ -117.6, 48.0 ], [ -118.0, 48.0 ], [ -118.0, 47.6 ], [ -117.6, 47.6 ] ] ] } },
{ "type": "Feature", "properties": { "block_id": -2949880, "lon_min": -117.99999999999997, "lon_max": -117.6, "lat_min": 48.0, "lat_max": 48.4, "n_nure": 10, "mean_p": 0.7525, "max_p": 0.845, "loco_auc": 0.5556, "campaign_class": "expedition", "walk_rank": 3, "spatial_flag": "near_known_gold" }, "geometry": { "type": "Polygon", "coordinates": [ [ [ -117.6, 48.0 ], [ -117.6, 48.4 ], [ -118.0, 48.4 ], [ -118.0, 48.0 ], [ -117.6, 48.0 ] ] ] } },
{ "type": "Feature", "properties": { "block_id": -2949879, "lon_min": -117.99999999999997, "lon_max": -117.6, "lat_min": 48.4, "lat_max": 48.8, "n_nure": 5, "mean_p": 0.91, "max_p": 0.935, "loco_auc": null, "campaign_class": "expedition", "walk_rank": 6, "spatial_flag": "near_known_gold" }, "geometry": { "type": "Polygon", "coordinates": [ [ [ -117.6, 48.4 ], [ -117.6, 48.8 ], [ -118.0, 48.8 ], [ -118.0, 48.4 ], [ -117.6, 48.4 ] ] ] } },
{ "type": "Feature", "properties": { "block_id": -2949878, "lon_min": -117.99999999999997, "lon_max": -117.6, "lat_min": 48.8, "lat_max": 49.2, "n_nure": 3, "mean_p": 0.5017, "max_p": 0.94, "loco_auc": null, "campaign_class": "confirm", "walk_rank": 13, "spatial_flag": "near_known_gold" }, "geometry": { "type": "Polygon", "coordinates": [ [ [ -117.6, 48.8 ], [ -117.6, 49.2 ], [ -118.0, 49.2 ], [ -118.0, 48.8 ], [ -117.6, 48.8 ] ] ] } },
{ "type": "Feature", "properties": { "block_id": -2939882, "lon_min": -117.6, "lon_max": -117.2, "lat_min": 47.2, "lat_max": 47.6, "n_nure": 0, "mean_p": null, "max_p": null, "loco_auc": null, "campaign_class": "skip", "walk_rank": null, "spatial_flag": "no_nure" }, "geometry": { "type": "Polygon", "coordinates": [ [ [ -117.2, 47.2 ], [ -117.2, 47.6 ], [ -117.6, 47.6 ], [ -117.6, 47.2 ], [ -117.2, 47.2 ] ] ] } },
{ "type": "Feature", "properties": { "block_id": -2939881, "lon_min": -117.6, "lon_max": -117.2, "lat_min": 47.6, "lat_max": 48.0, "n_nure": 10, "mean_p": 0.1105, "max_p": 0.305, "loco_auc": null, "campaign_class": "skip", "walk_rank": 36, "spatial_flag": "far_from_known_gold" }, "geometry": { "type": "Polygon", "coordinates": [ [ [ -117.2, 47.6 ], [ -117.2, 48.0 ], [ -117.6, 48.0 ], [ -117.6, 47.6 ], [ -117.2, 47.6 ] ] ] } },
{ "type": "Feature", "properties": { "block_id": -2939880, "lon_min": -117.6, "lon_max": -117.2, "lat_min": 48.0, "lat_max": 48.4, "n_nure": 5, "mean_p": 0.799, "max_p": 0.94, "loco_auc": 1.0, "campaign_class": "expedition", "walk_rank": 1, "spatial_flag": "near_known_gold" }, "geometry": { "type": "Polygon", "coordinates": [ [ [ -117.2, 48.0 ], [ -117.2, 48.4 ], [ -117.6, 48.4 ], [ -117.6, 48.0 ], [ -117.2, 48.0 ] ] ] } },
{ "type": "Feature", "properties": { "block_id": -2939879, "lon_min": -117.6, "lon_max": -117.2, "lat_min": 48.4, "lat_max": 48.8, "n_nure": 600, "mean_p": 0.0701, "max_p": 0.955, "loco_auc": 0.6446, "campaign_class": "expedition", "walk_rank": 9, "spatial_flag": "near_known_gold" }, "geometry": { "type": "Polygon", "coordinates": [ [ [ -117.2, 48.4 ], [ -117.2, 48.8 ], [ -117.6, 48.8 ], [ -117.6, 48.4 ], [ -117.2, 48.4 ] ] ] } },
{ "type": "Feature", "properties": { "block_id": -2939878, "lon_min": -117.6, "lon_max": -117.2, "lat_min": 48.8, "lat_max": 49.2, "n_nure": 24, "mean_p": 0.6542, "max_p": 0.9634, "loco_auc": 0.3368, "campaign_class": "confirm", "walk_rank": 18, "spatial_flag": "near_known_gold" }, "geometry": { "type": "Polygon", "coordinates": [ [ [ -117.2, 48.8 ], [ -117.2, 49.2 ], [ -117.6, 49.2 ], [ -117.6, 48.8 ], [ -117.2, 48.8 ] ] ] } },
{ "type": "Feature", "properties": { "block_id": -2929882, "lon_min": -117.2, "lon_max": -116.8, "lat_min": 47.2, "lat_max": 47.6, "n_nure": 0, "mean_p": null, "max_p": null, "loco_auc": null, "campaign_class": "skip", "walk_rank": null, "spatial_flag": "no_nure" }, "geometry": { "type": "Polygon", "coordinates": [ [ [ -116.8, 47.2 ], [ -116.8, 47.6 ], [ -117.2, 47.6 ], [ -117.2, 47.2 ], [ -116.8, 47.2 ] ] ] } },
{ "type": "Feature", "properties": { "block_id": -2929881, "lon_min": -117.2, "lon_max": -116.8, "lat_min": 47.6, "lat_max": 48.0, "n_nure": 8, "mean_p": 0.0581, "max_p": 0.195, "loco_auc": null, "campaign_class": "skip", "walk_rank": 35, "spatial_flag": "far_from_known_gold" }, "geometry": { "type": "Polygon", "coordinates": [ [ [ -116.8, 47.6 ], [ -116.8, 48.0 ], [ -117.2, 48.0 ], [ -117.2, 47.6 ], [ -116.8, 47.6 ] ] ] } },
{ "type": "Feature", "properties": { "block_id": -2929880, "lon_min": -117.2, "lon_max": -116.8, "lat_min": 48.0, "lat_max": 48.4, "n_nure": 2, "mean_p": 0.865, "max_p": 0.92, "loco_auc": null, "campaign_class": "expedition", "walk_rank": 10, "spatial_flag": "near_known_gold" }, "geometry": { "type": "Polygon", "coordinates": [ [ [ -116.8, 48.0 ], [ -116.8, 48.4 ], [ -117.2, 48.4 ], [ -117.2, 48.0 ], [ -116.8, 48.0 ] ] ] } },
{ "type": "Feature", "properties": { "block_id": -2929879, "lon_min": -117.2, "lon_max": -116.8, "lat_min": 48.4, "lat_max": 48.8, "n_nure": 52, "mean_p": 0.4568, "max_p": 0.95, "loco_auc": 0.3815, "campaign_class": "expedition", "walk_rank": 8, "spatial_flag": "near_known_gold" }, "geometry": { "type": "Polygon", "coordinates": [ [ [ -116.8, 48.4 ], [ -116.8, 48.8 ], [ -117.2, 48.8 ], [ -117.2, 48.4 ], [ -116.8, 48.4 ] ] ] } },
{ "type": "Feature", "properties": { "block_id": -2929878, "lon_min": -117.2, "lon_max": -116.8, "lat_min": 48.8, "lat_max": 49.2, "n_nure": 61, "mean_p": 0.3465, "max_p": 0.948, "loco_auc": 0.4993, "campaign_class": "confirm", "walk_rank": 24, "spatial_flag": "near_known_gold" }, "geometry": { "type": "Polygon", "coordinates": [ [ [ -116.8, 48.8 ], [ -116.8, 49.2 ], [ -117.2, 49.2 ], [ -117.2, 48.8 ], [ -116.8, 48.8 ] ] ] } }
]
}
