{
"type": "FeatureCollection",
"name": "task11_field_campaign_targets",
"crs": { "type": "name", "properties": { "name": "urn:ogc:def:crs:OGC:1.3:CRS84" } },
"features": [
{ "type": "Feature", "properties": { "walk_rank": 1, "block_id": -2939880, "campaign_class": "expedition", "spot_order": 1, "role": "pour_point", "lon": -117.484115, "lat": 48.070729, "p_anomalous": 0.94, "elev_m": 743.6 }, "geometry": { "type": "Point", "coordinates": [ -117.484115, 48.070729 ] } },
{ "type": "Feature", "properties": { "walk_rank": 2, "block_id": -2959882, "campaign_class": "expedition", "spot_order": 1, "role": "pour_point", "lon": -118.127468, "lat": 47.533767, "p_anomalous": 0.705, "elev_m": 689.9 }, "geometry": { "type": "Point", "coordinates": [ -118.127468, 47.533767 ] } },
{ "type": "Feature", "properties": { "walk_rank": 3, "block_id": -2949880, "campaign_class": "expedition", "spot_order": 1, "role": "high_p_sample", "lon": -117.626075, "lat": 48.374902, "p_anomalous": 0.8064, "elev_m": 1067.0 }, "geometry": { "type": "Point", "coordinates": [ -117.626075, 48.374902 ] } },
{ "type": "Feature", "properties": { "walk_rank": 3, "block_id": -2949880, "campaign_class": "expedition", "spot_order": 2, "role": "high_p_sample", "lon": -117.618019, "lat": 48.383236, "p_anomalous": 0.845, "elev_m": 908.0 }, "geometry": { "type": "Point", "coordinates": [ -117.618019, 48.383236 ] } },
{ "type": "Feature", "properties": { "walk_rank": 3, "block_id": -2949880, "campaign_class": "expedition", "spot_order": 3, "role": "pour_point", "lon": -117.830521, "lat": 48.073225, "p_anomalous": 0.81, "elev_m": 709.6 }, "geometry": { "type": "Point", "coordinates": [ -117.830521, 48.073225 ] } },
{ "type": "Feature", "properties": { "walk_rank": 4, "block_id": -2969880, "campaign_class": "expedition", "spot_order": 1, "role": "high_p_sample", "lon": -118.469176, "lat": 48.351, "p_anomalous": 0.88, "elev_m": 1037.7 }, "geometry": { "type": "Point", "coordinates": [ -118.469176, 48.351 ] } },
{ "type": "Feature", "properties": { "walk_rank": 4, "block_id": -2969880, "campaign_class": "expedition", "spot_order": 2, "role": "pour_point", "lon": -118.632795, "lat": 48.355997, "p_anomalous": 0.925, "elev_m": 963.0 }, "geometry": { "type": "Point", "coordinates": [ -118.632795, 48.355997 ] } },
{ "type": "Feature", "properties": { "walk_rank": 4, "block_id": -2969880, "campaign_class": "expedition", "spot_order": 3, "role": "high_p_sample", "lon": -118.52806, "lat": 48.066549, "p_anomalous": 0.855, "elev_m": 724.5 }, "geometry": { "type": "Point", "coordinates": [ -118.52806, 48.066549 ] } },
{ "type": "Feature", "properties": { "walk_rank": 5, "block_id": -2979881, "campaign_class": "expedition", "spot_order": 1, "role": "high_p_sample", "lon": -118.952239, "lat": 47.860984, "p_anomalous": 0.805, "elev_m": 745.9 }, "geometry": { "type": "Point", "coordinates": [ -118.952239, 47.860984 ] } },
{ "type": "Feature", "properties": { "walk_rank": 5, "block_id": -2979881, "campaign_class": "expedition", "spot_order": 2, "role": "high_p_sample", "lon": -119.05391, "lat": 47.830149, "p_anomalous": 0.72, "elev_m": 719.6 }, "geometry": { "type": "Point", "coordinates": [ -119.05391, 47.830149 ] } },
{ "type": "Feature", "properties": { "walk_rank": 5, "block_id": -2979881, "campaign_class": "expedition", "spot_order": 3, "role": "pour_point", "lon": -118.912229, "lat": 47.941815, "p_anomalous": 0.94, "elev_m": 384.0 }, "geometry": { "type": "Point", "coordinates": [ -118.912229, 47.941815 ] } },
{ "type": "Feature", "properties": { "walk_rank": 6, "block_id": -2949879, "campaign_class": "expedition", "spot_order": 1, "role": "high_p_sample", "lon": -117.794424, "lat": 48.599905, "p_anomalous": 0.93, "elev_m": 759.7 }, "geometry": { "type": "Point", "coordinates": [ -117.794424, 48.599905 ] } },
{ "type": "Feature", "properties": { "walk_rank": 6, "block_id": -2949879, "campaign_class": "expedition", "spot_order": 2, "role": "pour_point", "lon": -117.828309, "lat": 48.434067, "p_anomalous": 0.935, "elev_m": 631.6 }, "geometry": { "type": "Point", "coordinates": [ -117.828309, 48.434067 ] } },
{ "type": "Feature", "properties": { "walk_rank": 6, "block_id": -2949879, "campaign_class": "expedition", "spot_order": 3, "role": "high_p_sample", "lon": -117.848031, "lat": 48.406289, "p_anomalous": 0.8975, "elev_m": 512.4 }, "geometry": { "type": "Point", "coordinates": [ -117.848031, 48.406289 ] } },
{ "type": "Feature", "properties": { "walk_rank": 7, "block_id": -2979880, "campaign_class": "expedition", "spot_order": 1, "role": "high_p_sample", "lon": -118.912239, "lat": 48.394321, "p_anomalous": 0.9533, "elev_m": 1067.2 }, "geometry": { "type": "Point", "coordinates": [ -118.912239, 48.394321 ] } },
{ "type": "Feature", "properties": { "walk_rank": 7, "block_id": -2979880, "campaign_class": "expedition", "spot_order": 2, "role": "high_p_sample", "lon": -118.912234, "lat": 48.154879, "p_anomalous": 0.94, "elev_m": 677.5 }, "geometry": { "type": "Point", "coordinates": [ -118.912234, 48.154879 ] } },
{ "type": "Feature", "properties": { "walk_rank": 7, "block_id": -2979880, "campaign_class": "expedition", "spot_order": 3, "role": "pour_point", "lon": -119.177243, "lat": 48.137675, "p_anomalous": 0.975, "elev_m": 324.6 }, "geometry": { "type": "Point", "coordinates": [ -119.177243, 48.137675 ] } },
{ "type": "Feature", "properties": { "walk_rank": 8, "block_id": -2929879, "campaign_class": "expedition", "spot_order": 1, "role": "high_p_sample", "lon": -117.086063, "lat": 48.734365, "p_anomalous": 0.925, "elev_m": 1101.5 }, "geometry": { "type": "Point", "coordinates": [ -117.086063, 48.734365 ] } },
{ "type": "Feature", "properties": { "walk_rank": 8, "block_id": -2929879, "campaign_class": "expedition", "spot_order": 2, "role": "high_p_sample", "lon": -117.056618, "lat": 48.742977, "p_anomalous": 0.95, "elev_m": 1015.2 }, "geometry": { "type": "Point", "coordinates": [ -117.056618, 48.742977 ] } },
{ "type": "Feature", "properties": { "walk_rank": 8, "block_id": -2929879, "campaign_class": "expedition", "spot_order": 3, "role": "high_p_sample", "lon": -117.061339, "lat": 48.719921, "p_anomalous": 0.95, "elev_m": 970.0 }, "geometry": { "type": "Point", "coordinates": [ -117.061339, 48.719921 ] } },
{ "type": "Feature", "properties": { "walk_rank": 8, "block_id": -2929879, "campaign_class": "expedition", "spot_order": 4, "role": "pour_point", "lon": -117.04356, "lat": 48.70881, "p_anomalous": 0.93, "elev_m": 943.8 }, "geometry": { "type": "Point", "coordinates": [ -117.04356, 48.70881 ] } },
{ "type": "Feature", "properties": { "walk_rank": 9, "block_id": -2939879, "campaign_class": "expedition", "spot_order": 1, "role": "pour_point", "lon": -117.398565, "lat": 48.467963, "p_anomalous": 0.89, "elev_m": 836.2 }, "geometry": { "type": "Point", "coordinates": [ -117.398565, 48.467963 ] } },
{ "type": "Feature", "properties": { "walk_rank": 10, "block_id": -2929880, "campaign_class": "expedition", "spot_order": 1, "role": "high_p_sample", "lon": -117.106872, "lat": 48.083513, "p_anomalous": 0.81, "elev_m": 776.2 }, "geometry": { "type": "Point", "coordinates": [ -117.106872, 48.083513 ] } },
{ "type": "Feature", "properties": { "walk_rank": 10, "block_id": -2929880, "campaign_class": "expedition", "spot_order": 2, "role": "pour_point", "lon": -117.175766, "lat": 48.225738, "p_anomalous": 0.92, "elev_m": 630.2 }, "geometry": { "type": "Point", "coordinates": [ -117.175766, 48.225738 ] } },
{ "type": "Feature", "properties": { "walk_rank": 11, "block_id": -2989880, "campaign_class": "confirm", "spot_order": 1, "role": "pour_point", "lon": -119.300871, "lat": 48.202652, "p_anomalous": 0.875, "elev_m": 417.7 }, "geometry": { "type": "Point", "coordinates": [ -119.300871, 48.202652 ] } },
{ "type": "Feature", "properties": { "walk_rank": 12, "block_id": -2979879, "campaign_class": "confirm", "spot_order": 1, "role": "high_p_sample", "lon": -119.176986, "lat": 48.557935, "p_anomalous": 0.275, "elev_m": 1297.6 }, "geometry": { "type": "Point", "coordinates": [ -119.176986, 48.557935 ] } },
{ "type": "Feature", "properties": { "walk_rank": 12, "block_id": -2979879, "campaign_class": "confirm", "spot_order": 2, "role": "pour_point", "lon": -119.175043, "lat": 48.593213, "p_anomalous": 0.93, "elev_m": 1104.6 }, "geometry": { "type": "Point", "coordinates": [ -119.175043, 48.593213 ] } },
{ "type": "Feature", "properties": { "walk_rank": 13, "block_id": -2949878, "campaign_class": "confirm", "spot_order": 1, "role": "pour_point", "lon": -117.965268, "lat": 48.874909, "p_anomalous": 0.29, "elev_m": 602.9 }, "geometry": { "type": "Point", "coordinates": [ -117.965268, 48.874909 ] } },
{ "type": "Feature", "properties": { "walk_rank": 14, "block_id": -2989879, "campaign_class": "confirm", "spot_order": 1, "role": "high_p_sample", "lon": -119.237829, "lat": 48.734602, "p_anomalous": 0.95, "elev_m": 1035.4 }, "geometry": { "type": "Point", "coordinates": [ -119.237829, 48.734602 ] } },
{ "type": "Feature", "properties": { "walk_rank": 14, "block_id": -2989879, "campaign_class": "confirm", "spot_order": 2, "role": "high_p_sample", "lon": -119.587008, "lat": 48.659317, "p_anomalous": 0.8975, "elev_m": 654.2 }, "geometry": { "type": "Point", "coordinates": [ -119.587008, 48.659317 ] } },
{ "type": "Feature", "properties": { "walk_rank": 14, "block_id": -2989879, "campaign_class": "confirm", "spot_order": 3, "role": "pour_point", "lon": -119.549497, "lat": 48.438207, "p_anomalous": 0.835, "elev_m": 394.7 }, "geometry": { "type": "Point", "coordinates": [ -119.549497, 48.438207 ] } },
{ "type": "Feature", "properties": { "walk_rank": 15, "block_id": -2999880, "campaign_class": "confirm", "spot_order": 1, "role": "high_p_sample", "lon": -118.912234, "lat": 48.154879, "p_anomalous": 0.94, "elev_m": 677.5 }, "geometry": { "type": "Point", "coordinates": [ -118.912234, 48.154879 ] } },
{ "type": "Feature", "properties": { "walk_rank": 15, "block_id": -2999880, "campaign_class": "confirm", "spot_order": 2, "role": "pour_point", "lon": -119.656441, "lat": 48.016534, "p_anomalous": 0.97, "elev_m": 386.7 }, "geometry": { "type": "Point", "coordinates": [ -119.656441, 48.016534 ] } },
{ "type": "Feature", "properties": { "walk_rank": 15, "block_id": -2999880, "campaign_class": "confirm", "spot_order": 3, "role": "high_p_sample", "lon": -118.912229, "lat": 47.941815, "p_anomalous": 0.94, "elev_m": 384.0 }, "geometry": { "type": "Point", "coordinates": [ -118.912229, 47.941815 ] } },
{ "type": "Feature", "properties": { "walk_rank": 15, "block_id": -2999880, "campaign_class": "confirm", "spot_order": 4, "role": "high_p_sample", "lon": -119.177243, "lat": 48.137675, "p_anomalous": 0.975, "elev_m": 324.6 }, "geometry": { "type": "Point", "coordinates": [ -119.177243, 48.137675 ] } },
{ "type": "Feature", "properties": { "walk_rank": 16, "block_id": -2999879, "campaign_class": "confirm", "spot_order": 1, "role": "high_p_sample", "lon": -119.873959, "lat": 48.437925, "p_anomalous": 0.885, "elev_m": 1482.3 }, "geometry": { "type": "Point", "coordinates": [ -119.873959, 48.437925 ] } },
{ "type": "Feature", "properties": { "walk_rank": 16, "block_id": -2999879, "campaign_class": "confirm", "spot_order": 2, "role": "pour_point", "lon": -119.762295, "lat": 48.691815, "p_anomalous": 0.735, "elev_m": 943.7 }, "geometry": { "type": "Point", "coordinates": [ -119.762295, 48.691815 ] } },
{ "type": "Feature", "properties": { "walk_rank": 17, "block_id": -2969881, "campaign_class": "confirm", "spot_order": 1, "role": "high_p_sample", "lon": -118.660563, "lat": 47.954045, "p_anomalous": 0.95, "elev_m": 420.6 }, "geometry": { "type": "Point", "coordinates": [ -118.660563, 47.954045 ] } },
{ "type": "Feature", "properties": { "walk_rank": 17, "block_id": -2969881, "campaign_class": "confirm", "spot_order": 2, "role": "pour_point", "lon": -118.542012, "lat": 47.894879, "p_anomalous": 0.9905, "elev_m": 384.0 }, "geometry": { "type": "Point", "coordinates": [ -118.542012, 47.894879 ] } },
{ "type": "Feature", "properties": { "walk_rank": 17, "block_id": -2969881, "campaign_class": "confirm", "spot_order": 3, "role": "high_p_sample", "lon": -118.541912, "lat": 47.894879, "p_anomalous": 0.905, "elev_m": 384.0 }, "geometry": { "type": "Point", "coordinates": [ -118.541912, 47.894879 ] } },
{ "type": "Feature", "properties": { "walk_rank": 18, "block_id": -2939878, "campaign_class": "confirm", "spot_order": 1, "role": "high_p_sample", "lon": -117.147459, "lat": 48.839646, "p_anomalous": 0.87, "elev_m": 1325.3 }, "geometry": { "type": "Point", "coordinates": [ -117.147459, 48.839646 ] } },
{ "type": "Feature", "properties": { "walk_rank": 18, "block_id": -2939878, "campaign_class": "confirm", "spot_order": 2, "role": "high_p_sample", "lon": -117.116904, "lat": 48.876315, "p_anomalous": 0.948, "elev_m": 1141.1 }, "geometry": { "type": "Point", "coordinates": [ -117.116904, 48.876315 ] } },
{ "type": "Feature", "properties": { "walk_rank": 18, "block_id": -2939878, "campaign_class": "confirm", "spot_order": 3, "role": "high_p_sample", "lon": -117.286629, "lat": 48.769642, "p_anomalous": 0.88, "elev_m": 933.9 }, "geometry": { "type": "Point", "coordinates": [ -117.286629, 48.769642 ] } },
{ "type": "Feature", "properties": { "walk_rank": 18, "block_id": -2939878, "campaign_class": "confirm", "spot_order": 4, "role": "pour_point", "lon": -117.292742, "lat": 48.856867, "p_anomalous": 0.8528, "elev_m": 801.6 }, "geometry": { "type": "Point", "coordinates": [ -117.292742, 48.856867 ] } },
{ "type": "Feature", "properties": { "walk_rank": 19, "block_id": -2999878, "campaign_class": "confirm", "spot_order": 1, "role": "high_p_sample", "lon": -119.83147, "lat": 48.914042, "p_anomalous": 0.73, "elev_m": 1516.7 }, "geometry": { "type": "Point", "coordinates": [ -119.83147, 48.914042 ] } },
{ "type": "Feature", "properties": { "walk_rank": 19, "block_id": -2999878, "campaign_class": "confirm", "spot_order": 2, "role": "pour_point", "lon": -119.733966, "lat": 48.851263, "p_anomalous": 0.72, "elev_m": 866.5 }, "geometry": { "type": "Point", "coordinates": [ -119.733966, 48.851263 ] } },
{ "type": "Feature", "properties": { "walk_rank": 20, "block_id": -2959881, "campaign_class": "confirm", "spot_order": 1, "role": "high_p_sample", "lon": -118.070253, "lat": 47.951273, "p_anomalous": 0.84, "elev_m": 898.2 }, "geometry": { "type": "Point", "coordinates": [ -118.070253, 47.951273 ] } },
{ "type": "Feature", "properties": { "walk_rank": 20, "block_id": -2959881, "campaign_class": "confirm", "spot_order": 2, "role": "high_p_sample", "lon": -118.317488, "lat": 47.91377, "p_anomalous": 0.865, "elev_m": 471.8 }, "geometry": { "type": "Point", "coordinates": [ -118.317488, 47.91377 ] } },
{ "type": "Feature", "properties": { "walk_rank": 20, "block_id": -2959881, "campaign_class": "confirm", "spot_order": 3, "role": "pour_point", "lon": -118.353003, "lat": 47.954882, "p_anomalous": 0.9362, "elev_m": 384.0 }, "geometry": { "type": "Point", "coordinates": [ -118.353003, 47.954882 ] } },
{ "type": "Feature", "properties": { "walk_rank": 21, "block_id": -2979878, "campaign_class": "confirm", "spot_order": 1, "role": "high_p_sample", "lon": -118.912249, "lat": 48.819329, "p_anomalous": 0.8967, "elev_m": 993.9 }, "geometry": { "type": "Point", "coordinates": [ -118.912249, 48.819329 ] } },
{ "type": "Feature", "properties": { "walk_rank": 21, "block_id": -2979878, "campaign_class": "confirm", "spot_order": 2, "role": "pour_point", "lon": -119.025597, "lat": 48.972401, "p_anomalous": 0.925, "elev_m": 927.2 }, "geometry": { "type": "Point", "coordinates": [ -119.025597, 48.972401 ] } },
{ "type": "Feature", "properties": { "walk_rank": 21, "block_id": -2979878, "campaign_class": "confirm", "spot_order": 3, "role": "high_p_sample", "lon": -118.865549, "lat": 48.896993, "p_anomalous": 0.845, "elev_m": 718.7 }, "geometry": { "type": "Point", "coordinates": [ -118.865549, 48.896993 ] } },
{ "type": "Feature", "properties": { "walk_rank": 22, "block_id": -2969878, "campaign_class": "confirm", "spot_order": 1, "role": "pour_point", "lon": -118.673919, "lat": 48.85878, "p_anomalous": 0.9, "elev_m": 887.2 }, "geometry": { "type": "Point", "coordinates": [ -118.673919, 48.85878 ] } },
{ "type": "Feature", "properties": { "walk_rank": 23, "block_id": -2959880, "campaign_class": "confirm", "spot_order": 1, "role": "high_p_sample", "lon": -117.794424, "lat": 48.599905, "p_anomalous": 0.93, "elev_m": 759.7 }, "geometry": { "type": "Point", "coordinates": [ -117.794424, 48.599905 ] } },
{ "type": "Feature", "properties": { "walk_rank": 23, "block_id": -2959880, "campaign_class": "confirm", "spot_order": 2, "role": "high_p_sample", "lon": -118.268333, "lat": 48.433505, "p_anomalous": 0.905, "elev_m": 676.0 }, "geometry": { "type": "Point", "coordinates": [ -118.268333, 48.433505 ] } },
{ "type": "Feature", "properties": { "walk_rank": 23, "block_id": -2959880, "campaign_class": "confirm", "spot_order": 3, "role": "high_p_sample", "lon": -118.181907, "lat": 48.507098, "p_anomalous": 0.9717, "elev_m": 390.0 }, "geometry": { "type": "Point", "coordinates": [ -118.181907, 48.507098 ] } },
{ "type": "Feature", "properties": { "walk_rank": 23, "block_id": -2959880, "campaign_class": "confirm", "spot_order": 4, "role": "pour_point", "lon": -118.193, "lat": 48.194289, "p_anomalous": 0.9754, "elev_m": 388.5 }, "geometry": { "type": "Point", "coordinates": [ -118.193, 48.194289 ] } },
{ "type": "Feature", "properties": { "walk_rank": 24, "block_id": -2929878, "campaign_class": "confirm", "spot_order": 1, "role": "high_p_sample", "lon": -117.147459, "lat": 48.839646, "p_anomalous": 0.87, "elev_m": 1325.3 }, "geometry": { "type": "Point", "coordinates": [ -117.147459, 48.839646 ] } },
{ "type": "Feature", "properties": { "walk_rank": 24, "block_id": -2929878, "campaign_class": "confirm", "spot_order": 2, "role": "high_p_sample", "lon": -117.101904, "lat": 48.884371, "p_anomalous": 0.865, "elev_m": 1225.4 }, "geometry": { "type": "Point", "coordinates": [ -117.101904, 48.884371 ] } },
{ "type": "Feature", "properties": { "walk_rank": 24, "block_id": -2929878, "campaign_class": "confirm", "spot_order": 3, "role": "high_p_sample", "lon": -117.116904, "lat": 48.876315, "p_anomalous": 0.948, "elev_m": 1141.1 }, "geometry": { "type": "Point", "coordinates": [ -117.116904, 48.876315 ] } },
{ "type": "Feature", "properties": { "walk_rank": 24, "block_id": -2929878, "campaign_class": "confirm", "spot_order": 4, "role": "pour_point", "lon": -117.187739, "lat": 48.840757, "p_anomalous": 0.86, "elev_m": 1016.9 }, "geometry": { "type": "Point", "coordinates": [ -117.187739, 48.840757 ] } },
{ "type": "Feature", "properties": { "walk_rank": 25, "block_id": -2959878, "campaign_class": "confirm", "spot_order": 1, "role": "pour_point", "lon": -118.038882, "lat": 48.85713, "p_anomalous": 0.84, "elev_m": 863.4 }, "geometry": { "type": "Point", "coordinates": [ -118.038882, 48.85713 ] } },
{ "type": "Feature", "properties": { "walk_rank": 26, "block_id": -2969879, "campaign_class": "confirm", "spot_order": 1, "role": "high_p_sample", "lon": -118.924478, "lat": 48.58266, "p_anomalous": 0.885, "elev_m": 1131.2 }, "geometry": { "type": "Point", "coordinates": [ -118.924478, 48.58266 ] } },
{ "type": "Feature", "properties": { "walk_rank": 26, "block_id": -2969879, "campaign_class": "confirm", "spot_order": 2, "role": "high_p_sample", "lon": -118.912239, "lat": 48.394321, "p_anomalous": 0.9533, "elev_m": 1067.2 }, "geometry": { "type": "Point", "coordinates": [ -118.912239, 48.394321 ] } },
{ "type": "Feature", "properties": { "walk_rank": 26, "block_id": -2969879, "campaign_class": "confirm", "spot_order": 3, "role": "high_p_sample", "lon": -118.882805, "lat": 48.370992, "p_anomalous": 0.8442, "elev_m": 985.8 }, "geometry": { "type": "Point", "coordinates": [ -118.882805, 48.370992 ] } },
{ "type": "Feature", "properties": { "walk_rank": 26, "block_id": -2969879, "campaign_class": "confirm", "spot_order": 4, "role": "pour_point", "lon": -118.779193, "lat": 48.458772, "p_anomalous": 0.785, "elev_m": 630.9 }, "geometry": { "type": "Point", "coordinates": [ -118.779193, 48.458772 ] } },
{ "type": "Feature", "properties": { "walk_rank": 27, "block_id": -2959879, "campaign_class": "confirm", "spot_order": 1, "role": "high_p_sample", "lon": -118.268333, "lat": 48.433505, "p_anomalous": 0.905, "elev_m": 676.0 }, "geometry": { "type": "Point", "coordinates": [ -118.268333, 48.433505 ] } },
{ "type": "Feature", "properties": { "walk_rank": 27, "block_id": -2959879, "campaign_class": "confirm", "spot_order": 2, "role": "high_p_sample", "lon": -118.010265, "lat": 48.717961, "p_anomalous": 0.945, "elev_m": 591.1 }, "geometry": { "type": "Point", "coordinates": [ -118.010265, 48.717961 ] } },
{ "type": "Feature", "properties": { "walk_rank": 27, "block_id": -2959879, "campaign_class": "confirm", "spot_order": 3, "role": "pour_point", "lon": -118.181907, "lat": 48.507098, "p_anomalous": 0.9717, "elev_m": 390.0 }, "geometry": { "type": "Point", "coordinates": [ -118.181907, 48.507098 ] } },
{ "type": "Feature", "properties": { "walk_rank": 28, "block_id": -2989878, "campaign_class": "confirm", "spot_order": 1, "role": "high_p_sample", "lon": -119.534515, "lat": 48.866543, "p_anomalous": 0.835, "elev_m": 786.9 }, "geometry": { "type": "Point", "coordinates": [ -119.534515, 48.866543 ] } },
{ "type": "Feature", "properties": { "walk_rank": 28, "block_id": -2989878, "campaign_class": "confirm", "spot_order": 2, "role": "pour_point", "lon": -119.517847, "lat": 48.849876, "p_anomalous": 0.92, "elev_m": 700.2 }, "geometry": { "type": "Point", "coordinates": [ -119.517847, 48.849876 ] } },
{ "type": "Feature", "properties": { "walk_rank": 29, "block_id": -2999882, "campaign_class": "skip", "spot_order": 1, "role": "pour_point", "lon": -119.975336, "lat": 47.537353, "p_anomalous": 0.145, "elev_m": 628.3 }, "geometry": { "type": "Point", "coordinates": [ -119.975336, 47.537353 ] } },
{ "type": "Feature", "properties": { "walk_rank": 30, "block_id": -2989882, "campaign_class": "skip", "spot_order": 1, "role": "pour_point", "lon": -119.326972, "lat": 47.519588, "p_anomalous": 0.21, "elev_m": 416.8 }, "geometry": { "type": "Point", "coordinates": [ -119.326972, 47.519588 ] } },
{ "type": "Feature", "properties": { "walk_rank": 31, "block_id": -2949882, "campaign_class": "skip", "spot_order": 1, "role": "pour_point", "lon": -117.732993, "lat": 47.522107, "p_anomalous": 0.27, "elev_m": 738.1 }, "geometry": { "type": "Point", "coordinates": [ -117.732993, 47.522107 ] } },
{ "type": "Feature", "properties": { "walk_rank": 32, "block_id": -2969882, "campaign_class": "skip", "spot_order": 1, "role": "pour_point", "lon": -118.616381, "lat": 47.507927, "p_anomalous": 0.085, "elev_m": 633.4 }, "geometry": { "type": "Point", "coordinates": [ -118.616381, 47.507927 ] } },
{ "type": "Feature", "properties": { "walk_rank": 32, "block_id": -2969882, "campaign_class": "skip", "spot_order": 2, "role": "high_p_sample", "lon": -118.782502, "lat": 47.565148, "p_anomalous": 0.03, "elev_m": 588.2 }, "geometry": { "type": "Point", "coordinates": [ -118.782502, 47.565148 ] } },
{ "type": "Feature", "properties": { "walk_rank": 33, "block_id": -2989881, "campaign_class": "skip", "spot_order": 1, "role": "pour_point", "lon": -119.242803, "lat": 47.611534, "p_anomalous": 0.075, "elev_m": 541.7 }, "geometry": { "type": "Point", "coordinates": [ -119.242803, 47.611534 ] } },
{ "type": "Feature", "properties": { "walk_rank": 34, "block_id": -2979882, "campaign_class": "skip", "spot_order": 1, "role": "pour_point", "lon": -118.984178, "lat": 47.560425, "p_anomalous": 0.185, "elev_m": 469.7 }, "geometry": { "type": "Point", "coordinates": [ -118.984178, 47.560425 ] } },
{ "type": "Feature", "properties": { "walk_rank": 35, "block_id": -2929881, "campaign_class": "skip", "spot_order": 1, "role": "high_p_sample", "lon": -117.126039, "lat": 47.874899, "p_anomalous": 0.0386, "elev_m": 1051.6 }, "geometry": { "type": "Point", "coordinates": [ -117.126039, 47.874899 ] } },
{ "type": "Feature", "properties": { "walk_rank": 35, "block_id": -2929881, "campaign_class": "skip", "spot_order": 2, "role": "pour_point", "lon": -117.112706, "lat": 47.75462, "p_anomalous": 0.195, "elev_m": 741.6 }, "geometry": { "type": "Point", "coordinates": [ -117.112706, 47.75462 ] } },
{ "type": "Feature", "properties": { "walk_rank": 36, "block_id": -2939881, "campaign_class": "skip", "spot_order": 1, "role": "high_p_sample", "lon": -117.106872, "lat": 48.083513, "p_anomalous": 0.81, "elev_m": 776.2 }, "geometry": { "type": "Point", "coordinates": [ -117.106872, 48.083513 ] } },
{ "type": "Feature", "properties": { "walk_rank": 36, "block_id": -2939881, "campaign_class": "skip", "spot_order": 2, "role": "high_p_sample", "lon": -117.484115, "lat": 48.070729, "p_anomalous": 0.94, "elev_m": 743.6 }, "geometry": { "type": "Point", "coordinates": [ -117.484115, 48.070729 ] } },
{ "type": "Feature", "properties": { "walk_rank": 36, "block_id": -2939881, "campaign_class": "skip", "spot_order": 3, "role": "pour_point", "lon": -117.491889, "lat": 47.784612, "p_anomalous": 0.305, "elev_m": 486.9 }, "geometry": { "type": "Point", "coordinates": [ -117.491889, 47.784612 ] } },
{ "type": "Feature", "properties": { "walk_rank": 37, "block_id": -2999881, "campaign_class": "skip", "spot_order": 1, "role": "pour_point", "lon": -119.898118, "lat": 47.831805, "p_anomalous": 0.12, "elev_m": 681.8 }, "geometry": { "type": "Point", "coordinates": [ -119.898118, 47.831805 ] } },
{ "type": "Feature", "properties": { "walk_rank": 38, "block_id": -2949881, "campaign_class": "skip", "spot_order": 1, "role": "high_p_sample", "lon": -117.680507, "lat": 47.871279, "p_anomalous": 0.145, "elev_m": 540.3 }, "geometry": { "type": "Point", "coordinates": [ -117.680507, 47.871279 ] } },
{ "type": "Feature", "properties": { "walk_rank": 38, "block_id": -2949881, "campaign_class": "skip", "spot_order": 2, "role": "pour_point", "lon": -117.84357, "lat": 47.826831, "p_anomalous": 0.195, "elev_m": 522.5 }, "geometry": { "type": "Point", "coordinates": [ -117.84357, 47.826831 ] } }
]
}
