{
"type": "FeatureCollection",
"name": "task11_pour_points",
"crs": { "type": "name", "properties": { "name": "urn:ogc:def:crs:OGC:1.3:CRS84" } },
"features": [
{ "type": "Feature", "properties": { "block_id": -2999882, "name": "block_-2999882", "lon": -119.97533629, "lat": 47.53735306, "p_anomalous": 0.145, "elev_m": 628.28082275390625, "nearest_gold_deg": 0.53115276082604101, "spatial_flag": "far_from_known_gold", "campaign_class": "skip", "walk_rank": 29 }, "geometry": { "type": "Point", "coordinates": [ -119.97533629, 47.53735306 ] } },
{ "type": "Feature", "properties": { "block_id": -2999881, "name": "block_-2999881", "lon": -119.8981183, "lat": 47.83180539, "p_anomalous": 0.12, "elev_m": 681.79425048828125, "nearest_gold_deg": 0.25500796910399059, "spatial_flag": "far_from_known_gold", "campaign_class": "skip", "walk_rank": 37 }, "geometry": { "type": "Point", "coordinates": [ -119.8981183, 47.83180539 ] } },
{ "type": "Feature", "properties": { "block_id": -2999880, "name": "block_-2999880", "lon": -119.65644112, "lat": 48.01653363, "p_anomalous": 0.97, "elev_m": 386.67031860351562, "nearest_gold_deg": 0.030915089044540225, "spatial_flag": "near_known_gold", "campaign_class": "confirm", "walk_rank": 15 }, "geometry": { "type": "Point", "coordinates": [ -119.65644112, 48.01653363 ] } },
{ "type": "Feature", "properties": { "block_id": -2999879, "name": "block_-2999879", "lon": -119.76229546, "lat": 48.691815, "p_anomalous": 0.735, "elev_m": 943.736572265625, "nearest_gold_deg": 0.030482405810756417, "spatial_flag": "near_known_gold", "campaign_class": "confirm", "walk_rank": 16 }, "geometry": { "type": "Point", "coordinates": [ -119.76229546, 48.691815 ] } },
{ "type": "Feature", "properties": { "block_id": -2999878, "name": "block_-2999878", "lon": -119.73396564, "lat": 48.85126282, "p_anomalous": 0.72, "elev_m": 866.5032958984375, "nearest_gold_deg": 0.020444391009807619, "spatial_flag": "near_known_gold", "campaign_class": "confirm", "walk_rank": 19 }, "geometry": { "type": "Point", "coordinates": [ -119.73396564, 48.85126282 ] } },
{ "type": "Feature", "properties": { "block_id": -2989882, "name": "block_-2989882", "lon": -119.32697239, "lat": 47.51958832, "p_anomalous": 0.21, "elev_m": 416.77957153320312, "nearest_gold_deg": 0.50433366767223553, "spatial_flag": "far_from_known_gold", "campaign_class": "skip", "walk_rank": 30 }, "geometry": { "type": "Point", "coordinates": [ -119.32697239, 47.51958832 ] } },
{ "type": "Feature", "properties": { "block_id": -2989881, "name": "block_-2989881", "lon": -119.24280299, "lat": 47.61153426, "p_anomalous": 0.075, "elev_m": 541.68890380859375, "nearest_gold_deg": 0.38017257676545441, "spatial_flag": "far_from_known_gold", "campaign_class": "skip", "walk_rank": 33 }, "geometry": { "type": "Point", "coordinates": [ -119.24280299, 47.61153426 ] } },
{ "type": "Feature", "properties": { "block_id": -2989880, "name": "block_-2989880", "lon": -119.30087124000001, "lat": 48.20265215, "p_anomalous": 0.875, "elev_m": 417.6707763671875, "nearest_gold_deg": 0.045368478964594429, "spatial_flag": "near_known_gold", "campaign_class": "confirm", "walk_rank": 11 }, "geometry": { "type": "Point", "coordinates": [ -119.30087124, 48.20265215 ] } },
{ "type": "Feature", "properties": { "block_id": -2989879, "name": "block_-2989879", "lon": -119.54949654000001, "lat": 48.43820738, "p_anomalous": 0.835, "elev_m": 394.65798950195312, "nearest_gold_deg": 0.036684352054187845, "spatial_flag": "near_known_gold", "campaign_class": "confirm", "walk_rank": 14 }, "geometry": { "type": "Point", "coordinates": [ -119.54949654, 48.43820738 ] } },
{ "type": "Feature", "properties": { "block_id": -2989878, "name": "block_-2989878", "lon": -119.51784693, "lat": 48.8498758, "p_anomalous": 0.92, "elev_m": 700.2408447265625, "nearest_gold_deg": 0.0039480374700510109, "spatial_flag": "near_known_gold", "campaign_class": "confirm", "walk_rank": 28 }, "geometry": { "type": "Point", "coordinates": [ -119.51784693, 48.8498758 ] } },
{ "type": "Feature", "properties": { "block_id": -2979882, "name": "block_-2979882", "lon": -118.98417822, "lat": 47.56042506, "p_anomalous": 0.185, "elev_m": 469.65780639648438, "nearest_gold_deg": 0.35774467530959841, "spatial_flag": "far_from_known_gold", "campaign_class": "skip", "walk_rank": 34 }, "geometry": { "type": "Point", "coordinates": [ -118.98417822, 47.56042506 ] } },
{ "type": "Feature", "properties": { "block_id": -2979881, "name": "block_-2979881", "lon": -118.91222898, "lat": 47.94181499, "p_anomalous": 0.94, "elev_m": 384.0, "nearest_gold_deg": 0.090954381710496759, "spatial_flag": "near_known_gold", "campaign_class": "expedition", "walk_rank": 5 }, "geometry": { "type": "Point", "coordinates": [ -118.91222898, 47.94181499 ] } },
{ "type": "Feature", "properties": { "block_id": -2979880, "name": "block_-2979880", "lon": -119.17724297, "lat": 48.13767484, "p_anomalous": 0.975, "elev_m": 324.621337890625, "nearest_gold_deg": 0.060221521756325884, "spatial_flag": "near_known_gold", "campaign_class": "expedition", "walk_rank": 7 }, "geometry": { "type": "Point", "coordinates": [ -119.17724297, 48.13767484 ] } },
{ "type": "Feature", "properties": { "block_id": -2979879, "name": "block_-2979879", "lon": -119.17504272, "lat": 48.59321308, "p_anomalous": 0.93, "elev_m": 1104.5853271484375, "nearest_gold_deg": 0.040852008333558849, "spatial_flag": "near_known_gold", "campaign_class": "confirm", "walk_rank": 12 }, "geometry": { "type": "Point", "coordinates": [ -119.17504272, 48.59321308 ] } },
{ "type": "Feature", "properties": { "block_id": -2979878, "name": "block_-2979878", "lon": -119.02559742, "lat": 48.97240121, "p_anomalous": 0.925, "elev_m": 927.1575927734375, "nearest_gold_deg": 0.013316338495264844, "spatial_flag": "near_known_gold", "campaign_class": "confirm", "walk_rank": 21 }, "geometry": { "type": "Point", "coordinates": [ -119.02559742, 48.97240121 ] } },
{ "type": "Feature", "properties": { "block_id": -2969882, "name": "block_-2969882", "lon": -118.61638111000001, "lat": 47.50792672, "p_anomalous": 0.085, "elev_m": 633.387451171875, "nearest_gold_deg": 0.38025829431978309, "spatial_flag": "far_from_known_gold", "campaign_class": "skip", "walk_rank": 32 }, "geometry": { "type": "Point", "coordinates": [ -118.61638111, 47.50792672 ] } },
{ "type": "Feature", "properties": { "block_id": -2969881, "name": "block_-2969881", "lon": -118.54201177, "lat": 47.89487864, "p_anomalous": 0.9905, "elev_m": 384.0, "nearest_gold_deg": 0.028138217459219378, "spatial_flag": "near_known_gold", "campaign_class": "confirm", "walk_rank": 17 }, "geometry": { "type": "Point", "coordinates": [ -118.54201177, 47.89487864 ] } },
{ "type": "Feature", "properties": { "block_id": -2969880, "name": "block_-2969880", "lon": -118.63279511, "lat": 48.35599669, "p_anomalous": 0.925, "elev_m": 963.0244140625, "nearest_gold_deg": 0.093371004241510736, "spatial_flag": "near_known_gold", "campaign_class": "expedition", "walk_rank": 4 }, "geometry": { "type": "Point", "coordinates": [ -118.63279511, 48.35599669 ] } },
{ "type": "Feature", "properties": { "block_id": -2969879, "name": "block_-2969879", "lon": -118.77919339, "lat": 48.45877154, "p_anomalous": 0.785, "elev_m": 630.9183349609375, "nearest_gold_deg": 0.0061752019613791559, "spatial_flag": "near_known_gold", "campaign_class": "confirm", "walk_rank": 26 }, "geometry": { "type": "Point", "coordinates": [ -118.77919339, 48.45877154 ] } },
{ "type": "Feature", "properties": { "block_id": -2969878, "name": "block_-2969878", "lon": -118.67391878, "lat": 48.85878038, "p_anomalous": 0.9, "elev_m": 887.22796630859375, "nearest_gold_deg": 0.010702541438029827, "spatial_flag": "near_known_gold", "campaign_class": "confirm", "walk_rank": 22 }, "geometry": { "type": "Point", "coordinates": [ -118.67391878, 48.85878038 ] } },
{ "type": "Feature", "properties": { "block_id": -2959882, "name": "block_-2959882", "lon": -118.12746808, "lat": 47.53376662, "p_anomalous": 0.705, "elev_m": 689.90704345703125, "nearest_gold_deg": 0.12913965808809949, "spatial_flag": "near_known_gold", "campaign_class": "expedition", "walk_rank": 2 }, "geometry": { "type": "Point", "coordinates": [ -118.12746808, 47.53376662 ] } },
{ "type": "Feature", "properties": { "block_id": -2959881, "name": "block_-2959881", "lon": -118.3530025, "lat": 47.95488154, "p_anomalous": 0.93624647282542017, "elev_m": 384.0, "nearest_gold_deg": 0.014009988444739064, "spatial_flag": "near_known_gold", "campaign_class": "confirm", "walk_rank": 20 }, "geometry": { "type": "Point", "coordinates": [ -118.3530025, 47.95488154 ] } },
{ "type": "Feature", "properties": { "block_id": -2959880, "name": "block_-2959880", "lon": -118.19299988, "lat": 48.19428928, "p_anomalous": 0.97543478260869565, "elev_m": 388.5, "nearest_gold_deg": 0.010065571048520018, "spatial_flag": "near_known_gold", "campaign_class": "confirm", "walk_rank": 23 }, "geometry": { "type": "Point", "coordinates": [ -118.19299988, 48.19428928 ] } },
{ "type": "Feature", "properties": { "block_id": -2959879, "name": "block_-2959879", "lon": -118.18190662000001, "lat": 48.50709775, "p_anomalous": 0.97166666666666657, "elev_m": 390.0, "nearest_gold_deg": 0.0050845510211657624, "spatial_flag": "near_known_gold", "campaign_class": "confirm", "walk_rank": 27 }, "geometry": { "type": "Point", "coordinates": [ -118.18190662, 48.50709775 ] } },
{ "type": "Feature", "properties": { "block_id": -2959878, "name": "block_-2959878", "lon": -118.03888187, "lat": 48.8571297, "p_anomalous": 0.84, "elev_m": 863.4146728515625, "nearest_gold_deg": 0.0074148455133446617, "spatial_flag": "near_known_gold", "campaign_class": "confirm", "walk_rank": 25 }, "geometry": { "type": "Point", "coordinates": [ -118.03888187, 48.8571297 ] } },
{ "type": "Feature", "properties": { "block_id": -2949882, "name": "block_-2949882", "lon": -117.7329931, "lat": 47.5221075, "p_anomalous": 0.27, "elev_m": 738.09197998046875, "nearest_gold_deg": 0.41363506753399937, "spatial_flag": "far_from_known_gold", "campaign_class": "skip", "walk_rank": 31 }, "geometry": { "type": "Point", "coordinates": [ -117.7329931, 47.5221075 ] } },
{ "type": "Feature", "properties": { "block_id": -2949881, "name": "block_-2949881", "lon": -117.84356985, "lat": 47.826831, "p_anomalous": 0.195, "elev_m": 522.53411865234375, "nearest_gold_deg": 0.22604374627497048, "spatial_flag": "far_from_known_gold", "campaign_class": "skip", "walk_rank": 38 }, "geometry": { "type": "Point", "coordinates": [ -117.84356985, 47.826831 ] } },
{ "type": "Feature", "properties": { "block_id": -2949880, "name": "block_-2949880", "lon": -117.83052066, "lat": 48.07322468, "p_anomalous": 0.81, "elev_m": 709.57550048828125, "nearest_gold_deg": 0.11684398872488021, "spatial_flag": "near_known_gold", "campaign_class": "expedition", "walk_rank": 3 }, "geometry": { "type": "Point", "coordinates": [ -117.83052066, 48.07322468 ] } },
{ "type": "Feature", "properties": { "block_id": -2949879, "name": "block_-2949879", "lon": -117.82830918000001, "lat": 48.4340675, "p_anomalous": 0.935, "elev_m": 631.561767578125, "nearest_gold_deg": 0.076715597747278846, "spatial_flag": "near_known_gold", "campaign_class": "expedition", "walk_rank": 6 }, "geometry": { "type": "Point", "coordinates": [ -117.82830918, 48.4340675 ] } },
{ "type": "Feature", "properties": { "block_id": -2949878, "name": "block_-2949878", "lon": -117.96526786, "lat": 48.87490919, "p_anomalous": 0.29, "elev_m": 602.86065673828125, "nearest_gold_deg": 0.040114426208489859, "spatial_flag": "near_known_gold", "campaign_class": "confirm", "walk_rank": 13 }, "geometry": { "type": "Point", "coordinates": [ -117.96526786, 48.87490919 ] } },
{ "type": "Feature", "properties": { "block_id": -2939881, "name": "block_-2939881", "lon": -117.4918892, "lat": 47.78461224, "p_anomalous": 0.305, "elev_m": 486.94949340820312, "nearest_gold_deg": 0.33440573835156306, "spatial_flag": "far_from_known_gold", "campaign_class": "skip", "walk_rank": 36 }, "geometry": { "type": "Point", "coordinates": [ -117.4918892, 47.78461224 ] } },
{ "type": "Feature", "properties": { "block_id": -2939880, "name": "block_-2939880", "lon": -117.48411543, "lat": 48.07072891, "p_anomalous": 0.94, "elev_m": 743.5928955078125, "nearest_gold_deg": 0.13869729516566309, "spatial_flag": "near_known_gold", "campaign_class": "expedition", "walk_rank": 1 }, "geometry": { "type": "Point", "coordinates": [ -117.48411543, 48.07072891 ] } },
{ "type": "Feature", "properties": { "block_id": -2939879, "name": "block_-2939879", "lon": -117.39856456, "lat": 48.46796334, "p_anomalous": 0.89, "elev_m": 836.1590576171875, "nearest_gold_deg": 0.053810927536592633, "spatial_flag": "near_known_gold", "campaign_class": "expedition", "walk_rank": 9 }, "geometry": { "type": "Point", "coordinates": [ -117.39856456, 48.46796334 ] } },
{ "type": "Feature", "properties": { "block_id": -2939878, "name": "block_-2939878", "lon": -117.29274232, "lat": 48.85686685, "p_anomalous": 0.85276824534932194, "elev_m": 801.63433837890625, "nearest_gold_deg": 0.027813268127017059, "spatial_flag": "near_known_gold", "campaign_class": "confirm", "walk_rank": 18 }, "geometry": { "type": "Point", "coordinates": [ -117.29274232, 48.85686685 ] } },
{ "type": "Feature", "properties": { "block_id": -2929881, "name": "block_-2929881", "lon": -117.11270557, "lat": 47.75462028, "p_anomalous": 0.195, "elev_m": 741.647705078125, "nearest_gold_deg": 0.35358616215500738, "spatial_flag": "far_from_known_gold", "campaign_class": "skip", "walk_rank": 35 }, "geometry": { "type": "Point", "coordinates": [ -117.11270557, 47.75462028 ] } },
{ "type": "Feature", "properties": { "block_id": -2929880, "name": "block_-2929880", "lon": -117.17576639000001, "lat": 48.22573758, "p_anomalous": 0.92, "elev_m": 630.16058349609375, "nearest_gold_deg": 0.052142100455276084, "spatial_flag": "near_known_gold", "campaign_class": "expedition", "walk_rank": 10 }, "geometry": { "type": "Point", "coordinates": [ -117.17576639, 48.22573758 ] } },
{ "type": "Feature", "properties": { "block_id": -2929879, "name": "block_-2929879", "lon": -117.04355972, "lat": 48.7088095, "p_anomalous": 0.93, "elev_m": 943.75787353515625, "nearest_gold_deg": 0.059051138799588572, "spatial_flag": "near_known_gold", "campaign_class": "expedition", "walk_rank": 8 }, "geometry": { "type": "Point", "coordinates": [ -117.04355972, 48.7088095 ] } },
{ "type": "Feature", "properties": { "block_id": -2929878, "name": "block_-2929878", "lon": -117.18773856, "lat": 48.84075708, "p_anomalous": 0.86, "elev_m": 1016.8947143554688, "nearest_gold_deg": 0.0088596288071246462, "spatial_flag": "near_known_gold", "campaign_class": "confirm", "walk_rank": 24 }, "geometry": { "type": "Point", "coordinates": [ -117.18773856, 48.84075708 ] } }
]
}
