{
"type": "FeatureCollection",
"name": "task11_hobby_reports",
"crs": { "type": "name", "properties": { "name": "urn:ogc:def:crs:OGC:1.3:CRS84" } },
"features": [
{ "type": "Feature", "properties": { "report_id": "CA-SYR", "name": "South Yuba Recreation Area", "creek_name": "South Yuba River", "lon": -120.9717, "lat": 39.338755, "gold_class": "unknown", "location_precision": "reach", "geom_confidence": 4, "source_type": "pamphlet", "source_cite": "BLM / Recreation.gov South Yuba Recreation Area GPS; hands-and-pans only", "source_url": "https://www.recreation.gov/gateways/612", "date_approx": 2026, "hours_or_pans": null, "public_land": "yes", "notes": "Published campground GPS. BLM: gold panning allowed hands and pans only.", "block_id": null, "campaign_class": null, "walk_rank": null, "catchment_hit": false, "nearest_pan_pin_m": null, "pin_scored": false }, "geometry": { "type": "Point", "coordinates": [ -120.9717, 39.338755 ] } },
{ "type": "Feature", "properties": { "report_id": "CA-EDW", "name": "Edwards Crossing", "creek_name": "South Yuba River", "lon": -120.99, "lat": 39.33, "gold_class": "unknown", "location_precision": "reach", "geom_confidence": 3, "source_type": "pamphlet", "source_cite": "BLM South Yuba Recreation Area directions (Edwards Crossing bridge)", "source_url": "https://www.blm.gov/visit/south-yuba-recreation-area", "date_approx": 2026, "hours_or_pans": null, "public_land": "yes", "notes": "Access point named on the BLM page. Not a hole.", "block_id": null, "campaign_class": null, "walk_rank": null, "catchment_hit": false, "nearest_pan_pin_m": null, "pin_scored": false }, "geometry": { "type": "Point", "coordinates": [ -120.99, 39.33 ] } },
{ "type": "Feature", "properties": { "report_id": "CA-PUR", "name": "Purdon Crossing", "creek_name": "South Yuba River", "lon": -121.048, "lat": 39.327, "gold_class": "unknown", "location_precision": "reach", "geom_confidence": 3, "source_type": "pamphlet", "source_cite": "South Yuba River State Park / BLM South Yuba crossings", "source_url": "https://www.parks.ca.gov/?page_id=496", "date_approx": 2026, "hours_or_pans": null, "public_land": "yes", "notes": "Named public crossing on the South Yuba.", "block_id": null, "campaign_class": null, "walk_rank": null, "catchment_hit": false, "nearest_pan_pin_m": null, "pin_scored": false }, "geometry": { "type": "Point", "coordinates": [ -121.048, 39.327 ] } },
{ "type": "Feature", "properties": { "report_id": "CA-BRP", "name": "Bridgeport South Yuba SP", "creek_name": "South Yuba River", "lon": -121.1953, "lat": 39.2925, "gold_class": "unknown", "location_precision": "reach", "geom_confidence": 3, "source_type": "pamphlet", "source_cite": "California State Parks South Yuba River SP (Bridgeport)", "source_url": "https://www.parks.ca.gov/?page_id=496", "date_approx": 2026, "hours_or_pans": null, "public_land": "yes", "notes": "Covered-bridge day-use area. Pan rules follow State Parks.", "block_id": null, "campaign_class": null, "walk_rank": null, "catchment_hit": false, "nearest_pan_pin_m": null, "pin_scored": false }, "geometry": { "type": "Point", "coordinates": [ -121.1953, 39.2925 ] } },
{ "type": "Feature", "properties": { "report_id": "CA-H49", "name": "Highway 49 South Yuba", "creek_name": "South Yuba River", "lon": -121.0936, "lat": 39.2964, "gold_class": "unknown", "location_precision": "reach", "geom_confidence": 3, "source_type": "pamphlet", "source_cite": "California State Parks South Yuba River SP Highway 49 crossing", "source_url": "https://www.parks.ca.gov/?page_id=496", "date_approx": 2026, "hours_or_pans": null, "public_land": "yes", "notes": "Named public crossing.", "block_id": null, "campaign_class": null, "walk_rank": null, "catchment_hit": false, "nearest_pan_pin_m": null, "pin_scored": false }, "geometry": { "type": "Point", "coordinates": [ -121.0936, 39.2964 ] } },
{ "type": "Feature", "properties": { "report_id": "CA-MAL", "name": "Malakoff Diggins SHP", "creek_name": "Humbug Creek", "lon": -120.9194, "lat": 39.3713, "gold_class": "unknown", "location_precision": "district", "geom_confidence": 4, "source_type": "pamphlet", "source_cite": "California State Parks Malakoff Diggins SHP; USGS GNIS", "source_url": "https://www.parks.ca.gov/?page_id=494", "date_approx": 2026, "hours_or_pans": null, "public_land": "yes", "notes": "Hydraulic pit park. District; not a catchment hit.", "block_id": null, "campaign_class": null, "walk_rank": null, "catchment_hit": false, "nearest_pan_pin_m": null, "pin_scored": false }, "geometry": { "type": "Point", "coordinates": [ -120.9194, 39.3713 ] } },
{ "type": "Feature", "properties": { "report_id": "CA-MAR", "name": "Marshall Gold Discovery SHP", "creek_name": "South Fork American River", "lon": -120.8941, "lat": 38.8002, "gold_class": "unknown", "location_precision": "reach", "geom_confidence": 4, "source_type": "pamphlet", "source_cite": "California State Parks Marshall Gold Discovery SHP; Sutter Mill", "source_url": "https://www.parks.ca.gov/?page_id=484", "date_approx": 2026, "hours_or_pans": null, "public_land": "yes", "notes": "Coloma discovery site. State Parks pan-only rules.", "block_id": null, "campaign_class": null, "walk_rank": null, "catchment_hit": false, "nearest_pan_pin_m": null, "pin_scored": false }, "geometry": { "type": "Point", "coordinates": [ -120.8941, 38.8002 ] } },
{ "type": "Feature", "properties": { "report_id": "CA-AUB", "name": "Auburn State Recreation Area", "creek_name": "North Fork American River", "lon": -121.0691, "lat": 38.8907, "gold_class": "unknown", "location_precision": "reach", "geom_confidence": 3, "source_type": "pamphlet", "source_cite": "California State Parks Auburn SRA gold-panning rules (pan only in perennial beds)", "source_url": "https://www.parks.ca.gov/?page_id=502", "date_approx": 2026, "hours_or_pans": null, "public_land": "yes", "notes": "SRA-wide rule. Point is the recreation-area HQ / confluence side.", "block_id": null, "campaign_class": null, "walk_rank": null, "catchment_hit": false, "nearest_pan_pin_m": null, "pin_scored": false }, "geometry": { "type": "Point", "coordinates": [ -121.0691, 38.8907 ] } },
{ "type": "Feature", "properties": { "report_id": "CA-MAM", "name": "Mammoth Bar", "creek_name": "North Fork American River", "lon": -121.041, "lat": 38.916, "gold_class": "unknown", "location_precision": "bar", "geom_confidence": 3, "source_type": "pamphlet", "source_cite": "Auburn SRA Mammoth Bar day-use; CA State Parks", "source_url": "https://www.parks.ca.gov/?page_id=502", "date_approx": 2026, "hours_or_pans": null, "public_land": "yes", "notes": "Named bar inside Auburn SRA.", "block_id": null, "campaign_class": null, "walk_rank": null, "catchment_hit": false, "nearest_pan_pin_m": null, "pin_scored": false }, "geometry": { "type": "Point", "coordinates": [ -121.041, 38.916 ] } },
{ "type": "Feature", "properties": { "report_id": "CA-CHI", "name": "Chili Bar", "creek_name": "South Fork American River", "lon": -120.8166, "lat": 38.7713, "gold_class": "unknown", "location_precision": "reach", "geom_confidence": 3, "source_type": "pamphlet", "source_cite": "BLM South Fork American River (Chili Bar put-in)", "source_url": "https://www.blm.gov/visit/south-fork-american-river", "date_approx": 2026, "hours_or_pans": null, "public_land": "unknown", "notes": "Named public put-in. Confirm BLM vs private.", "block_id": null, "campaign_class": null, "walk_rank": null, "catchment_hit": false, "nearest_pan_pin_m": null, "pin_scored": false }, "geometry": { "type": "Point", "coordinates": [ -120.8166, 38.7713 ] } },
{ "type": "Feature", "properties": { "report_id": "CA-DWN", "name": "Downieville", "creek_name": "North Yuba River", "lon": -120.8277, "lat": 39.5593, "gold_class": "unknown", "location_precision": "district", "geom_confidence": 3, "source_type": "pamphlet", "source_cite": "USGS GNIS Downieville; Clark 1970 Gold Districts of California", "source_url": "https://www.conservation.ca.gov/cgs", "date_approx": 1970, "hours_or_pans": null, "public_land": "unknown", "notes": "District. Mapped; not a catchment hit.", "block_id": null, "campaign_class": null, "walk_rank": null, "catchment_hit": false, "nearest_pan_pin_m": null, "pin_scored": false }, "geometry": { "type": "Point", "coordinates": [ -120.8277, 39.5593 ] } },
{ "type": "Feature", "properties": { "report_id": "CA-GDY", "name": "Goodyears Bar", "creek_name": "North Yuba River", "lon": -120.8844, "lat": 39.5421, "gold_class": "unknown", "location_precision": "reach", "geom_confidence": 3, "source_type": "pamphlet", "source_cite": "USGS GNIS Goodyears Bar; Clark 1970", "source_url": "https://www.conservation.ca.gov/cgs", "date_approx": 1970, "hours_or_pans": null, "public_land": "unknown", "notes": "Named bar / settlement on the North Yuba.", "block_id": null, "campaign_class": null, "walk_rank": null, "catchment_hit": false, "nearest_pan_pin_m": null, "pin_scored": false }, "geometry": { "type": "Point", "coordinates": [ -120.8844, 39.5421 ] } },
{ "type": "Feature", "properties": { "report_id": "CA-SIE", "name": "Sierra City", "creek_name": "North Yuba River", "lon": -120.636, "lat": 39.5596, "gold_class": "unknown", "location_precision": "reach", "geom_confidence": 3, "source_type": "pamphlet", "source_cite": "USGS GNIS Sierra City; Clark 1970", "source_url": "https://www.conservation.ca.gov/cgs", "date_approx": 1970, "hours_or_pans": null, "public_land": "unknown", "notes": "North Yuba at Sierra City.", "block_id": null, "campaign_class": null, "walk_rank": null, "catchment_hit": false, "nearest_pan_pin_m": null, "pin_scored": false }, "geometry": { "type": "Point", "coordinates": [ -120.636, 39.5596 ] } },
{ "type": "Feature", "properties": { "report_id": "CA-ORE", "name": "Oregon Creek", "creek_name": "Oregon Creek", "lon": -120.995, "lat": 39.444, "gold_class": "unknown", "location_precision": "creek", "geom_confidence": 3, "source_type": "pamphlet", "source_cite": "Tahoe NF Oregon Creek day use (Middle Yuba tributary)", "source_url": "https://www.fs.usda.gov/r05/tahoe", "date_approx": 2026, "hours_or_pans": null, "public_land": "yes", "notes": "Named USFS day-use creek.", "block_id": null, "campaign_class": null, "walk_rank": null, "catchment_hit": false, "nearest_pan_pin_m": null, "pin_scored": false }, "geometry": { "type": "Point", "coordinates": [ -120.995, 39.444 ] } },
{ "type": "Feature", "properties": { "report_id": "CA-ORO", "name": "Oroville / Feather", "creek_name": "Feather River", "lon": -121.5564, "lat": 39.5138, "gold_class": "unknown", "location_precision": "reach", "geom_confidence": 3, "source_type": "pamphlet", "source_cite": "USGS GNIS Oroville; Lake Oroville SRA / Feather River", "source_url": "https://www.parks.ca.gov/?page_id=462", "date_approx": 2026, "hours_or_pans": null, "public_land": "unknown", "notes": "Main-stem town. Confirm SRA vs city rules.", "block_id": null, "campaign_class": null, "walk_rank": null, "catchment_hit": false, "nearest_pan_pin_m": null, "pin_scored": false }, "geometry": { "type": "Point", "coordinates": [ -121.5564, 39.5138 ] } },
{ "type": "Feature", "properties": { "report_id": "CA-SMA", "name": "Smartsville", "creek_name": "Yuba River", "lon": -121.2977, "lat": 39.2077, "gold_class": "unknown", "location_precision": "district", "geom_confidence": 3, "source_type": "pamphlet", "source_cite": "USGS GNIS Smartsville; Clark 1970 hydraulic district", "source_url": "https://www.conservation.ca.gov/cgs", "date_approx": 1970, "hours_or_pans": null, "public_land": "unknown", "notes": "District. Mapped; not a catchment hit.", "block_id": null, "campaign_class": null, "walk_rank": null, "catchment_hit": false, "nearest_pan_pin_m": null, "pin_scored": false }, "geometry": { "type": "Point", "coordinates": [ -121.2977, 39.2077 ] } },
{ "type": "Feature", "properties": { "report_id": "CA-NVC", "name": "Nevada City / Deer Creek", "creek_name": "Deer Creek", "lon": -121.0161, "lat": 39.2616, "gold_class": "unknown", "location_precision": "creek", "geom_confidence": 3, "source_type": "pamphlet", "source_cite": "USGS GNIS Nevada City; Clark 1970", "source_url": "https://www.conservation.ca.gov/cgs", "date_approx": 1970, "hours_or_pans": null, "public_land": "unknown", "notes": "Deer Creek through Nevada City.", "block_id": null, "campaign_class": null, "walk_rank": null, "catchment_hit": false, "nearest_pan_pin_m": null, "pin_scored": false }, "geometry": { "type": "Point", "coordinates": [ -121.0161, 39.2616 ] } },
{ "type": "Feature", "properties": { "report_id": "CA-BUT", "name": "Forks of Butte", "creek_name": "Butte Creek", "lon": -121.628, "lat": 39.713, "gold_class": "unknown", "location_precision": "reach", "geom_confidence": 3, "source_type": "pamphlet", "source_cite": "BLM Forks of Butte Creek recreation site (day-use / panning)", "source_url": "https://www.blm.gov/visit/forks-butte", "date_approx": 2026, "hours_or_pans": null, "public_land": "yes", "notes": "BLM site. Confirm current permit.", "block_id": null, "campaign_class": null, "walk_rank": null, "catchment_hit": false, "nearest_pan_pin_m": null, "pin_scored": false }, "geometry": { "type": "Point", "coordinates": [ -121.628, 39.713 ] } },
{ "type": "Feature", "properties": { "report_id": "CA-ALG", "name": "Alleghany", "creek_name": "Kanaka Creek", "lon": -120.8411, "lat": 39.4668, "gold_class": "unknown", "location_precision": "district", "geom_confidence": 3, "source_type": "pamphlet", "source_cite": "USGS GNIS Alleghany; Clark 1970", "source_url": "https://www.conservation.ca.gov/cgs", "date_approx": 1970, "hours_or_pans": null, "public_land": "unknown", "notes": "District. Mapped; not a catchment hit.", "block_id": null, "campaign_class": null, "walk_rank": null, "catchment_hit": false, "nearest_pan_pin_m": null, "pin_scored": false }, "geometry": { "type": "Point", "coordinates": [ -120.8411, 39.4668 ] } },
{ "type": "Feature", "properties": { "report_id": "CA-CAM", "name": "Camptonville", "creek_name": "Middle Yuba River", "lon": -121.0488, "lat": 39.4521, "gold_class": "unknown", "location_precision": "reach", "geom_confidence": 3, "source_type": "pamphlet", "source_cite": "USGS GNIS Camptonville; Middle Yuba / Bullards corridor", "source_url": "https://www.conservation.ca.gov/cgs", "date_approx": 1970, "hours_or_pans": null, "public_land": "unknown", "notes": "Named town on the Middle Yuba.", "block_id": null, "campaign_class": null, "walk_rank": null, "catchment_hit": false, "nearest_pan_pin_m": null, "pin_scored": false }, "geometry": { "type": "Point", "coordinates": [ -121.0488, 39.4521 ] } },
{ "type": "Feature", "properties": { "report_id": "CA-HUM", "name": "Humbug Creek at North Bloomfield", "creek_name": "Humbug Creek", "lon": -120.902, "lat": 39.368, "gold_class": "unknown", "location_precision": "creek", "geom_confidence": 3, "source_type": "pamphlet", "source_cite": "Malakoff Diggins SHP / USGS GNIS North Bloomfield", "source_url": "https://www.parks.ca.gov/?page_id=494", "date_approx": 2026, "hours_or_pans": null, "public_land": "yes", "notes": "Creek through the Malakoff hydraulic workings.", "block_id": null, "campaign_class": null, "walk_rank": null, "catchment_hit": false, "nearest_pan_pin_m": null, "pin_scored": false }, "geometry": { "type": "Point", "coordinates": [ -120.902, 39.368 ] } }
]
}
