{
"type": "FeatureCollection",
"name": "task11_lidar_rank01",
"crs": { "type": "name", "properties": { "name": "urn:ogc:def:crs:OGC:1.3:CRS84" } },
"features": [
{ "type": "Feature", "properties": { "walk_rank": 1, "block_id": -3019904, "source": "USGS 1 Meter 10 x71y428 CA_SierraNevada_B22", "dem_path": "/Users/nicoleaikin/projects/Au + REE pipeline/california_sierra/data/lidar/lidar_r01_dem.tif", "hs_path": "/Users/nicoleaikin/projects/Au + REE pipeline/california_sierra/data/lidar/lidar_r01_hs.tif" }, "geometry": { "type": "Polygon", "coordinates": [ [ [ -120.527127086351058, 38.608487049984753 ], [ -120.527517569070383, 38.606746029910077 ], [ -120.528123627454292, 38.605043421237504 ], [ -120.528939411316827, 38.603395617298276 ], [ -120.529957052716355, 38.601818482701013 ], [ -120.531166742169376, 38.600327200725523 ], [ -120.532556823467459, 38.598936127306679 ], [ -120.534113906171996, 38.597658653006562 ], [ -120.535822994693262, 38.596507074295481 ], [ -120.537667632706743, 38.595492475372339 ], [ -120.539630061515666, 38.594624621653075 ], [ -120.54169139083946, 38.593911865944079 ], [ -120.543831780392438, 38.593361068195705 ], [ -120.546030630516981, 38.592977529601121 ], [ -120.548266780052856, 38.592764941669131 ], [ -120.550518709556115, 38.592725350756325 ], [ -120.552764747933097, 38.592859138397145 ], [ -120.55498328052245, 38.593165017619796 ], [ -120.557152956645467, 38.593640045283799 ], [ -120.559252894649049, 38.594279650322697 ], [ -120.561262882488563, 38.595077677623607 ], [ -120.563163571939214, 38.596026447126668 ], [ -120.564936664582106, 38.5971168275818 ], [ -120.566565087787239, 38.59833832426061 ], [ -120.568033159008181, 38.599679179787216 ], [ -120.569326736810623, 38.601126487126223 ], [ -120.570433357180676, 38.602666313648889 ], [ -120.571342353795686, 38.604283835091785 ], [ -120.572044961090398, 38.60596347812627 ], [ -120.572534399112413, 38.607689070173237 ], [ -120.572805939333449, 38.60944399502683 ], [ -120.572856950762556, 38.611211352793127 ], [ -120.572686925894985, 38.612974122606936 ], [ -120.572297486223746, 38.614715326560983 ], [ -120.571692367236494, 38.616418193268544 ], [ -120.570877383018797, 38.61806631948226 ], [ -120.569860370782337, 38.619643828208673 ], [ -120.568651115832253, 38.621135521790436 ], [ -120.567261257679249, 38.622527028474821 ], [ -120.565704178186579, 38.623804941049656 ], [ -120.563994872820487, 38.624956946201955 ], [ -120.562149806238764, 38.625971943344922 ], [ -120.560186753607752, 38.626840151759254 ], [ -120.558124629181137, 38.6275532050078 ], [ -120.555983303800019, 38.628104231705969 ], [ -120.553783413085327, 38.628487921862124 ], [ -120.551546158186611, 38.628700578143061 ], [ -120.549293101026308, 38.628740151565566 ], [ -120.547045956033372, 38.628606261267329 ], [ -120.544826380395719, 38.628300198165256 ], [ -120.542655764875875, 38.627824912466181 ], [ -120.540555027227441, 38.627184985152695 ], [ -120.538544410224972, 38.626386583722542 ], [ -120.536643286271612, 38.625437402613159 ], [ -120.534869970483953, 38.624346588892436 ], [ -120.533241544067266, 38.623124653938909 ], [ -120.53177368969142, 38.621783371971112 ], [ -120.530480540457489, 38.620335666412352 ], [ -120.529374543909654, 38.618795485194696 ], [ -120.528466342397451, 38.617177666212342 ], [ -120.527764670930807, 38.615497794228162 ], [ -120.527276273498728, 38.613772050619701 ], [ -120.527005838640207, 38.612017057417184 ], [ -120.526955954867816, 38.610249717141194 ], [ -120.527127086351058, 38.608487049984753 ] ] ] } }
]
}
