{
"type": "FeatureCollection",
"name": "task11_field_campaign_targets",
"crs": { "type": "name", "properties": { "name": "urn:ogc:def:crs:OGC:1.3:CRS84" } },
"features": [
{ "type": "Feature", "properties": { "walk_rank": "1", "block_id": -3039903, "campaign_class": "expedition", "spot_order": 1, "role": "high_p_sample", "lon": -121.5249, "lat": 38.891, "p_anomalous": 0.02, "elev_m": 11.9 }, "geometry": { "type": "Point", "coordinates": [ -121.5249, 38.891 ] } },
{ "type": "Feature", "properties": { "walk_rank": "1", "block_id": -3039903, "campaign_class": "expedition", "spot_order": 2, "role": "high_p_sample", "lon": -121.5284, "lat": 38.8675, "p_anomalous": 0.1432, "elev_m": 10.8 }, "geometry": { "type": "Point", "coordinates": [ -121.5284, 38.8675 ] } },
{ "type": "Feature", "properties": { "walk_rank": "1", "block_id": -3039903, "campaign_class": "expedition", "spot_order": 3, "role": "high_p_sample", "lon": -121.548, "lat": 38.9254, "p_anomalous": 0.06, "elev_m": 10.7 }, "geometry": { "type": "Point", "coordinates": [ -121.548, 38.9254 ] } },
{ "type": "Feature", "properties": { "walk_rank": "1", "block_id": -3039903, "campaign_class": "expedition", "spot_order": 4, "role": "pour_point", "lon": -121.5554, "lat": 38.8669, "p_anomalous": 0.115, "elev_m": 8.3 }, "geometry": { "type": "Point", "coordinates": [ -121.5554, 38.8669 ] } },
{ "type": "Feature", "properties": { "walk_rank": "2", "block_id": -3039904, "campaign_class": "expedition", "spot_order": 1, "role": "high_p_sample", "lon": -121.6347, "lat": 38.693, "p_anomalous": 0.175, "elev_m": 9.2 }, "geometry": { "type": "Point", "coordinates": [ -121.6347, 38.693 ] } },
{ "type": "Feature", "properties": { "walk_rank": "2", "block_id": -3039904, "campaign_class": "expedition", "spot_order": 2, "role": "high_p_sample", "lon": -121.5996, "lat": 38.6532, "p_anomalous": 0.31, "elev_m": 4.4 }, "geometry": { "type": "Point", "coordinates": [ -121.5996, 38.6532 ] } },
{ "type": "Feature", "properties": { "walk_rank": "2", "block_id": -3039904, "campaign_class": "expedition", "spot_order": 3, "role": "high_p_sample", "lon": -121.5914, "lat": 38.6124, "p_anomalous": 0.2, "elev_m": 3.1 }, "geometry": { "type": "Point", "coordinates": [ -121.5914, 38.6124 ] } },
{ "type": "Feature", "properties": { "walk_rank": "2", "block_id": -3039904, "campaign_class": "expedition", "spot_order": 4, "role": "pour_point", "lon": -121.5631, "lat": 38.5123, "p_anomalous": 0.23, "elev_m": 2.4 }, "geometry": { "type": "Point", "coordinates": [ -121.5631, 38.5123 ] } },
{ "type": "Feature", "properties": { "walk_rank": "3", "block_id": -3019904, "campaign_class": "confirm", "spot_order": 1, "role": "high_p_sample", "lon": -120.4201, "lat": 38.5988, "p_anomalous": 0.99, "elev_m": 1451.2 }, "geometry": { "type": "Point", "coordinates": [ -120.4201, 38.5988 ] } },
{ "type": "Feature", "properties": { "walk_rank": "3", "block_id": -3019904, "campaign_class": "confirm", "spot_order": 2, "role": "high_p_sample", "lon": -120.4512, "lat": 38.5794, "p_anomalous": 1.0, "elev_m": 1334.4 }, "geometry": { "type": "Point", "coordinates": [ -120.4512, 38.5794 ] } },
{ "type": "Feature", "properties": { "walk_rank": "3", "block_id": -3019904, "campaign_class": "confirm", "spot_order": 3, "role": "high_p_sample", "lon": -120.4827, "lat": 38.5817, "p_anomalous": 0.99, "elev_m": 1252.7 }, "geometry": { "type": "Point", "coordinates": [ -120.4827, 38.5817 ] } },
{ "type": "Feature", "properties": { "walk_rank": "3", "block_id": -3019904, "campaign_class": "confirm", "spot_order": 4, "role": "pour_point", "lon": -120.7802, "lat": 38.5994, "p_anomalous": 0.955, "elev_m": 395.6 }, "geometry": { "type": "Point", "coordinates": [ -120.7802, 38.5994 ] } },
{ "type": "Feature", "properties": { "walk_rank": "4", "block_id": -3029903, "campaign_class": "confirm", "spot_order": 1, "role": "high_p_sample", "lon": -121.1521, "lat": 38.8546, "p_anomalous": 0.925, "elev_m": 185.1 }, "geometry": { "type": "Point", "coordinates": [ -121.1521, 38.8546 ] } },
{ "type": "Feature", "properties": { "walk_rank": "4", "block_id": -3029903, "campaign_class": "confirm", "spot_order": 2, "role": "high_p_sample", "lon": -121.1521, "lat": 38.8757, "p_anomalous": 0.935, "elev_m": 175.7 }, "geometry": { "type": "Point", "coordinates": [ -121.1521, 38.8757 ] } },
{ "type": "Feature", "properties": { "walk_rank": "4", "block_id": -3029903, "campaign_class": "confirm", "spot_order": 3, "role": "high_p_sample", "lon": -121.1571, "lat": 38.8442, "p_anomalous": 0.95, "elev_m": 151.2 }, "geometry": { "type": "Point", "coordinates": [ -121.1571, 38.8442 ] } },
{ "type": "Feature", "properties": { "walk_rank": "4", "block_id": -3029903, "campaign_class": "confirm", "spot_order": 4, "role": "pour_point", "lon": -121.1913, "lat": 38.8258, "p_anomalous": 0.985, "elev_m": 111.0 }, "geometry": { "type": "Point", "coordinates": [ -121.1913, 38.8258 ] } },
{ "type": "Feature", "properties": { "walk_rank": "5", "block_id": -3029904, "campaign_class": "confirm", "spot_order": 1, "role": "high_p_sample", "lon": -120.9164, "lat": 38.63, "p_anomalous": 0.995, "elev_m": 383.5 }, "geometry": { "type": "Point", "coordinates": [ -120.9164, 38.63 ] } },
{ "type": "Feature", "properties": { "walk_rank": "5", "block_id": -3029904, "campaign_class": "confirm", "spot_order": 2, "role": "high_p_sample", "lon": -120.967, "lat": 38.5702, "p_anomalous": 0.995, "elev_m": 222.5 }, "geometry": { "type": "Point", "coordinates": [ -120.967, 38.5702 ] } },
{ "type": "Feature", "properties": { "walk_rank": "5", "block_id": -3029904, "campaign_class": "confirm", "spot_order": 3, "role": "high_p_sample", "lon": -120.9454, "lat": 38.5079, "p_anomalous": 1.0, "elev_m": 170.7 }, "geometry": { "type": "Point", "coordinates": [ -120.9454, 38.5079 ] } },
{ "type": "Feature", "properties": { "walk_rank": "5", "block_id": -3029904, "campaign_class": "confirm", "spot_order": 4, "role": "pour_point", "lon": -121.0478, "lat": 38.5143, "p_anomalous": 0.97, "elev_m": 63.1 }, "geometry": { "type": "Point", "coordinates": [ -121.0478, 38.5143 ] } },
{ "type": "Feature", "properties": { "walk_rank": "6", "block_id": -3019903, "campaign_class": "confirm", "spot_order": 1, "role": "high_p_sample", "lon": -120.7931, "lat": 38.9351, "p_anomalous": 0.905, "elev_m": 865.8 }, "geometry": { "type": "Point", "coordinates": [ -120.7931, 38.9351 ] } },
{ "type": "Feature", "properties": { "walk_rank": "6", "block_id": -3019903, "campaign_class": "confirm", "spot_order": 2, "role": "high_p_sample", "lon": -120.8104, "lat": 38.9215, "p_anomalous": 0.89, "elev_m": 854.2 }, "geometry": { "type": "Point", "coordinates": [ -120.8104, 38.9215 ] } },
{ "type": "Feature", "properties": { "walk_rank": "6", "block_id": -3019903, "campaign_class": "confirm", "spot_order": 3, "role": "pour_point", "lon": -120.7886, "lat": 38.8538, "p_anomalous": 0.965, "elev_m": 732.0 }, "geometry": { "type": "Point", "coordinates": [ -120.7886, 38.8538 ] } },
{ "type": "Feature", "properties": { "walk_rank": "<NA>", "block_id": -3049903, "campaign_class": "skip", "spot_order": 1, "role": "high_p_sample", "lon": -121.6045, "lat": 38.9269, "p_anomalous": 0.1009, "elev_m": 8.9 }, "geometry": { "type": "Point", "coordinates": [ -121.6045, 38.9269 ] } },
{ "type": "Feature", "properties": { "walk_rank": "<NA>", "block_id": -3049903, "campaign_class": "skip", "spot_order": 2, "role": "high_p_sample", "lon": -121.6519, "lat": 38.8935, "p_anomalous": 0.095, "elev_m": 6.2 }, "geometry": { "type": "Point", "coordinates": [ -121.6519, 38.8935 ] } },
{ "type": "Feature", "properties": { "walk_rank": "<NA>", "block_id": -3049903, "campaign_class": "skip", "spot_order": 3, "role": "pour_point", "lon": -121.6981, "lat": 38.8201, "p_anomalous": 0.095, "elev_m": 4.5 }, "geometry": { "type": "Point", "coordinates": [ -121.6981, 38.8201 ] } },
{ "type": "Feature", "properties": { "walk_rank": "<NA>", "block_id": -3049904, "campaign_class": "skip", "spot_order": 1, "role": "high_p_sample", "lon": -121.6922, "lat": 38.6045, "p_anomalous": 0.1291, "elev_m": 7.3 }, "geometry": { "type": "Point", "coordinates": [ -121.6922, 38.6045 ] } },
{ "type": "Feature", "properties": { "walk_rank": "<NA>", "block_id": -3049904, "campaign_class": "skip", "spot_order": 2, "role": "high_p_sample", "lon": -121.657, "lat": 38.5741, "p_anomalous": 0.1095, "elev_m": 5.5 }, "geometry": { "type": "Point", "coordinates": [ -121.657, 38.5741 ] } },
{ "type": "Feature", "properties": { "walk_rank": "<NA>", "block_id": -3049904, "campaign_class": "skip", "spot_order": 3, "role": "pour_point", "lon": -121.6279, "lat": 38.5574, "p_anomalous": 0.275, "elev_m": 3.4 }, "geometry": { "type": "Point", "coordinates": [ -121.6279, 38.5574 ] } }
]
}
