{
"type": "FeatureCollection",
"name": "task11_spatial_cv_blocks_0p4deg",
"crs": { "type": "name", "properties": { "name": "urn:ogc:def:crs:OGC:1.3:CRS84" } },
"features": [
{ "type": "Feature", "properties": { "block_id": -3049904, "lon_min": -122.0, "lon_max": -121.6, "lat_min": 38.4, "lat_max": 38.8, "n_nure": 18, "mean_p": 0.3963, "max_p": 0.44, "loco_auc": null, "campaign_class": "watch", "walk_rank": 1, "spatial_flag": "far_from_known_gold" }, "geometry": { "type": "Polygon", "coordinates": [ [ [ -121.6, 38.4 ], [ -121.6, 38.8 ], [ -122.0, 38.8 ], [ -122.0, 38.4 ], [ -121.6, 38.4 ] ] ] } },
{ "type": "Feature", "properties": { "block_id": -3049903, "lon_min": -122.0, "lon_max": -121.6, "lat_min": 38.8, "lat_max": 39.2, "n_nure": 16, "mean_p": 0.397, "max_p": 0.445, "loco_auc": 0.1458, "campaign_class": "watch", "walk_rank": 2, "spatial_flag": "far_from_known_gold" }, "geometry": { "type": "Polygon", "coordinates": [ [ [ -121.6, 38.8 ], [ -121.6, 39.2 ], [ -122.0, 39.2 ], [ -122.0, 38.8 ], [ -121.6, 38.8 ] ] ] } },
{ "type": "Feature", "properties": { "block_id": -3049902, "lon_min": -122.0, "lon_max": -121.6, "lat_min": 39.2, "lat_max": 39.6, "n_nure": 0, "mean_p": null, "max_p": null, "loco_auc": null, "campaign_class": "skip", "walk_rank": null, "spatial_flag": "no_nure" }, "geometry": { "type": "Polygon", "coordinates": [ [ [ -121.6, 39.2 ], [ -121.6, 39.6 ], [ -122.0, 39.6 ], [ -122.0, 39.2 ], [ -121.6, 39.2 ] ] ] } },
{ "type": "Feature", "properties": { "block_id": -3049901, "lon_min": -122.0, "lon_max": -121.6, "lat_min": 39.6, "lat_max": 40.0, "n_nure": 0, "mean_p": null, "max_p": null, "loco_auc": null, "campaign_class": "skip", "walk_rank": null, "spatial_flag": "no_nure" }, "geometry": { "type": "Polygon", "coordinates": [ [ [ -121.6, 39.6 ], [ -121.6, 40.0 ], [ -122.0, 40.0 ], [ -122.0, 39.6 ], [ -121.6, 39.6 ] ] ] } },
{ "type": "Feature", "properties": { "block_id": -3049900, "lon_min": -122.0, "lon_max": -121.6, "lat_min": 40.0, "lat_max": 40.4, "n_nure": 0, "mean_p": null, "max_p": null, "loco_auc": null, "campaign_class": "skip", "walk_rank": null, "spatial_flag": "no_nure" }, "geometry": { "type": "Polygon", "coordinates": [ [ [ -121.6, 40.0 ], [ -121.6, 40.4 ], [ -122.0, 40.4 ], [ -122.0, 40.0 ], [ -121.6, 40.0 ] ] ] } },
{ "type": "Feature", "properties": { "block_id": -3039904, "lon_min": -121.6, "lon_max": -121.2, "lat_min": 38.4, "lat_max": 38.8, "n_nure": 116, "mean_p": 0.3539, "max_p": 0.45, "loco_auc": 0.7571, "campaign_class": "watch", "walk_rank": 4, "spatial_flag": "near_known_gold" }, "geometry": { "type": "Polygon", "coordinates": [ [ [ -121.2, 38.4 ], [ -121.2, 38.8 ], [ -121.6, 38.8 ], [ -121.6, 38.4 ], [ -121.2, 38.4 ] ] ] } },
{ "type": "Feature", "properties": { "block_id": -3039903, "lon_min": -121.6, "lon_max": -121.2, "lat_min": 38.8, "lat_max": 39.2, "n_nure": 77, "mean_p": 0.3815, "max_p": 0.46, "loco_auc": 0.8078, "campaign_class": "watch", "walk_rank": 3, "spatial_flag": "far_from_known_gold" }, "geometry": { "type": "Polygon", "coordinates": [ [ [ -121.2, 38.8 ], [ -121.2, 39.2 ], [ -121.6, 39.2 ], [ -121.6, 38.8 ], [ -121.2, 38.8 ] ] ] } },
{ "type": "Feature", "properties": { "block_id": -3039902, "lon_min": -121.6, "lon_max": -121.2, "lat_min": 39.2, "lat_max": 39.6, "n_nure": 0, "mean_p": null, "max_p": null, "loco_auc": null, "campaign_class": "skip", "walk_rank": null, "spatial_flag": "no_nure" }, "geometry": { "type": "Polygon", "coordinates": [ [ [ -121.2, 39.2 ], [ -121.2, 39.6 ], [ -121.6, 39.6 ], [ -121.6, 39.2 ], [ -121.2, 39.2 ] ] ] } },
{ "type": "Feature", "properties": { "block_id": -3039901, "lon_min": -121.6, "lon_max": -121.2, "lat_min": 39.6, "lat_max": 40.0, "n_nure": 0, "mean_p": null, "max_p": null, "loco_auc": null, "campaign_class": "skip", "walk_rank": null, "spatial_flag": "no_nure" }, "geometry": { "type": "Polygon", "coordinates": [ [ [ -121.2, 39.6 ], [ -121.2, 40.0 ], [ -121.6, 40.0 ], [ -121.6, 39.6 ], [ -121.2, 39.6 ] ] ] } },
{ "type": "Feature", "properties": { "block_id": -3039900, "lon_min": -121.6, "lon_max": -121.2, "lat_min": 40.0, "lat_max": 40.4, "n_nure": 0, "mean_p": null, "max_p": null, "loco_auc": null, "campaign_class": "skip", "walk_rank": null, "spatial_flag": "no_nure" }, "geometry": { "type": "Polygon", "coordinates": [ [ [ -121.2, 40.0 ], [ -121.2, 40.4 ], [ -121.6, 40.4 ], [ -121.6, 40.0 ], [ -121.2, 40.0 ] ] ] } },
{ "type": "Feature", "properties": { "block_id": -3029904, "lon_min": -121.2, "lon_max": -120.8, "lat_min": 38.4, "lat_max": 38.8, "n_nure": 116, "mean_p": 0.4063, "max_p": 0.47, "loco_auc": null, "campaign_class": "watch", "walk_rank": 7, "spatial_flag": "near_known_gold" }, "geometry": { "type": "Polygon", "coordinates": [ [ [ -120.8, 38.4 ], [ -120.8, 38.8 ], [ -121.2, 38.8 ], [ -121.2, 38.4 ], [ -120.8, 38.4 ] ] ] } },
{ "type": "Feature", "properties": { "block_id": -3029903, "lon_min": -121.2, "lon_max": -120.8, "lat_min": 38.8, "lat_max": 39.2, "n_nure": 73, "mean_p": 0.4052, "max_p": 0.49, "loco_auc": 0.4789, "campaign_class": "watch", "walk_rank": 8, "spatial_flag": "near_known_gold" }, "geometry": { "type": "Polygon", "coordinates": [ [ [ -120.8, 38.8 ], [ -120.8, 39.2 ], [ -121.2, 39.2 ], [ -121.2, 38.8 ], [ -120.8, 38.8 ] ] ] } },
{ "type": "Feature", "properties": { "block_id": -3029902, "lon_min": -121.2, "lon_max": -120.8, "lat_min": 39.2, "lat_max": 39.6, "n_nure": 0, "mean_p": null, "max_p": null, "loco_auc": null, "campaign_class": "skip", "walk_rank": null, "spatial_flag": "no_nure" }, "geometry": { "type": "Polygon", "coordinates": [ [ [ -120.8, 39.2 ], [ -120.8, 39.6 ], [ -121.2, 39.6 ], [ -121.2, 39.2 ], [ -120.8, 39.2 ] ] ] } },
{ "type": "Feature", "properties": { "block_id": -3029901, "lon_min": -121.2, "lon_max": -120.8, "lat_min": 39.6, "lat_max": 40.0, "n_nure": 0, "mean_p": null, "max_p": null, "loco_auc": null, "campaign_class": "skip", "walk_rank": null, "spatial_flag": "no_nure" }, "geometry": { "type": "Polygon", "coordinates": [ [ [ -120.8, 39.6 ], [ -120.8, 40.0 ], [ -121.2, 40.0 ], [ -121.2, 39.6 ], [ -120.8, 39.6 ] ] ] } },
{ "type": "Feature", "properties": { "block_id": -3029900, "lon_min": -121.2, "lon_max": -120.8, "lat_min": 40.0, "lat_max": 40.4, "n_nure": 0, "mean_p": null, "max_p": null, "loco_auc": null, "campaign_class": "skip", "walk_rank": null, "spatial_flag": "no_nure" }, "geometry": { "type": "Polygon", "coordinates": [ [ [ -120.8, 40.0 ], [ -120.8, 40.4 ], [ -121.2, 40.4 ], [ -121.2, 40.0 ], [ -120.8, 40.0 ] ] ] } },
{ "type": "Feature", "properties": { "block_id": -3019904, "lon_min": -120.8, "lon_max": -120.4, "lat_min": 38.4, "lat_max": 38.8, "n_nure": 105, "mean_p": 0.3651, "max_p": 0.48, "loco_auc": 0.665, "campaign_class": "watch", "walk_rank": 5, "spatial_flag": "near_known_gold" }, "geometry": { "type": "Polygon", "coordinates": [ [ [ -120.4, 38.4 ], [ -120.4, 38.8 ], [ -120.8, 38.8 ], [ -120.8, 38.4 ], [ -120.4, 38.4 ] ] ] } },
{ "type": "Feature", "properties": { "block_id": -3019903, "lon_min": -120.8, "lon_max": -120.4, "lat_min": 38.8, "lat_max": 39.2, "n_nure": 75, "mean_p": 0.3507, "max_p": 0.515, "loco_auc": 0.506, "campaign_class": "watch", "walk_rank": 6, "spatial_flag": "near_known_gold" }, "geometry": { "type": "Polygon", "coordinates": [ [ [ -120.4, 38.8 ], [ -120.4, 39.2 ], [ -120.8, 39.2 ], [ -120.8, 38.8 ], [ -120.4, 38.8 ] ] ] } },
{ "type": "Feature", "properties": { "block_id": -3019902, "lon_min": -120.8, "lon_max": -120.4, "lat_min": 39.2, "lat_max": 39.6, "n_nure": 0, "mean_p": null, "max_p": null, "loco_auc": null, "campaign_class": "skip", "walk_rank": null, "spatial_flag": "no_nure" }, "geometry": { "type": "Polygon", "coordinates": [ [ [ -120.4, 39.2 ], [ -120.4, 39.6 ], [ -120.8, 39.6 ], [ -120.8, 39.2 ], [ -120.4, 39.2 ] ] ] } },
{ "type": "Feature", "properties": { "block_id": -3019901, "lon_min": -120.8, "lon_max": -120.4, "lat_min": 39.6, "lat_max": 40.0, "n_nure": 0, "mean_p": null, "max_p": null, "loco_auc": null, "campaign_class": "skip", "walk_rank": null, "spatial_flag": "no_nure" }, "geometry": { "type": "Polygon", "coordinates": [ [ [ -120.4, 39.6 ], [ -120.4, 40.0 ], [ -120.8, 40.0 ], [ -120.8, 39.6 ], [ -120.4, 39.6 ] ] ] } },
{ "type": "Feature", "properties": { "block_id": -3019900, "lon_min": -120.8, "lon_max": -120.4, "lat_min": 40.0, "lat_max": 40.4, "n_nure": 0, "mean_p": null, "max_p": null, "loco_auc": null, "campaign_class": "skip", "walk_rank": null, "spatial_flag": "no_nure" }, "geometry": { "type": "Polygon", "coordinates": [ [ [ -120.4, 40.0 ], [ -120.4, 40.4 ], [ -120.8, 40.4 ], [ -120.8, 40.0 ], [ -120.4, 40.0 ] ] ] } },
{ "type": "Feature", "properties": { "block_id": -3009904, "lon_min": -120.4, "lon_max": -119.99999999999997, "lat_min": 38.4, "lat_max": 38.8, "n_nure": 0, "mean_p": null, "max_p": null, "loco_auc": null, "campaign_class": "skip", "walk_rank": null, "spatial_flag": "no_nure" }, "geometry": { "type": "Polygon", "coordinates": [ [ [ -120.0, 38.4 ], [ -120.0, 38.8 ], [ -120.4, 38.8 ], [ -120.4, 38.4 ], [ -120.0, 38.4 ] ] ] } },
{ "type": "Feature", "properties": { "block_id": -3009903, "lon_min": -120.4, "lon_max": -119.99999999999997, "lat_min": 38.8, "lat_max": 39.2, "n_nure": 0, "mean_p": null, "max_p": null, "loco_auc": null, "campaign_class": "skip", "walk_rank": null, "spatial_flag": "no_nure" }, "geometry": { "type": "Polygon", "coordinates": [ [ [ -120.0, 38.8 ], [ -120.0, 39.2 ], [ -120.4, 39.2 ], [ -120.4, 38.8 ], [ -120.0, 38.8 ] ] ] } },
{ "type": "Feature", "properties": { "block_id": -3009902, "lon_min": -120.4, "lon_max": -119.99999999999997, "lat_min": 39.2, "lat_max": 39.6, "n_nure": 0, "mean_p": null, "max_p": null, "loco_auc": null, "campaign_class": "skip", "walk_rank": null, "spatial_flag": "no_nure" }, "geometry": { "type": "Polygon", "coordinates": [ [ [ -120.0, 39.2 ], [ -120.0, 39.6 ], [ -120.4, 39.6 ], [ -120.4, 39.2 ], [ -120.0, 39.2 ] ] ] } },
{ "type": "Feature", "properties": { "block_id": -3009901, "lon_min": -120.4, "lon_max": -119.99999999999997, "lat_min": 39.6, "lat_max": 40.0, "n_nure": 0, "mean_p": null, "max_p": null, "loco_auc": null, "campaign_class": "skip", "walk_rank": null, "spatial_flag": "no_nure" }, "geometry": { "type": "Polygon", "coordinates": [ [ [ -120.0, 39.6 ], [ -120.0, 40.0 ], [ -120.4, 40.0 ], [ -120.4, 39.6 ], [ -120.0, 39.6 ] ] ] } },
{ "type": "Feature", "properties": { "block_id": -3009900, "lon_min": -120.4, "lon_max": -119.99999999999997, "lat_min": 40.0, "lat_max": 40.4, "n_nure": 0, "mean_p": null, "max_p": null, "loco_auc": null, "campaign_class": "skip", "walk_rank": null, "spatial_flag": "no_nure" }, "geometry": { "type": "Polygon", "coordinates": [ [ [ -120.0, 40.0 ], [ -120.0, 40.4 ], [ -120.4, 40.4 ], [ -120.4, 40.0 ], [ -120.0, 40.0 ] ] ] } }
]
}
