{
"type": "FeatureCollection",
"name": "task11_pour_points",
"crs": { "type": "name", "properties": { "name": "urn:ogc:def:crs:OGC:1.3:CRS84" } },
"features": [
{ "type": "Feature", "properties": { "block_id": -3049904, "name": "block_-3049904", "lon": -121.6279, "lat": 38.5574, "p_anomalous": 0.275, "elev_m": 3.4014649391174316, "nearest_gold_deg": 0.17283637232943871, "spatial_flag": "far_from_known_gold", "campaign_class": "skip", "walk_rank": null }, "geometry": { "type": "Point", "coordinates": [ -121.6279, 38.5574 ] } },
{ "type": "Feature", "properties": { "block_id": -3049903, "name": "block_-3049903", "lon": -121.6981, "lat": 38.8201, "p_anomalous": 0.095, "elev_m": 4.5, "nearest_gold_deg": 0.25083972911004426, "spatial_flag": "far_from_known_gold", "campaign_class": "skip", "walk_rank": null }, "geometry": { "type": "Point", "coordinates": [ -121.6981, 38.8201 ] } },
{ "type": "Feature", "properties": { "block_id": -3039904, "name": "block_-3039904", "lon": -121.5631, "lat": 38.5123, "p_anomalous": 0.23, "elev_m": 2.3929910659790039, "nearest_gold_deg": 0.1128111944799888, "spatial_flag": "near_known_gold", "campaign_class": "expedition", "walk_rank": 2 }, "geometry": { "type": "Point", "coordinates": [ -121.5631, 38.5123 ] } },
{ "type": "Feature", "properties": { "block_id": -3039903, "name": "block_-3039903", "lon": -121.5554, "lat": 38.8669, "p_anomalous": 0.115, "elev_m": 8.2845296859741211, "nearest_gold_deg": 0.1431918003937368, "spatial_flag": "near_known_gold", "campaign_class": "expedition", "walk_rank": 1 }, "geometry": { "type": "Point", "coordinates": [ -121.5554, 38.8669 ] } },
{ "type": "Feature", "properties": { "block_id": -3029904, "name": "block_-3029904", "lon": -121.0478, "lat": 38.5143, "p_anomalous": 0.97, "elev_m": 63.059505462646484, "nearest_gold_deg": 0.013019923194856139, "spatial_flag": "near_known_gold", "campaign_class": "confirm", "walk_rank": 5 }, "geometry": { "type": "Point", "coordinates": [ -121.0478, 38.5143 ] } },
{ "type": "Feature", "properties": { "block_id": -3029903, "name": "block_-3029903", "lon": -121.1913, "lat": 38.8258, "p_anomalous": 0.985, "elev_m": 111.03614044189453, "nearest_gold_deg": 0.018102845080263268, "spatial_flag": "near_known_gold", "campaign_class": "confirm", "walk_rank": 4 }, "geometry": { "type": "Point", "coordinates": [ -121.1913, 38.8258 ] } },
{ "type": "Feature", "properties": { "block_id": -3019904, "name": "block_-3019904", "lon": -120.7802, "lat": 38.5994, "p_anomalous": 0.955, "elev_m": 395.56939697265625, "nearest_gold_deg": 0.024640584408658069, "spatial_flag": "near_known_gold", "campaign_class": "confirm", "walk_rank": 3 }, "geometry": { "type": "Point", "coordinates": [ -120.7802, 38.5994 ] } },
{ "type": "Feature", "properties": { "block_id": -3019903, "name": "block_-3019903", "lon": -120.7886, "lat": 38.8538, "p_anomalous": 0.965, "elev_m": 732.03179931640625, "nearest_gold_deg": 0.0021256528408965217, "spatial_flag": "near_known_gold", "campaign_class": "confirm", "walk_rank": 6 }, "geometry": { "type": "Point", "coordinates": [ -120.7886, 38.8538 ] } }
]
}
