{
"type": "FeatureCollection",
"name": "task11_spatial_cv_blocks_0p4deg",
"crs": { "type": "name", "properties": { "name": "urn:ogc:def:crs:OGC:1.3:CRS84" } },
"features": [
{ "type": "Feature", "properties": { "block_id": -1959912, "lon_min": -78.4, "lon_max": -78.0, "lat_min": 35.2, "lat_max": 35.6, "n_nure": 20, "mean_p": 0.3811, "max_p": 0.5546, "loco_auc": null, "campaign_class": "watch", "walk_rank": 7, "spatial_flag": "far_from_known_gold" }, "geometry": { "type": "Polygon", "coordinates": [ [ [ -78.0, 35.2 ], [ -78.0, 35.6 ], [ -78.4, 35.6 ], [ -78.4, 35.2 ], [ -78.0, 35.2 ] ] ] } },
{ "type": "Feature", "properties": { "block_id": -1959911, "lon_min": -78.4, "lon_max": -78.0, "lat_min": 35.6, "lat_max": 36.0, "n_nure": 74, "mean_p": 0.3817, "max_p": 0.5614, "loco_auc": null, "campaign_class": "watch", "walk_rank": 10, "spatial_flag": "far_from_known_gold" }, "geometry": { "type": "Polygon", "coordinates": [ [ [ -78.0, 35.6 ], [ -78.0, 36.0 ], [ -78.4, 36.0 ], [ -78.4, 35.6 ], [ -78.0, 35.6 ] ] ] } },
{ "type": "Feature", "properties": { "block_id": -1959910, "lon_min": -78.4, "lon_max": -78.0, "lat_min": 36.0, "lat_max": 36.4, "n_nure": 146, "mean_p": 0.3332, "max_p": 0.4848, "loco_auc": 0.6402, "campaign_class": "watch", "walk_rank": 12, "spatial_flag": "near_known_gold" }, "geometry": { "type": "Polygon", "coordinates": [ [ [ -78.0, 36.0 ], [ -78.0, 36.4 ], [ -78.4, 36.4 ], [ -78.4, 36.0 ], [ -78.0, 36.0 ] ] ] } },
{ "type": "Feature", "properties": { "block_id": -1959909, "lon_min": -78.4, "lon_max": -78.0, "lat_min": 36.4, "lat_max": 36.8, "n_nure": 30, "mean_p": 0.3312, "max_p": 0.4034, "loco_auc": null, "campaign_class": "watch", "walk_rank": 11, "spatial_flag": "far_from_known_gold" }, "geometry": { "type": "Polygon", "coordinates": [ [ [ -78.0, 36.4 ], [ -78.0, 36.8 ], [ -78.4, 36.8 ], [ -78.4, 36.4 ], [ -78.0, 36.4 ] ] ] } },
{ "type": "Feature", "properties": { "block_id": -1949912, "lon_min": -78.0, "lon_max": -77.6, "lat_min": 35.2, "lat_max": 35.6, "n_nure": 20, "mean_p": 0.3541, "max_p": 0.4996, "loco_auc": null, "campaign_class": "watch", "walk_rank": 8, "spatial_flag": "far_from_known_gold" }, "geometry": { "type": "Polygon", "coordinates": [ [ [ -77.6, 35.2 ], [ -77.6, 35.6 ], [ -78.0, 35.6 ], [ -78.0, 35.2 ], [ -77.6, 35.2 ] ] ] } },
{ "type": "Feature", "properties": { "block_id": -1949911, "lon_min": -78.0, "lon_max": -77.6, "lat_min": 35.6, "lat_max": 36.0, "n_nure": 91, "mean_p": 0.3673, "max_p": 0.6247, "loco_auc": 0.8146, "campaign_class": "expedition", "walk_rank": 3, "spatial_flag": "far_from_known_gold" }, "geometry": { "type": "Polygon", "coordinates": [ [ [ -77.6, 35.6 ], [ -77.6, 36.0 ], [ -78.0, 36.0 ], [ -78.0, 35.6 ], [ -77.6, 35.6 ] ] ] } },
{ "type": "Feature", "properties": { "block_id": -1949910, "lon_min": -78.0, "lon_max": -77.6, "lat_min": 36.0, "lat_max": 36.4, "n_nure": 98, "mean_p": 0.4121, "max_p": 0.6565, "loco_auc": 0.5551, "campaign_class": "expedition", "walk_rank": 5, "spatial_flag": "far_from_known_gold" }, "geometry": { "type": "Polygon", "coordinates": [ [ [ -77.6, 36.0 ], [ -77.6, 36.4 ], [ -78.0, 36.4 ], [ -78.0, 36.0 ], [ -77.6, 36.0 ] ] ] } },
{ "type": "Feature", "properties": { "block_id": -1949909, "lon_min": -78.0, "lon_max": -77.6, "lat_min": 36.4, "lat_max": 36.8, "n_nure": 19, "mean_p": 0.4148, "max_p": 0.6968, "loco_auc": null, "campaign_class": "expedition", "walk_rank": 4, "spatial_flag": "far_from_known_gold" }, "geometry": { "type": "Polygon", "coordinates": [ [ [ -77.6, 36.4 ], [ -77.6, 36.8 ], [ -78.0, 36.8 ], [ -78.0, 36.4 ], [ -77.6, 36.4 ] ] ] } },
{ "type": "Feature", "properties": { "block_id": -1939912, "lon_min": -77.6, "lon_max": -77.2, "lat_min": 35.2, "lat_max": 35.6, "n_nure": 8, "mean_p": 0.335, "max_p": 0.425, "loco_auc": null, "campaign_class": "watch", "walk_rank": 6, "spatial_flag": "far_from_known_gold" }, "geometry": { "type": "Polygon", "coordinates": [ [ [ -77.2, 35.2 ], [ -77.2, 35.6 ], [ -77.6, 35.6 ], [ -77.6, 35.2 ], [ -77.2, 35.2 ] ] ] } },
{ "type": "Feature", "properties": { "block_id": -1939911, "lon_min": -77.6, "lon_max": -77.2, "lat_min": 35.6, "lat_max": 36.0, "n_nure": 38, "mean_p": 0.3362, "max_p": 0.44, "loco_auc": null, "campaign_class": "watch", "walk_rank": 9, "spatial_flag": "far_from_known_gold" }, "geometry": { "type": "Polygon", "coordinates": [ [ [ -77.2, 35.6 ], [ -77.2, 36.0 ], [ -77.6, 36.0 ], [ -77.6, 35.6 ], [ -77.2, 35.6 ] ] ] } },
{ "type": "Feature", "properties": { "block_id": -1939910, "lon_min": -77.6, "lon_max": -77.2, "lat_min": 36.0, "lat_max": 36.4, "n_nure": 32, "mean_p": 0.3944, "max_p": 0.7114, "loco_auc": null, "campaign_class": "expedition", "walk_rank": 2, "spatial_flag": "far_from_known_gold" }, "geometry": { "type": "Polygon", "coordinates": [ [ [ -77.2, 36.0 ], [ -77.2, 36.4 ], [ -77.6, 36.4 ], [ -77.6, 36.0 ], [ -77.2, 36.0 ] ] ] } },
{ "type": "Feature", "properties": { "block_id": -1939909, "lon_min": -77.6, "lon_max": -77.2, "lat_min": 36.4, "lat_max": 36.8, "n_nure": 12, "mean_p": 0.4166, "max_p": 0.6438, "loco_auc": null, "campaign_class": "expedition", "walk_rank": 1, "spatial_flag": "far_from_known_gold" }, "geometry": { "type": "Polygon", "coordinates": [ [ [ -77.2, 36.4 ], [ -77.2, 36.8 ], [ -77.6, 36.8 ], [ -77.6, 36.4 ], [ -77.2, 36.4 ] ] ] } }
]
}
