{
"type": "FeatureCollection",
"name": "task11_pour_points",
"crs": { "type": "name", "properties": { "name": "urn:ogc:def:crs:OGC:1.3:CRS84" } },
"features": [
{ "type": "Feature", "properties": { "block_id": -1959912, "name": "block_-1959912", "lon": -78.0217, "lat": 35.5592, "p_anomalous": 0.38782771535580518, "elev_m": 44.333660125732422, "nearest_gold_deg": 0.57050617753009647, "spatial_flag": "far_from_known_gold", "campaign_class": "watch", "walk_rank": 7 }, "geometry": { "type": "Point", "coordinates": [ -78.0217, 35.5592 ] } },
{ "type": "Feature", "properties": { "block_id": -1959911, "name": "block_-1959911", "lon": -78.0283, "lat": 35.6425, "p_anomalous": 0.46005259573858043, "elev_m": 33.523136138916016, "nearest_gold_deg": 0.48763768373660438, "spatial_flag": "far_from_known_gold", "campaign_class": "watch", "walk_rank": 10 }, "geometry": { "type": "Point", "coordinates": [ -78.0283, 35.6425 ] } },
{ "type": "Feature", "properties": { "block_id": -1959910, "name": "block_-1959910", "lon": -78.014, "lat": 36.2297, "p_anomalous": 0.43831729212750281, "elev_m": 52.611289978027344, "nearest_gold_deg": 0.029716266589194944, "spatial_flag": "near_known_gold", "campaign_class": "watch", "walk_rank": 12 }, "geometry": { "type": "Point", "coordinates": [ -78.014, 36.2297 ] } },
{ "type": "Feature", "properties": { "block_id": -1959909, "name": "block_-1959909", "lon": -78.2434, "lat": 36.4897, "p_anomalous": 0.4, "elev_m": 81.982994079589844, "nearest_gold_deg": 0.36798544060872346, "spatial_flag": "far_from_known_gold", "campaign_class": "watch", "walk_rank": 11 }, "geometry": { "type": "Point", "coordinates": [ -78.2434, 36.4897 ] } },
{ "type": "Feature", "properties": { "block_id": -1949912, "name": "block_-1949912", "lon": -77.8445, "lat": 35.5913, "p_anomalous": 0.35572007777359638, "elev_m": 18.966054916381836, "nearest_gold_deg": 0.55063390324244055, "spatial_flag": "far_from_known_gold", "campaign_class": "watch", "walk_rank": 8 }, "geometry": { "type": "Point", "coordinates": [ -77.8445, 35.5913 ] } },
{ "type": "Feature", "properties": { "block_id": -1949911, "name": "block_-1949911", "lon": -77.703, "lat": 35.8143, "p_anomalous": 0.37, "elev_m": 20.700729370117188, "nearest_gold_deg": 0.35131347170297672, "spatial_flag": "far_from_known_gold", "campaign_class": "expedition", "walk_rank": 3 }, "geometry": { "type": "Point", "coordinates": [ -77.703, 35.8143 ] } },
{ "type": "Feature", "properties": { "block_id": -1949910, "name": "block_-1949910", "lon": -77.6148, "lat": 36.1431, "p_anomalous": 0.46961242445475571, "elev_m": 28.625991821289062, "nearest_gold_deg": 0.17984881011560741, "spatial_flag": "far_from_known_gold", "campaign_class": "expedition", "walk_rank": 5 }, "geometry": { "type": "Point", "coordinates": [ -77.6148, 36.1431 ] } },
{ "type": "Feature", "properties": { "block_id": -1949909, "name": "block_-1949909", "lon": -77.6346, "lat": 36.4819, "p_anomalous": 0.47144015554719282, "elev_m": 19.0, "nearest_gold_deg": 0.31672125047113492, "spatial_flag": "far_from_known_gold", "campaign_class": "expedition", "walk_rank": 4 }, "geometry": { "type": "Point", "coordinates": [ -77.6346, 36.4819 ] } },
{ "type": "Feature", "properties": { "block_id": -1939912, "name": "block_-1939912", "lon": -77.3785, "lat": 35.5535, "p_anomalous": 0.395, "elev_m": 17.880634307861328, "nearest_gold_deg": 0.74171031771170548, "spatial_flag": "far_from_known_gold", "campaign_class": "watch", "walk_rank": 6 }, "geometry": { "type": "Point", "coordinates": [ -77.3785, 35.5535 ] } },
{ "type": "Feature", "properties": { "block_id": -1939911, "name": "block_-1939911", "lon": -77.4813, "lat": 35.7217, "p_anomalous": 0.40202215980024969, "elev_m": 8.809666633605957, "nearest_gold_deg": 0.546097119018219, "spatial_flag": "far_from_known_gold", "campaign_class": "watch", "walk_rank": 9 }, "geometry": { "type": "Point", "coordinates": [ -77.4813, 35.7217 ] } },
{ "type": "Feature", "properties": { "block_id": -1939910, "name": "block_-1939910", "lon": -77.3672, "lat": 36.2274, "p_anomalous": 0.4678277153558052, "elev_m": 11.387181282043457, "nearest_gold_deg": 0.41795105514880931, "spatial_flag": "far_from_known_gold", "campaign_class": "expedition", "walk_rank": 2 }, "geometry": { "type": "Point", "coordinates": [ -77.3672, 36.2274 ] } },
{ "type": "Feature", "properties": { "block_id": -1939909, "name": "block_-1939909", "lon": -77.3732, "lat": 36.4037, "p_anomalous": 0.59380686889920031, "elev_m": 29.858097076416016, "nearest_gold_deg": 0.45765360099097058, "spatial_flag": "far_from_known_gold", "campaign_class": "expedition", "walk_rank": 1 }, "geometry": { "type": "Point", "coordinates": [ -77.3732, 36.4037 ] } }
]
}
