{
"type": "FeatureCollection",
"name": "task11_field_campaign_targets",
"crs": { "type": "name", "properties": { "name": "urn:ogc:def:crs:OGC:1.3:CRS84" } },
"features": [
{ "type": "Feature", "properties": { "walk_rank": 1, "block_id": -1939909, "campaign_class": "expedition", "spot_order": 1, "role": "pour_point", "lon": -77.3732, "lat": 36.4037, "p_anomalous": 0.5938, "elev_m": 29.9 }, "geometry": { "type": "Point", "coordinates": [ -77.3732, 36.4037 ] } },
{ "type": "Feature", "properties": { "walk_rank": 1, "block_id": -1939909, "campaign_class": "expedition", "spot_order": 2, "role": "high_p_sample", "lon": -77.4016, "lat": 36.392, "p_anomalous": 0.4314, "elev_m": 26.7 }, "geometry": { "type": "Point", "coordinates": [ -77.4016, 36.392 ] } },
{ "type": "Feature", "properties": { "walk_rank": 2, "block_id": -1939910, "campaign_class": "expedition", "spot_order": 1, "role": "high_p_sample", "lon": -77.4995, "lat": 36.4066, "p_anomalous": 0.5701, "elev_m": 42.8 }, "geometry": { "type": "Point", "coordinates": [ -77.4995, 36.4066 ] } },
{ "type": "Feature", "properties": { "walk_rank": 2, "block_id": -1939910, "campaign_class": "expedition", "spot_order": 2, "role": "high_p_sample", "lon": -77.4485, "lat": 36.384, "p_anomalous": 0.5496, "elev_m": 37.0 }, "geometry": { "type": "Point", "coordinates": [ -77.4485, 36.384 ] } },
{ "type": "Feature", "properties": { "walk_rank": 2, "block_id": -1939910, "campaign_class": "expedition", "spot_order": 3, "role": "high_p_sample", "lon": -77.3501, "lat": 36.2429, "p_anomalous": 0.56, "elev_m": 14.4 }, "geometry": { "type": "Point", "coordinates": [ -77.3501, 36.2429 ] } },
{ "type": "Feature", "properties": { "walk_rank": 2, "block_id": -1939910, "campaign_class": "expedition", "spot_order": 4, "role": "pour_point", "lon": -77.3672, "lat": 36.2274, "p_anomalous": 0.4678, "elev_m": 11.4 }, "geometry": { "type": "Point", "coordinates": [ -77.3672, 36.2274 ] } },
{ "type": "Feature", "properties": { "walk_rank": 3, "block_id": -1949911, "campaign_class": "expedition", "spot_order": 1, "role": "high_p_sample", "lon": -77.8753, "lat": 35.7794, "p_anomalous": 0.5696, "elev_m": 43.8 }, "geometry": { "type": "Point", "coordinates": [ -77.8753, 35.7794 ] } },
{ "type": "Feature", "properties": { "walk_rank": 3, "block_id": -1949911, "campaign_class": "expedition", "spot_order": 2, "role": "high_p_sample", "lon": -77.8602, "lat": 35.7597, "p_anomalous": 0.5401, "elev_m": 38.4 }, "geometry": { "type": "Point", "coordinates": [ -77.8602, 35.7597 ] } },
{ "type": "Feature", "properties": { "walk_rank": 3, "block_id": -1949911, "campaign_class": "expedition", "spot_order": 3, "role": "high_p_sample", "lon": -77.8361, "lat": 35.8386, "p_anomalous": 0.6247, "elev_m": 37.0 }, "geometry": { "type": "Point", "coordinates": [ -77.8361, 35.8386 ] } },
{ "type": "Feature", "properties": { "walk_rank": 3, "block_id": -1949911, "campaign_class": "expedition", "spot_order": 4, "role": "pour_point", "lon": -77.703, "lat": 35.8143, "p_anomalous": 0.37, "elev_m": 20.7 }, "geometry": { "type": "Point", "coordinates": [ -77.703, 35.8143 ] } },
{ "type": "Feature", "properties": { "walk_rank": 4, "block_id": -1949909, "campaign_class": "expedition", "spot_order": 1, "role": "high_p_sample", "lon": -77.7022, "lat": 36.458, "p_anomalous": 0.5083, "elev_m": 57.0 }, "geometry": { "type": "Point", "coordinates": [ -77.7022, 36.458 ] } },
{ "type": "Feature", "properties": { "walk_rank": 4, "block_id": -1949909, "campaign_class": "expedition", "spot_order": 2, "role": "high_p_sample", "lon": -77.6541, "lat": 36.4323, "p_anomalous": 0.5, "elev_m": 49.7 }, "geometry": { "type": "Point", "coordinates": [ -77.6541, 36.4323 ] } },
{ "type": "Feature", "properties": { "walk_rank": 4, "block_id": -1949909, "campaign_class": "expedition", "spot_order": 3, "role": "high_p_sample", "lon": -77.6199, "lat": 36.4106, "p_anomalous": 0.6968, "elev_m": 45.1 }, "geometry": { "type": "Point", "coordinates": [ -77.6199, 36.4106 ] } },
{ "type": "Feature", "properties": { "walk_rank": 4, "block_id": -1949909, "campaign_class": "expedition", "spot_order": 4, "role": "pour_point", "lon": -77.6346, "lat": 36.4819, "p_anomalous": 0.4714, "elev_m": 19.0 }, "geometry": { "type": "Point", "coordinates": [ -77.6346, 36.4819 ] } },
{ "type": "Feature", "properties": { "walk_rank": 5, "block_id": -1949910, "campaign_class": "expedition", "spot_order": 1, "role": "high_p_sample", "lon": -77.6793, "lat": 36.3471, "p_anomalous": 0.6102, "elev_m": 66.1 }, "geometry": { "type": "Point", "coordinates": [ -77.6793, 36.3471 ] } },
{ "type": "Feature", "properties": { "walk_rank": 5, "block_id": -1949910, "campaign_class": "expedition", "spot_order": 2, "role": "high_p_sample", "lon": -77.6578, "lat": 36.3635, "p_anomalous": 0.6565, "elev_m": 45.5 }, "geometry": { "type": "Point", "coordinates": [ -77.6578, 36.3635 ] } },
{ "type": "Feature", "properties": { "walk_rank": 5, "block_id": -1949910, "campaign_class": "expedition", "spot_order": 3, "role": "high_p_sample", "lon": -77.6148, "lat": 36.2073, "p_anomalous": 0.5918, "elev_m": 38.9 }, "geometry": { "type": "Point", "coordinates": [ -77.6148, 36.2073 ] } },
{ "type": "Feature", "properties": { "walk_rank": 5, "block_id": -1949910, "campaign_class": "expedition", "spot_order": 4, "role": "pour_point", "lon": -77.6148, "lat": 36.1431, "p_anomalous": 0.4696, "elev_m": 28.6 }, "geometry": { "type": "Point", "coordinates": [ -77.6148, 36.1431 ] } },
{ "type": "Feature", "properties": { "walk_rank": 6, "block_id": -1939912, "campaign_class": "watch", "spot_order": 1, "role": "pour_point", "lon": -77.3785, "lat": 35.5535, "p_anomalous": 0.395, "elev_m": 17.9 }, "geometry": { "type": "Point", "coordinates": [ -77.3785, 35.5535 ] } },
{ "type": "Feature", "properties": { "walk_rank": 7, "block_id": -1959912, "campaign_class": "watch", "spot_order": 1, "role": "high_p_sample", "lon": -78.0609, "lat": 35.5494, "p_anomalous": 0.4578, "elev_m": 54.4 }, "geometry": { "type": "Point", "coordinates": [ -78.0609, 35.5494 ] } },
{ "type": "Feature", "properties": { "walk_rank": 7, "block_id": -1959912, "campaign_class": "watch", "spot_order": 2, "role": "pour_point", "lon": -78.0217, "lat": 35.5592, "p_anomalous": 0.3878, "elev_m": 44.3 }, "geometry": { "type": "Point", "coordinates": [ -78.0217, 35.5592 ] } },
{ "type": "Feature", "properties": { "walk_rank": 8, "block_id": -1949912, "campaign_class": "watch", "spot_order": 1, "role": "high_p_sample", "lon": -78.0609, "lat": 35.5494, "p_anomalous": 0.4578, "elev_m": 54.4 }, "geometry": { "type": "Point", "coordinates": [ -78.0609, 35.5494 ] } },
{ "type": "Feature", "properties": { "walk_rank": 8, "block_id": -1949912, "campaign_class": "watch", "spot_order": 2, "role": "high_p_sample", "lon": -77.9761, "lat": 35.5838, "p_anomalous": 0.4996, "elev_m": 34.7 }, "geometry": { "type": "Point", "coordinates": [ -77.9761, 35.5838 ] } },
{ "type": "Feature", "properties": { "walk_rank": 8, "block_id": -1949912, "campaign_class": "watch", "spot_order": 3, "role": "high_p_sample", "lon": -78.0283, "lat": 35.6425, "p_anomalous": 0.4601, "elev_m": 33.5 }, "geometry": { "type": "Point", "coordinates": [ -78.0283, 35.6425 ] } },
{ "type": "Feature", "properties": { "walk_rank": 8, "block_id": -1949912, "campaign_class": "watch", "spot_order": 4, "role": "pour_point", "lon": -77.8445, "lat": 35.5913, "p_anomalous": 0.3557, "elev_m": 19.0 }, "geometry": { "type": "Point", "coordinates": [ -77.8445, 35.5913 ] } },
{ "type": "Feature", "properties": { "walk_rank": 9, "block_id": -1939911, "campaign_class": "watch", "spot_order": 1, "role": "high_p_sample", "lon": -77.422, "lat": 35.6216, "p_anomalous": 0.44, "elev_m": 42.4 }, "geometry": { "type": "Point", "coordinates": [ -77.422, 35.6216 ] } },
{ "type": "Feature", "properties": { "walk_rank": 9, "block_id": -1939911, "campaign_class": "watch", "spot_order": 2, "role": "high_p_sample", "lon": -77.4749, "lat": 35.9484, "p_anomalous": 0.44, "elev_m": 33.6 }, "geometry": { "type": "Point", "coordinates": [ -77.4749, 35.9484 ] } },
{ "type": "Feature", "properties": { "walk_rank": 9, "block_id": -1939911, "campaign_class": "watch", "spot_order": 3, "role": "high_p_sample", "lon": -77.5526, "lat": 35.7617, "p_anomalous": 0.435, "elev_m": 25.0 }, "geometry": { "type": "Point", "coordinates": [ -77.5526, 35.7617 ] } },
{ "type": "Feature", "properties": { "walk_rank": 9, "block_id": -1939911, "campaign_class": "watch", "spot_order": 4, "role": "pour_point", "lon": -77.4813, "lat": 35.7217, "p_anomalous": 0.402, "elev_m": 8.8 }, "geometry": { "type": "Point", "coordinates": [ -77.4813, 35.7217 ] } },
{ "type": "Feature", "properties": { "walk_rank": 10, "block_id": -1959911, "campaign_class": "watch", "spot_order": 1, "role": "high_p_sample", "lon": -78.0612, "lat": 35.6559, "p_anomalous": 0.4064, "elev_m": 57.8 }, "geometry": { "type": "Point", "coordinates": [ -78.0612, 35.6559 ] } },
{ "type": "Feature", "properties": { "walk_rank": 10, "block_id": -1959911, "campaign_class": "watch", "spot_order": 2, "role": "pour_point", "lon": -78.0283, "lat": 35.6425, "p_anomalous": 0.4601, "elev_m": 33.5 }, "geometry": { "type": "Point", "coordinates": [ -78.0283, 35.6425 ] } },
{ "type": "Feature", "properties": { "walk_rank": 11, "block_id": -1959909, "campaign_class": "watch", "spot_order": 1, "role": "pour_point", "lon": -78.2434, "lat": 36.4897, "p_anomalous": 0.4, "elev_m": 82.0 }, "geometry": { "type": "Point", "coordinates": [ -78.2434, 36.4897 ] } },
{ "type": "Feature", "properties": { "walk_rank": 12, "block_id": -1959910, "campaign_class": "watch", "spot_order": 1, "role": "high_p_sample", "lon": -78.147, "lat": 36.3963, "p_anomalous": 0.4262, "elev_m": 104.7 }, "geometry": { "type": "Point", "coordinates": [ -78.147, 36.3963 ] } },
{ "type": "Feature", "properties": { "walk_rank": 12, "block_id": -1959910, "campaign_class": "watch", "spot_order": 2, "role": "high_p_sample", "lon": -78.1661, "lat": 36.3961, "p_anomalous": 0.4723, "elev_m": 103.7 }, "geometry": { "type": "Point", "coordinates": [ -78.1661, 36.3961 ] } },
{ "type": "Feature", "properties": { "walk_rank": 12, "block_id": -1959910, "campaign_class": "watch", "spot_order": 3, "role": "high_p_sample", "lon": -78.2008, "lat": 36.3934, "p_anomalous": 0.4314, "elev_m": 99.5 }, "geometry": { "type": "Point", "coordinates": [ -78.2008, 36.3934 ] } },
{ "type": "Feature", "properties": { "walk_rank": 12, "block_id": -1959910, "campaign_class": "watch", "spot_order": 4, "role": "pour_point", "lon": -78.014, "lat": 36.2297, "p_anomalous": 0.4383, "elev_m": 52.6 }, "geometry": { "type": "Point", "coordinates": [ -78.014, 36.2297 ] } }
]
}
