{
"type": "FeatureCollection",
"name": "task11_field_campaign_targets",
"crs": { "type": "name", "properties": { "name": "urn:ogc:def:crs:OGC:1.3:CRS84" } },
"features": [
{ "type": "Feature", "properties": { "walk_rank": 1, "block_id": -2639905, "campaign_class": "expedition", "spot_order": 1, "role": "high_p_sample", "lon": -105.2325, "lat": 38.3578, "p_anomalous": 0.0, "elev_m": 1858.8 }, "geometry": { "type": "Point", "coordinates": [ -105.2325, 38.3578 ] } },
{ "type": "Feature", "properties": { "walk_rank": 1, "block_id": -2639905, "campaign_class": "expedition", "spot_order": 2, "role": "pour_point", "lon": -105.2047, "lat": 38.3731, "p_anomalous": 0.09, "elev_m": 1751.4 }, "geometry": { "type": "Point", "coordinates": [ -105.2047, 38.3731 ] } },
{ "type": "Feature", "properties": { "walk_rank": 2, "block_id": -2649905, "campaign_class": "confirm", "spot_order": 1, "role": "high_p_sample", "lon": -105.6897, "lat": 38.4344, "p_anomalous": 0.67, "elev_m": 2328.0 }, "geometry": { "type": "Point", "coordinates": [ -105.6897, 38.4344 ] } },
{ "type": "Feature", "properties": { "walk_rank": 2, "block_id": -2649905, "campaign_class": "confirm", "spot_order": 2, "role": "high_p_sample", "lon": -105.6506, "lat": 38.4253, "p_anomalous": 0.74, "elev_m": 2230.6 }, "geometry": { "type": "Point", "coordinates": [ -105.6506, 38.4253 ] } },
{ "type": "Feature", "properties": { "walk_rank": 2, "block_id": -2649905, "campaign_class": "confirm", "spot_order": 3, "role": "pour_point", "lon": -105.6394, "lat": 38.3936, "p_anomalous": 0.145, "elev_m": 1916.3 }, "geometry": { "type": "Point", "coordinates": [ -105.6394, 38.3936 ] } },
{ "type": "Feature", "properties": { "walk_rank": 3, "block_id": -2629905, "campaign_class": "confirm", "spot_order": 1, "role": "high_p_sample", "lon": -105.2867, "lat": 38.2061, "p_anomalous": 0.7, "elev_m": 2585.4 }, "geometry": { "type": "Point", "coordinates": [ -105.2867, 38.2061 ] } },
{ "type": "Feature", "properties": { "walk_rank": 3, "block_id": -2629905, "campaign_class": "confirm", "spot_order": 2, "role": "high_p_sample", "lon": -105.27, "lat": 38.2189, "p_anomalous": 0.685, "elev_m": 2539.7 }, "geometry": { "type": "Point", "coordinates": [ -105.27, 38.2189 ] } },
{ "type": "Feature", "properties": { "walk_rank": 3, "block_id": -2629905, "campaign_class": "confirm", "spot_order": 3, "role": "high_p_sample", "lon": -105.2644, "lat": 38.2275, "p_anomalous": 0.69, "elev_m": 2506.7 }, "geometry": { "type": "Point", "coordinates": [ -105.2644, 38.2275 ] } },
{ "type": "Feature", "properties": { "walk_rank": 3, "block_id": -2629905, "campaign_class": "confirm", "spot_order": 4, "role": "pour_point", "lon": -105.1353, "lat": 38.3953, "p_anomalous": 0.62, "elev_m": 1585.4 }, "geometry": { "type": "Point", "coordinates": [ -105.1353, 38.3953 ] } },
{ "type": "Feature", "properties": { "walk_rank": 4, "block_id": -2629904, "campaign_class": "confirm", "spot_order": 1, "role": "high_p_sample", "lon": -105.1117, "lat": 38.6508, "p_anomalous": 0.665, "elev_m": 2739.4 }, "geometry": { "type": "Point", "coordinates": [ -105.1117, 38.6508 ] } },
{ "type": "Feature", "properties": { "walk_rank": 4, "block_id": -2629904, "campaign_class": "confirm", "spot_order": 2, "role": "high_p_sample", "lon": -105.1761, "lat": 38.4486, "p_anomalous": 0.685, "elev_m": 1631.2 }, "geometry": { "type": "Point", "coordinates": [ -105.1761, 38.4486 ] } },
{ "type": "Feature", "properties": { "walk_rank": 4, "block_id": -2629904, "campaign_class": "confirm", "spot_order": 3, "role": "high_p_sample", "lon": -105.1839, "lat": 38.4478, "p_anomalous": 0.735, "elev_m": 1619.1 }, "geometry": { "type": "Point", "coordinates": [ -105.1839, 38.4478 ] } },
{ "type": "Feature", "properties": { "walk_rank": 4, "block_id": -2629904, "campaign_class": "confirm", "spot_order": 4, "role": "pour_point", "lon": -105.195, "lat": 38.4267, "p_anomalous": 0.65, "elev_m": 1614.3 }, "geometry": { "type": "Point", "coordinates": [ -105.195, 38.4267 ] } },
{ "type": "Feature", "properties": { "walk_rank": 5, "block_id": -2649904, "campaign_class": "confirm", "spot_order": 1, "role": "high_p_sample", "lon": -105.6506, "lat": 38.4253, "p_anomalous": 0.74, "elev_m": 2230.6 }, "geometry": { "type": "Point", "coordinates": [ -105.6506, 38.4253 ] } },
{ "type": "Feature", "properties": { "walk_rank": 5, "block_id": -2649904, "campaign_class": "confirm", "spot_order": 2, "role": "high_p_sample", "lon": -105.6928, "lat": 38.415, "p_anomalous": 0.75, "elev_m": 2210.4 }, "geometry": { "type": "Point", "coordinates": [ -105.6928, 38.415 ] } },
{ "type": "Feature", "properties": { "walk_rank": 5, "block_id": -2649904, "campaign_class": "confirm", "spot_order": 3, "role": "high_p_sample", "lon": -105.8292, "lat": 38.4411, "p_anomalous": 0.73, "elev_m": 2049.6 }, "geometry": { "type": "Point", "coordinates": [ -105.8292, 38.4411 ] } },
{ "type": "Feature", "properties": { "walk_rank": 5, "block_id": -2649904, "campaign_class": "confirm", "spot_order": 4, "role": "pour_point", "lon": -105.6097, "lat": 38.4125, "p_anomalous": 0.695, "elev_m": 1898.6 }, "geometry": { "type": "Point", "coordinates": [ -105.6097, 38.4125 ] } },
{ "type": "Feature", "properties": { "walk_rank": 6, "block_id": -2639904, "campaign_class": "confirm", "spot_order": 1, "role": "high_p_sample", "lon": -105.2539, "lat": 38.4653, "p_anomalous": 0.75, "elev_m": 1732.2 }, "geometry": { "type": "Point", "coordinates": [ -105.2539, 38.4653 ] } },
{ "type": "Feature", "properties": { "walk_rank": 6, "block_id": -2639904, "campaign_class": "confirm", "spot_order": 2, "role": "pour_point", "lon": -105.2539, "lat": 38.4383, "p_anomalous": 0.65, "elev_m": 1638.5 }, "geometry": { "type": "Point", "coordinates": [ -105.2539, 38.4383 ] } }
]
}
