{
"type": "FeatureCollection",
"name": "task11_spatial_cv_blocks_0p4deg",
"crs": { "type": "name", "properties": { "name": "urn:ogc:def:crs:OGC:1.3:CRS84" } },
"features": [
{ "type": "Feature", "properties": { "block_id": -2649906, "lon_min": -106.0, "lon_max": -105.6, "lat_min": 37.6, "lat_max": 38.0, "n_nure": 0, "mean_p": null, "max_p": null, "loco_auc": null, "campaign_class": "skip", "walk_rank": null, "spatial_flag": "no_nure" }, "geometry": { "type": "Polygon", "coordinates": [ [ [ -105.6, 37.6 ], [ -105.6, 38.0 ], [ -106.0, 38.0 ], [ -106.0, 37.6 ], [ -105.6, 37.6 ] ] ] } },
{ "type": "Feature", "properties": { "block_id": -2649905, "lon_min": -106.0, "lon_max": -105.6, "lat_min": 38.0, "lat_max": 38.4, "n_nure": 50, "mean_p": 0.1459, "max_p": 0.71, "loco_auc": 0.4732, "campaign_class": "confirm", "walk_rank": 2, "spatial_flag": "near_known_gold" }, "geometry": { "type": "Polygon", "coordinates": [ [ [ -105.6, 38.0 ], [ -105.6, 38.4 ], [ -106.0, 38.4 ], [ -106.0, 38.0 ], [ -105.6, 38.0 ] ] ] } },
{ "type": "Feature", "properties": { "block_id": -2649904, "lon_min": -106.0, "lon_max": -105.6, "lat_min": 38.4, "lat_max": 38.8, "n_nure": 149, "mean_p": 0.0982, "max_p": 0.75, "loco_auc": 0.5681, "campaign_class": "confirm", "walk_rank": 5, "spatial_flag": "near_known_gold" }, "geometry": { "type": "Polygon", "coordinates": [ [ [ -105.6, 38.4 ], [ -105.6, 38.8 ], [ -106.0, 38.8 ], [ -106.0, 38.4 ], [ -105.6, 38.4 ] ] ] } },
{ "type": "Feature", "properties": { "block_id": -2639906, "lon_min": -105.6, "lon_max": -105.2, "lat_min": 37.6, "lat_max": 38.0, "n_nure": 0, "mean_p": null, "max_p": null, "loco_auc": null, "campaign_class": "skip", "walk_rank": null, "spatial_flag": "no_nure" }, "geometry": { "type": "Polygon", "coordinates": [ [ [ -105.2, 37.6 ], [ -105.2, 38.0 ], [ -105.6, 38.0 ], [ -105.6, 37.6 ], [ -105.2, 37.6 ] ] ] } },
{ "type": "Feature", "properties": { "block_id": -2639905, "lon_min": -105.6, "lon_max": -105.2, "lat_min": 38.0, "lat_max": 38.4, "n_nure": 100, "mean_p": 0.1505, "max_p": 0.76, "loco_auc": 0.3455, "campaign_class": "expedition", "walk_rank": 1, "spatial_flag": "near_known_gold" }, "geometry": { "type": "Polygon", "coordinates": [ [ [ -105.2, 38.0 ], [ -105.2, 38.4 ], [ -105.6, 38.4 ], [ -105.6, 38.0 ], [ -105.2, 38.0 ] ] ] } },
{ "type": "Feature", "properties": { "block_id": -2639904, "lon_min": -105.6, "lon_max": -105.2, "lat_min": 38.4, "lat_max": 38.8, "n_nure": 385, "mean_p": 0.0527, "max_p": 0.75, "loco_auc": 0.3832, "campaign_class": "confirm", "walk_rank": 6, "spatial_flag": "near_known_gold" }, "geometry": { "type": "Polygon", "coordinates": [ [ [ -105.2, 38.4 ], [ -105.2, 38.8 ], [ -105.6, 38.8 ], [ -105.6, 38.4 ], [ -105.2, 38.4 ] ] ] } },
{ "type": "Feature", "properties": { "block_id": -2629906, "lon_min": -105.2, "lon_max": -104.8, "lat_min": 37.6, "lat_max": 38.0, "n_nure": 0, "mean_p": null, "max_p": null, "loco_auc": null, "campaign_class": "skip", "walk_rank": null, "spatial_flag": "no_nure" }, "geometry": { "type": "Polygon", "coordinates": [ [ [ -104.8, 37.6 ], [ -104.8, 38.0 ], [ -105.2, 38.0 ], [ -105.2, 37.6 ], [ -104.8, 37.6 ] ] ] } },
{ "type": "Feature", "properties": { "block_id": -2629905, "lon_min": -105.2, "lon_max": -104.8, "lat_min": 38.0, "lat_max": 38.4, "n_nure": 35, "mean_p": 0.0687, "max_p": 0.71, "loco_auc": 0.7197, "campaign_class": "confirm", "walk_rank": 3, "spatial_flag": "near_known_gold" }, "geometry": { "type": "Polygon", "coordinates": [ [ [ -104.8, 38.0 ], [ -104.8, 38.4 ], [ -105.2, 38.4 ], [ -105.2, 38.0 ], [ -104.8, 38.0 ] ] ] } },
{ "type": "Feature", "properties": { "block_id": -2629904, "lon_min": -105.2, "lon_max": -104.8, "lat_min": 38.4, "lat_max": 38.8, "n_nure": 13, "mean_p": 0.3223, "max_p": 0.735, "loco_auc": 0.5119, "campaign_class": "confirm", "walk_rank": 4, "spatial_flag": "near_known_gold" }, "geometry": { "type": "Polygon", "coordinates": [ [ [ -104.8, 38.4 ], [ -104.8, 38.8 ], [ -105.2, 38.8 ], [ -105.2, 38.4 ], [ -104.8, 38.4 ] ] ] } }
]
}
