{
"type": "FeatureCollection",
"name": "mrds_co_wet_mtns",
"crs": { "type": "name", "properties": { "name": "urn:ogc:def:crs:OGC:1.3:CRS84" } },
"features": [
{ "type": "Feature", "properties": { "dep_id": "10010845", "site_name": "Big Stake Nickel Deposit", "dev_stat": "Prospect", "code_list": " AU ", "target_commodity": "Gold", "lon": -105.32085, "lat": 38.12918 }, "geometry": { "type": "Point", "coordinates": [ -105.32085, 38.12918 ] } },
{ "type": "Feature", "properties": { "dep_id": "10012182", "site_name": "Elizabeth Prospect", "dev_stat": "Prospect", "code_list": " AG AU CU ", "target_commodity": "Gold", "lon": -105.35085, "lat": 38.12445 }, "geometry": { "type": "Point", "coordinates": [ -105.35085, 38.12445 ] } },
{ "type": "Feature", "properties": { "dep_id": "10012188", "site_name": "Golden Gate Mine", "dev_stat": "Past Producer", "code_list": " AG AU ", "target_commodity": "Gold", "lon": -105.34029, "lat": 38.12834 }, "geometry": { "type": "Point", "coordinates": [ -105.34029, 38.12834 ] } },
{ "type": "Feature", "properties": { "dep_id": "10012307", "site_name": "Seneca Tunnel", "dev_stat": "Prospect", "code_list": " AG AU ", "target_commodity": "Gold", "lon": -105.34057, "lat": 38.11362 }, "geometry": { "type": "Point", "coordinates": [ -105.34057, 38.11362 ] } },
{ "type": "Feature", "properties": { "dep_id": "10012309", "site_name": "Star Mine", "dev_stat": "Past Producer", "code_list": " AG AU ", "target_commodity": "Gold", "lon": -105.33335, "lat": 38.11973 }, "geometry": { "type": "Point", "coordinates": [ -105.33335, 38.11973 ] } },
{ "type": "Feature", "properties": { "dep_id": "10012877", "site_name": "Starbuck Claim", "dev_stat": "Prospect", "code_list": " TH AU ", "target_commodity": "Gold", "lon": -105.32085, "lat": 38.20001 }, "geometry": { "type": "Point", "coordinates": [ -105.32085, 38.20001 ] } },
{ "type": "Feature", "properties": { "dep_id": "10012934", "site_name": "Copper King", "dev_stat": "Past Producer", "code_list": " AU BA ", "target_commodity": "Gold", "lon": -105.8267, "lat": 38.24473 }, "geometry": { "type": "Point", "coordinates": [ -105.8267, 38.24473 ] } },
{ "type": "Feature", "properties": { "dep_id": "10012937", "site_name": "North Star Claim", "dev_stat": "Past Producer", "code_list": " AU ", "target_commodity": "Gold", "lon": -105.76614, "lat": 38.1064 }, "geometry": { "type": "Point", "coordinates": [ -105.76614, 38.1064 ] } },
{ "type": "Feature", "properties": { "dep_id": "10012938", "site_name": "Blake (Mirage, Cotton Creek) District", "dev_stat": "Past Producer", "code_list": " AU PB ", "target_commodity": "Gold", "lon": -105.78197, "lat": 38.12807 }, "geometry": { "type": "Point", "coordinates": [ -105.78197, 38.12807 ] } },
{ "type": "Feature", "properties": { "dep_id": "10013170", "site_name": "Arkansas River Placers District", "dev_stat": "Past Producer", "code_list": " AU CU ", "target_commodity": "Gold", "lon": -105.40752, "lat": 38.48501 }, "geometry": { "type": "Point", "coordinates": [ -105.40752, 38.48501 ] } },
{ "type": "Feature", "properties": { "dep_id": "10013528", "site_name": "Grape Creek/Greenhorn District", "dev_stat": "Past Producer", "code_list": " AU TH ", "target_commodity": "Gold", "lon": -105.33113, "lat": 38.39168 }, "geometry": { "type": "Point", "coordinates": [ -105.33113, 38.39168 ] } },
{ "type": "Feature", "properties": { "dep_id": "10013991", "site_name": "Copperhead Mine", "dev_stat": "Past Producer", "code_list": " AU PB ", "target_commodity": "Gold", "lon": -105.78558, "lat": 38.11862 }, "geometry": { "type": "Point", "coordinates": [ -105.78558, 38.11862 ] } },
{ "type": "Feature", "properties": { "dep_id": "10017503", "site_name": "Unknown", "dev_stat": "Occurrence", "code_list": " AU ", "target_commodity": "Gold", "lon": -105.10873, "lat": 38.65268 }, "geometry": { "type": "Point", "coordinates": [ -105.10873, 38.65268 ] } },
{ "type": "Feature", "properties": { "dep_id": "10017539", "site_name": "Unidentified Placer Occurrence", "dev_stat": "Occurrence", "code_list": " AU ", "target_commodity": "Gold", "lon": -105.59569, "lat": 38.41202 }, "geometry": { "type": "Point", "coordinates": [ -105.59569, 38.41202 ] } },
{ "type": "Feature", "properties": { "dep_id": "10017759", "site_name": "Alabaster  Occurrence", "dev_stat": "Occurrence", "code_list": " AU ", "target_commodity": "Gold", "lon": -105.15335, "lat": 38.48751 }, "geometry": { "type": "Point", "coordinates": [ -105.15335, 38.48751 ] } },
{ "type": "Feature", "properties": { "dep_id": "10017764", "site_name": "Unidentified Placer Occurrence", "dev_stat": "Occurrence", "code_list": " AU ", "target_commodity": "Gold", "lon": -105.26416, "lat": 38.43903 }, "geometry": { "type": "Point", "coordinates": [ -105.26416, 38.43903 ] } },
{ "type": "Feature", "properties": { "dep_id": "10018401", "site_name": "Unidentified Placer Occurrence", "dev_stat": "Occurrence", "code_list": " AU ", "target_commodity": "Gold", "lon": -105.54449, "lat": 38.42888 }, "geometry": { "type": "Point", "coordinates": [ -105.54449, 38.42888 ] } },
{ "type": "Feature", "properties": { "dep_id": "10018412", "site_name": "Unidentified Occurrence", "dev_stat": "Past Producer", "code_list": " AU ", "target_commodity": "Gold", "lon": -105.59225, "lat": 38.26529 }, "geometry": { "type": "Point", "coordinates": [ -105.59225, 38.26529 ] } },
{ "type": "Feature", "properties": { "dep_id": "10018615", "site_name": "Unidentified Placer Occurrence", "dev_stat": "Occurrence", "code_list": " AU ", "target_commodity": "Gold", "lon": -105.48341, "lat": 38.46726 }, "geometry": { "type": "Point", "coordinates": [ -105.48341, 38.46726 ] } },
{ "type": "Feature", "properties": { "dep_id": "10018624", "site_name": "Unidentified Placer Occurrence", "dev_stat": "Occurrence", "code_list": " AU ", "target_commodity": "Gold", "lon": -105.15351, "lat": 38.41037 }, "geometry": { "type": "Point", "coordinates": [ -105.15351, 38.41037 ] } },
{ "type": "Feature", "properties": { "dep_id": "10018625", "site_name": "Unidentified Placer Occurrence", "dev_stat": "Occurrence", "code_list": " AU ", "target_commodity": "Gold", "lon": -105.17186, "lat": 38.42491 }, "geometry": { "type": "Point", "coordinates": [ -105.17186, 38.42491 ] } },
{ "type": "Feature", "properties": { "dep_id": "10018629", "site_name": "Unidentified Placer Occurrence", "dev_stat": "Occurrence", "code_list": " AU ", "target_commodity": "Gold", "lon": -105.28241, "lat": 38.39486 }, "geometry": { "type": "Point", "coordinates": [ -105.28241, 38.39486 ] } },
{ "type": "Feature", "properties": { "dep_id": "10018682", "site_name": "Unidentified Placer Occurrence", "dev_stat": "Occurrence", "code_list": " AU ", "target_commodity": "Gold", "lon": -105.7929, "lat": 38.42564 }, "geometry": { "type": "Point", "coordinates": [ -105.7929, 38.42564 ] } },
{ "type": "Feature", "properties": { "dep_id": "10018686", "site_name": "Unidentified Placer Occurrence", "dev_stat": "Occurrence", "code_list": " AU ", "target_commodity": "Gold", "lon": -105.82793, "lat": 38.44163 }, "geometry": { "type": "Point", "coordinates": [ -105.82793, 38.44163 ] } },
{ "type": "Feature", "properties": { "dep_id": "10087598", "site_name": "Half Moon Mine", "dev_stat": "Past Producer", "code_list": " AG AU ", "target_commodity": "Gold", "lon": -105.32668, "lat": 38.12223 }, "geometry": { "type": "Point", "coordinates": [ -105.32668, 38.12223 ] } },
{ "type": "Feature", "properties": { "dep_id": "10087764", "site_name": "Cotopaxi Mine", "dev_stat": "Past Producer", "code_list": " CU AU MO ", "target_commodity": "Gold", "lon": -105.69836, "lat": 38.38001 }, "geometry": { "type": "Point", "coordinates": [ -105.69836, 38.38001 ] } },
{ "type": "Feature", "properties": { "dep_id": "10087784", "site_name": "Horseshoe Mine", "dev_stat": "Past Producer", "code_list": " CU AU FE ", "target_commodity": "Gold", "lon": -105.32918, "lat": 38.3914 }, "geometry": { "type": "Point", "coordinates": [ -105.32918, 38.3914 ] } },
{ "type": "Feature", "properties": { "dep_id": "10087787", "site_name": "Copper King Mine", "dev_stat": "Past Producer", "code_list": " CU AU ", "target_commodity": "Gold", "lon": -105.30251, "lat": 38.39057 }, "geometry": { "type": "Point", "coordinates": [ -105.30251, 38.39057 ] } },
{ "type": "Feature", "properties": { "dep_id": "10087880", "site_name": "Rio Oro Mine", "dev_stat": "Past Producer", "code_list": " AU ", "target_commodity": "Gold", "lon": -105.78114, "lat": 38.11807 }, "geometry": { "type": "Point", "coordinates": [ -105.78114, 38.11807 ] } },
{ "type": "Feature", "properties": { "dep_id": "10090942", "site_name": "Unidentified Whitehorn Placer Deposit", "dev_stat": "Occurrence", "code_list": " AU ", "target_commodity": "Gold", "lon": -105.87559, "lat": 38.64917 }, "geometry": { "type": "Point", "coordinates": [ -105.87559, 38.64917 ] } },
{ "type": "Feature", "properties": { "dep_id": "10091543", "site_name": "Unidentified Placer Occurrence", "dev_stat": "Occurrence", "code_list": " AU ", "target_commodity": "Gold", "lon": -105.37253, "lat": 38.48067 }, "geometry": { "type": "Point", "coordinates": [ -105.37253, 38.48067 ] } },
{ "type": "Feature", "properties": { "dep_id": "10094528", "site_name": "Cloverdale Mine", "dev_stat": "Past Producer", "code_list": " AU PB ", "target_commodity": "Gold", "lon": -105.72836, "lat": 38.23557 }, "geometry": { "type": "Point", "coordinates": [ -105.72836, 38.23557 ] } },
{ "type": "Feature", "properties": { "dep_id": "10097857", "site_name": "Red Mountain Prospect", "dev_stat": "Prospect", "code_list": " AU CU ", "target_commodity": "Gold", "lon": -105.46641, "lat": 38.29084 }, "geometry": { "type": "Point", "coordinates": [ -105.46641, 38.29084 ] } },
{ "type": "Feature", "properties": { "dep_id": "10101726", "site_name": "Bassick Mine", "dev_stat": "Past Producer", "code_list": " AU PB TE ", "target_commodity": "Gold", "lon": -105.33307, "lat": 38.12751 }, "geometry": { "type": "Point", "coordinates": [ -105.33307, 38.12751 ] } },
{ "type": "Feature", "properties": { "dep_id": "10143404", "site_name": "Unknown", "dev_stat": "Past Producer", "code_list": " AU CU ", "target_commodity": "Gold", "lon": -105.78448, "lat": 38.11361 }, "geometry": { "type": "Point", "coordinates": [ -105.78448, 38.11361 ] } },
{ "type": "Feature", "properties": { "dep_id": "10166802", "site_name": "General Ike", "dev_stat": "Past Producer", "code_list": " AU AG ", "target_commodity": "Gold", "lon": -105.28617, "lat": 38.20691 }, "geometry": { "type": "Point", "coordinates": [ -105.28617, 38.20691 ] } },
{ "type": "Feature", "properties": { "dep_id": "10190799", "site_name": "Mystery", "dev_stat": "Past Producer", "code_list": " AU AG ", "target_commodity": "Gold", "lon": -105.33527, "lat": 38.20831 }, "geometry": { "type": "Point", "coordinates": [ -105.33527, 38.20831 ] } },
{ "type": "Feature", "properties": { "dep_id": "10214316", "site_name": "Verde Creek Deposit", "dev_stat": "Past Producer", "code_list": " CU PB AU ", "target_commodity": "Gold", "lon": -105.60138, "lat": 38.13281 }, "geometry": { "type": "Point", "coordinates": [ -105.60138, 38.13281 ] } },
{ "type": "Feature", "properties": { "dep_id": "10216377", "site_name": "Unknown", "dev_stat": "Prospect", "code_list": " AU AG ", "target_commodity": "Gold", "lon": -105.86729, "lat": 38.28061 }, "geometry": { "type": "Point", "coordinates": [ -105.86729, 38.28061 ] } },
{ "type": "Feature", "properties": { "dep_id": "10239557", "site_name": "Lucky Find", "dev_stat": "Past Producer", "code_list": " AU AG ", "target_commodity": "Gold", "lon": -105.33417, "lat": 38.20831 }, "geometry": { "type": "Point", "coordinates": [ -105.33417, 38.20831 ] } },
{ "type": "Feature", "properties": { "dep_id": "10239713", "site_name": "Isabel Mine", "dev_stat": "Past Producer", "code_list": " PB AU ", "target_commodity": "Gold", "lon": -105.48308, "lat": 38.61531 }, "geometry": { "type": "Point", "coordinates": [ -105.48308, 38.61531 ] } },
{ "type": "Feature", "properties": { "dep_id": "10264269", "site_name": "Cotopaxi", "dev_stat": "Past Producer", "code_list": " AU CU ", "target_commodity": "Gold", "lon": -105.67638, "lat": 38.41611 }, "geometry": { "type": "Point", "coordinates": [ -105.67638, 38.41611 ] } },
{ "type": "Feature", "properties": { "dep_id": "10288026", "site_name": "Bull Domingo Mine", "dev_stat": "Past Producer", "code_list": " PB AU ", "target_commodity": "Gold", "lon": -105.43997, "lat": 38.17529 }, "geometry": { "type": "Point", "coordinates": [ -105.43997, 38.17529 ] } },
{ "type": "Feature", "properties": { "dep_id": "10311016", "site_name": "Rosita Hills District", "dev_stat": "Past Producer", "code_list": " AU PB AL ", "target_commodity": "Gold", "lon": -105.34779, "lat": 38.11862 }, "geometry": { "type": "Point", "coordinates": [ -105.34779, 38.11862 ] } },
{ "type": "Feature", "properties": { "dep_id": "10311030", "site_name": "Dawson Gold Project", "dev_stat": "Prospect", "code_list": " AU AG ", "target_commodity": "Gold", "lon": -105.3039, "lat": 38.38973 }, "geometry": { "type": "Point", "coordinates": [ -105.3039, 38.38973 ] } },
{ "type": "Feature", "properties": { "dep_id": "10400251", "site_name": "Victor", "dev_stat": "Past Producer", "code_list": " CU AU ", "target_commodity": "Gold", "lon": -105.82694, "lat": 38.25056 }, "geometry": { "type": "Point", "coordinates": [ -105.82694, 38.25056 ] } }
]
}
